{"type": "FeatureCollection", "features": [{"type": "Feature", "properties": {"date": "2026-10-06", "code": 1, "level": "waspada_tornado", "kategori": "Waspada Potensi Peluang Kecil", "color": "#FFFF00"}, "geometry": {"type": "MultiPolygon", "coordinates": [[[[106.47499999999934, -6.5750000000002355], [106.47499999999934, -6.625000000000236], [106.22499999999935, -6.625000000000236], [106.22499999999935, -6.5750000000002355], [106.17499999999936, -6.5750000000002355], [106.17499999999936, -6.475000000000234], [106.22499999999935, -6.475000000000234], [106.22499999999935, -6.425000000000233], [106.52499999999934, -6.425000000000233], [106.52499999999934, -6.475000000000234], [106.57499999999933, -6.475000000000234], [106.57499999999933, -6.5750000000002355], [106.47499999999934, -6.5750000000002355]]], [[[112.07499999999902, -2.6250000000001794], [112.07499999999902, -2.875000000000183], [111.77499999999904, -2.875000000000183], [111.77499999999904, -2.8250000000001823], [111.67499999999905, -2.8250000000001823], [111.67499999999905, -2.7750000000001815], [111.62499999999905, -2.7750000000001815], [111.62499999999905, -2.6250000000001794], [111.67499999999905, -2.6250000000001794], [111.67499999999905, -2.5750000000001787], [111.72499999999904, -2.5750000000001787], [111.72499999999904, -2.525000000000178], [111.82499999999904, -2.525000000000178], [111.82499999999904, -2.4750000000001773], [111.97499999999903, -2.4750000000001773], [111.97499999999903, -2.525000000000178], [112.02499999999903, -2.525000000000178], [112.02499999999903, -2.6250000000001794], [112.07499999999902, -2.6250000000001794]]], [[[119.07499999999862, -2.4750000000001773], [119.07499999999862, -2.525000000000178], [118.97499999999863, -2.525000000000178], [118.97499999999863, -2.4250000000001766], [119.02499999999863, -2.4250000000001766], [119.02499999999863, -2.375000000000176], [119.07499999999862, -2.375000000000176], [119.07499999999862, -2.325000000000175], [119.12499999999862, -2.325000000000175], [119.12499999999862, -2.2750000000001744], [119.17499999999862, -2.2750000000001744], [119.17499999999862, -2.4250000000001766], [119.12499999999862, -2.4250000000001766], [119.12499999999862, -2.4750000000001773], [119.07499999999862, -2.4750000000001773]]], [[[113.17499999999896, -1.6250000000001652], [113.17499999999896, -1.675000000000166], [113.12499999999896, -1.675000000000166], [113.12499999999896, -1.7250000000001666], [113.07499999999897, -1.7250000000001666], [113.07499999999897, -1.7750000000001673], [112.87499999999898, -1.7750000000001673], [112.87499999999898, -1.7250000000001666], [112.92499999999897, -1.7250000000001666], [112.92499999999897, -1.6250000000001652], [112.97499999999897, -1.6250000000001652], [112.97499999999897, -1.5750000000001645], [113.02499999999897, -1.5750000000001645], [113.02499999999897, -1.5250000000001638], [113.07499999999897, -1.5250000000001638], [113.07499999999897, -1.5750000000001645], [113.12499999999896, -1.5750000000001645], [113.12499999999896, -1.6250000000001652], [113.17499999999896, -1.6250000000001652]]], [[[116.12499999999879, -0.9250000000001553], [116.12499999999879, -0.975000000000156], [116.17499999999879, -0.975000000000156], [116.17499999999879, -1.0250000000001567], [116.22499999999879, -1.0250000000001567], [116.22499999999879, -1.0750000000001574], [116.27499999999878, -1.0750000000001574], [116.27499999999878, -1.125000000000158], [116.32499999999878, -1.125000000000158], [116.32499999999878, -1.2750000000001602], [116.27499999999878, -1.2750000000001602], [116.27499999999878, -1.325000000000161], [116.17499999999879, -1.325000000000161], [116.17499999999879, -1.3750000000001616], [116.12499999999879, -1.3750000000001616], [116.12499999999879, -1.4250000000001624], [116.0249999999988, -1.4250000000001624], [116.0249999999988, -1.6250000000001652], [116.0749999999988, -1.6250000000001652], [116.0749999999988, -1.675000000000166], [116.22499999999879, -1.675000000000166], [116.22499999999879, -1.7250000000001666], [116.27499999999878, -1.7250000000001666], [116.27499999999878, -1.675000000000166], [116.42499999999878, -1.675000000000166], [116.42499999999878, -1.6250000000001652], [116.57499999999877, -1.6250000000001652], [116.57499999999877, -1.825000000000168], [116.52499999999877, -1.825000000000168], [116.52499999999877, -1.8750000000001688], [116.47499999999877, -1.8750000000001688], [116.47499999999877, -1.9250000000001695], [116.42499999999878, -1.9250000000001695], [116.42499999999878, -1.9750000000001702], [116.37499999999878, -1.9750000000001702], [116.37499999999878, -2.025000000000171], [116.32499999999878, -2.025000000000171], [116.32499999999878, -2.0750000000001716], [116.27499999999878, -2.0750000000001716], [116.27499999999878, -2.1250000000001723], [116.17499999999879, -2.1250000000001723], [116.17499999999879, -2.175000000000173], [115.9249999999988, -2.175000000000173], [115.9249999999988, -2.1250000000001723], [115.72499999999881, -2.1250000000001723], [115.72499999999881, -2.0750000000001716], [115.62499999999882, -2.0750000000001716], [115.62499999999882, -2.025000000000171], [115.52499999999883, -2.025000000000171], [115.52499999999883, -1.9750000000001702], [115.42499999999883, -1.9750000000001702], [115.42499999999883, -1.9250000000001695], [115.32499999999884, -1.9250000000001695], [115.32499999999884, -1.9750000000001702], [115.27499999999884, -1.9750000000001702], [115.27499999999884, -2.025000000000171], [115.22499999999884, -2.025000000000171], [115.22499999999884, -2.1250000000001723], [115.17499999999885, -2.1250000000001723], [115.17499999999885, -2.325000000000175], [115.12499999999885, -2.325000000000175], [115.12499999999885, -2.375000000000176], [114.97499999999886, -2.375000000000176], [114.97499999999886, -2.4250000000001766], [114.82499999999887, -2.4250000000001766], [114.82499999999887, -2.375000000000176], [114.72499999999887, -2.375000000000176], [114.72499999999887, -2.2250000000001737], [114.82499999999887, -2.2250000000001737], [114.82499999999887, -2.175000000000173], [114.87499999999886, -2.175000000000173], [114.87499999999886, -2.1250000000001723], [114.92499999999886, -2.1250000000001723], [114.92499999999886, -2.025000000000171], [114.97499999999886, -2.025000000000171], [114.97499999999886, -1.7250000000001666], [115.02499999999885, -1.7250000000001666], [115.02499999999885, -1.675000000000166], [115.12499999999885, -1.675000000000166], [115.12499999999885, -1.6250000000001652], [115.27499999999884, -1.6250000000001652], [115.27499999999884, -1.5750000000001645], [115.37499999999883, -1.5750000000001645], [115.37499999999883, -1.5250000000001638], [115.42499999999883, -1.5250000000001638], [115.42499999999883, -1.475000000000163], [115.47499999999883, -1.475000000000163], [115.47499999999883, -1.325000000000161], [115.52499999999883, -1.325000000000161], [115.52499999999883, -1.2250000000001595], [115.57499999999882, -1.2250000000001595], [115.57499999999882, -1.1750000000001588], [115.62499999999882, -1.1750000000001588], [115.62499999999882, -1.0750000000001574], [115.67499999999882, -1.0750000000001574], [115.67499999999882, -0.7250000000001524], [115.72499999999881, -0.7250000000001524], [115.72499999999881, -0.625000000000151], [115.77499999999881, -0.625000000000151], [115.77499999999881, -0.5750000000001503], [115.8749999999988, -0.5750000000001503], [115.8749999999988, -0.5250000000001496], [116.0249999999988, -0.5250000000001496], [116.0249999999988, -0.5750000000001503], [116.0749999999988, -0.5750000000001503], [116.0749999999988, -0.9250000000001553], [116.12499999999879, -0.9250000000001553]]], [[[116.77499999999876, -1.3750000000001616], [116.77499999999876, -1.4250000000001624], [116.62499999999876, -1.4250000000001624], [116.62499999999876, -1.2250000000001595], [116.67499999999876, -1.2250000000001595], [116.67499999999876, -1.1750000000001588], [116.77499999999876, -1.1750000000001588], [116.77499999999876, -1.2250000000001595], [116.82499999999875, -1.2250000000001595], [116.82499999999875, -1.3750000000001616], [116.77499999999876, -1.3750000000001616]]], [[[112.72499999999899, -1.1750000000001588], [112.72499999999899, -1.2250000000001595], [112.62499999999899, -1.2250000000001595], [112.62499999999899, -1.1750000000001588], [112.72499999999899, -1.1750000000001588]]], [[[114.92499999999886, -0.7750000000001531], [114.92499999999886, -0.9250000000001553], [114.82499999999887, -0.9250000000001553], [114.82499999999887, -0.975000000000156], [114.42499999999889, -0.975000000000156], [114.42499999999889, -0.9250000000001553], [114.37499999999889, -0.9250000000001553], [114.37499999999889, -0.8250000000001538], [114.42499999999889, -0.8250000000001538], [114.42499999999889, -0.7250000000001524], [114.47499999999889, -0.7250000000001524], [114.47499999999889, -0.6750000000001517], [114.62499999999888, -0.6750000000001517], [114.62499999999888, -0.625000000000151], [114.92499999999886, -0.625000000000151], [114.92499999999886, -0.7250000000001524], [114.97499999999886, -0.7250000000001524], [114.97499999999886, -0.7750000000001531], [114.92499999999886, -0.7750000000001531]]], [[[110.42499999999912, -0.275000000000146], [110.42499999999912, -0.3250000000001467], [110.37499999999912, -0.3250000000001467], [110.37499999999912, -0.37500000000014744], [110.12499999999913, -0.37500000000014744], [110.12499999999913, -0.2250000000001453], [110.17499999999913, -0.2250000000001453], [110.17499999999913, -0.1750000000001446], [110.37499999999912, -0.1750000000001446], [110.37499999999912, -0.2250000000001453], [110.47499999999911, -0.2250000000001453], [110.47499999999911, -0.275000000000146], [110.42499999999912, -0.275000000000146]]], [[[114.92499999999886, -0.275000000000146], [114.92499999999886, -0.3250000000001467], [114.82499999999887, -0.3250000000001467], [114.82499999999887, -0.275000000000146], [114.77499999999887, -0.275000000000146], [114.77499999999887, -0.2250000000001453], [114.82499999999887, -0.2250000000001453], [114.82499999999887, -0.1750000000001446], [114.87499999999886, -0.1750000000001446], [114.87499999999886, -0.2250000000001453], [114.97499999999886, -0.2250000000001453], [114.97499999999886, -0.275000000000146], [114.92499999999886, -0.275000000000146]]], [[[115.22499999999884, -0.12500000000014388], [115.22499999999884, -0.1750000000001446], [115.07499999999885, -0.1750000000001446], [115.07499999999885, 0.024999999999858247], [115.12499999999885, 0.024999999999858247], [115.12499999999885, 0.07499999999985896], [115.17499999999885, 0.07499999999985896], [115.17499999999885, 0.12499999999985967], [115.27499999999884, 0.12499999999985967], [115.27499999999884, 0.07499999999985896], [115.32499999999884, 0.07499999999985896], [115.32499999999884, -0.12500000000014388], [115.22499999999884, -0.12500000000014388]]], [[[117.17499999999873, 0.07499999999985896], [117.17499999999873, 0.024999999999858247], [117.12499999999874, 0.024999999999858247], [117.12499999999874, 0.17499999999986038], [117.17499999999873, 0.17499999999986038], [117.17499999999873, 0.12499999999985967], [117.22499999999873, 0.12499999999985967], [117.22499999999873, 0.07499999999985896], [117.17499999999873, 0.07499999999985896]]], [[[113.42499999999895, 0.8249999999998696], [113.42499999999895, 0.5249999999998654], [113.32499999999895, 0.5249999999998654], [113.32499999999895, 0.47499999999986464], [113.27499999999895, 0.47499999999986464], [113.27499999999895, 0.42499999999986393], [113.22499999999896, 0.42499999999986393], [113.22499999999896, 0.3749999999998632], [113.17499999999896, 0.3749999999998632], [113.17499999999896, 0.2749999999998618], [113.12499999999896, 0.2749999999998618], [113.12499999999896, 0.2249999999998611], [113.07499999999897, 0.2249999999998611], [113.07499999999897, 0.17499999999986038], [113.02499999999897, 0.17499999999986038], [113.02499999999897, 0.12499999999985967], [112.92499999999897, 0.12499999999985967], [112.92499999999897, 0.07499999999985896], [112.87499999999898, 0.07499999999985896], [112.87499999999898, 0.024999999999858247], [112.82499999999898, 0.024999999999858247], [112.82499999999898, -0.07500000000014317], [112.87499999999898, -0.07500000000014317], [112.87499999999898, -0.1750000000001446], [112.92499999999897, -0.1750000000001446], [112.92499999999897, -0.275000000000146], [112.72499999999899, -0.275000000000146], [112.72499999999899, -0.3250000000001467], [112.574999999999, -0.3250000000001467], [112.574999999999, -0.275000000000146], [112.474999999999, -0.275000000000146], [112.474999999999, -0.2250000000001453], [112.424999999999, -0.2250000000001453], [112.424999999999, -0.12500000000014388], [112.474999999999, -0.12500000000014388], [112.474999999999, 0.024999999999858247], [112.524999999999, 0.024999999999858247], [112.524999999999, 0.2249999999998611], [112.474999999999, 0.2249999999998611], [112.474999999999, 0.3249999999998625], [112.524999999999, 0.3249999999998625], [112.524999999999, 0.42499999999986393], [112.574999999999, 0.42499999999986393], [112.574999999999, 0.47499999999986464], [112.62499999999899, 0.47499999999986464], [112.62499999999899, 0.5249999999998654], [112.67499999999899, 0.5249999999998654], [112.67499999999899, 0.5749999999998661], [112.77499999999898, 0.5749999999998661], [112.77499999999898, 0.6249999999998668], [112.97499999999897, 0.6249999999998668], [112.97499999999897, 0.6749999999998675], [113.07499999999897, 0.6749999999998675], [113.07499999999897, 0.7749999999998689], [113.12499999999896, 0.7749999999998689], [113.12499999999896, 0.9749999999998717], [113.17499999999896, 0.9749999999998717], [113.17499999999896, 1.0249999999998725], [113.32499999999895, 1.0249999999998725], [113.32499999999895, 0.9749999999998717], [113.37499999999895, 0.9749999999998717], [113.37499999999895, 0.8249999999998696], [113.42499999999895, 0.8249999999998696]]], [[[114.87499999999886, 0.5749999999998661], [114.87499999999886, 0.5249999999998654], [114.92499999999886, 0.5249999999998654], [114.92499999999886, 0.42499999999986393], [114.97499999999886, 0.42499999999986393], [114.97499999999886, 0.17499999999986038], [114.92499999999886, 0.17499999999986038], [114.92499999999886, 0.12499999999985967], [114.87499999999886, 0.12499999999985967], [114.87499999999886, 0.07499999999985896], [114.67499999999887, 0.07499999999985896], [114.67499999999887, 0.12499999999985967], [114.62499999999888, 0.12499999999985967], [114.62499999999888, 0.2749999999998618], [114.57499999999888, 0.2749999999998618], [114.57499999999888, 0.47499999999986464], [114.52499999999888, 0.47499999999986464], [114.52499999999888, 0.5249999999998654], [114.57499999999888, 0.5249999999998654], [114.57499999999888, 0.6249999999998668], [114.62499999999888, 0.6249999999998668], [114.62499999999888, 0.6749999999998675], [114.77499999999887, 0.6749999999998675], [114.77499999999887, 0.6249999999998668], [114.82499999999887, 0.6249999999998668], [114.82499999999887, 0.5749999999998661], [114.87499999999886, 0.5749999999998661]]], [[[115.9749999999988, 0.42499999999986393], [115.9749999999988, 0.47499999999986464], [115.9249999999988, 0.47499999999986464], [115.9249999999988, 0.5749999999998661], [115.8749999999988, 0.5749999999998661], [115.8749999999988, 0.7249999999998682], [115.9249999999988, 0.7249999999998682], [115.9249999999988, 0.7749999999998689], [116.0749999999988, 0.7749999999998689], [116.0749999999988, 0.47499999999986464], [116.0249999999988, 0.47499999999986464], [116.0249999999988, 0.42499999999986393], [115.9749999999988, 0.42499999999986393]]], [[[110.32499999999912, 0.7249999999998682], [110.22499999999913, 0.7249999999998682], [110.22499999999913, 0.6749999999998675], [109.82499999999915, 0.6749999999998675], [109.82499999999915, 0.7249999999998682], [109.77499999999915, 0.7249999999998682], [109.77499999999915, 0.7749999999998689], [109.82499999999915, 0.7749999999998689], [109.82499999999915, 0.8249999999998696], [109.87499999999915, 0.8249999999998696], [109.87499999999915, 0.8749999999998703], [109.92499999999914, 0.8749999999998703], [109.92499999999914, 0.924999999999871], [109.97499999999914, 0.924999999999871], [109.97499999999914, 0.9749999999998717], [110.02499999999914, 0.9749999999998717], [110.02499999999914, 1.0249999999998725], [110.07499999999914, 1.0249999999998725], [110.07499999999914, 1.0749999999998732], [110.22499999999913, 1.0749999999998732], [110.22499999999913, 1.0249999999998725], [110.27499999999912, 1.0249999999998725], [110.27499999999912, 0.9749999999998717], [110.32499999999912, 0.9749999999998717], [110.32499999999912, 0.7249999999998682]]], [[[114.82499999999887, 3.7749999999999115], [114.77499999999887, 3.7749999999999115], [114.77499999999887, 3.724999999999911], [114.72499999999887, 3.724999999999911], [114.72499999999887, 3.7749999999999115], [114.67499999999887, 3.7749999999999115], [114.67499999999887, 4.024999999999915], [114.72499999999887, 4.024999999999915], [114.72499999999887, 4.1249999999999165], [114.82499999999887, 4.1249999999999165], [114.82499999999887, 4.174999999999917], [114.92499999999886, 4.174999999999917], [114.92499999999886, 3.9249999999999137], [114.87499999999886, 3.9249999999999137], [114.87499999999886, 3.8249999999999122], [114.82499999999887, 3.8249999999999122], [114.82499999999887, 3.7749999999999115]]], [[[117.07499999999874, 4.8249999999999265], [117.07499999999874, 4.774999999999926], [117.12499999999874, 4.774999999999926], [117.12499999999874, 4.624999999999924], [117.07499999999874, 4.624999999999924], [117.07499999999874, 4.574999999999923], [116.97499999999874, 4.574999999999923], [116.97499999999874, 4.524999999999922], [116.87499999999875, 4.524999999999922], [116.87499999999875, 4.574999999999923], [116.72499999999876, 4.574999999999923], [116.72499999999876, 4.624999999999924], [116.57499999999877, 4.624999999999924], [116.57499999999877, 4.674999999999924], [116.47499999999877, 4.674999999999924], [116.47499999999877, 4.8249999999999265], [116.52499999999877, 4.8249999999999265], [116.52499999999877, 4.874999999999927], [116.62499999999876, 4.874999999999927], [116.62499999999876, 4.924999999999928], [116.92499999999875, 4.924999999999928], [116.92499999999875, 4.874999999999927], [117.02499999999874, 4.874999999999927], [117.02499999999874, 4.8249999999999265], [117.07499999999874, 4.8249999999999265]]], [[[143.87499999999721, -4.725000000000209], [143.87499999999721, -4.77500000000021], [143.72499999999724, -4.77500000000021], [143.72499999999724, -4.725000000000209], [143.62499999999721, -4.725000000000209], [143.62499999999721, -4.6750000000002085], [143.72499999999724, -4.6750000000002085], [143.72499999999724, -4.625000000000208], [143.8249999999972, -4.625000000000208], [143.8249999999972, -4.6750000000002085], [143.92499999999723, -4.6750000000002085], [143.92499999999723, -4.725000000000209], [143.87499999999721, -4.725000000000209]]], [[[143.22499999999724, -3.875000000000197], [143.22499999999724, -3.8250000000001965], [143.17499999999725, -3.8250000000001965], [143.17499999999725, -3.725000000000195], [143.22499999999724, -3.725000000000195], [143.22499999999724, -3.7750000000001958], [143.27499999999725, -3.7750000000001958], [143.27499999999725, -3.875000000000197], [143.22499999999724, -3.875000000000197]]], [[[135.2749999999977, -3.575000000000193], [135.2749999999977, -3.525000000000192], [135.2249999999977, -3.525000000000192], [135.2249999999977, -3.425000000000191], [135.3749999999977, -3.425000000000191], [135.3749999999977, -3.525000000000192], [135.32499999999771, -3.525000000000192], [135.32499999999771, -3.575000000000193], [135.2749999999977, -3.575000000000193]]], [[[136.02499999999765, -3.075000000000186], [136.02499999999765, -3.1250000000001865], [135.87499999999767, -3.1250000000001865], [135.87499999999767, -3.075000000000186], [135.82499999999766, -3.075000000000186], [135.82499999999766, -3.025000000000185], [135.87499999999767, -3.025000000000185], [135.87499999999767, -2.875000000000183], [135.92499999999768, -2.875000000000183], [135.92499999999768, -2.8250000000001823], [136.02499999999765, -2.8250000000001823], [136.02499999999765, -2.7750000000001815], [136.17499999999765, -2.7750000000001815], [136.17499999999765, -3.025000000000185], [136.12499999999767, -3.025000000000185], [136.12499999999767, -3.075000000000186], [136.02499999999765, -3.075000000000186]]], [[[133.02499999999782, -2.8250000000001823], [133.02499999999782, -2.875000000000183], [132.92499999999785, -2.875000000000183], [132.92499999999785, -2.725000000000181], [133.02499999999782, -2.725000000000181], [133.02499999999782, -2.7750000000001815], [133.07499999999783, -2.7750000000001815], [133.07499999999783, -2.8250000000001823], [133.02499999999782, -2.8250000000001823]]], [[[139.1249999999975, -2.67500000000018], [139.1249999999975, -2.6250000000001794], [139.22499999999746, -2.6250000000001794], [139.22499999999746, -2.725000000000181], [139.0749999999975, -2.725000000000181], [139.0749999999975, -2.67500000000018], [139.1249999999975, -2.67500000000018]]], [[[138.57499999999752, -2.8250000000001823], [138.52499999999753, -2.8250000000001823], [138.52499999999753, -2.875000000000183], [138.4249999999975, -2.875000000000183], [138.4249999999975, -2.9250000000001837], [138.32499999999754, -2.9250000000001837], [138.32499999999754, -2.875000000000183], [138.22499999999752, -2.875000000000183], [138.22499999999752, -2.8250000000001823], [138.17499999999754, -2.8250000000001823], [138.17499999999754, -2.67500000000018], [138.12499999999756, -2.67500000000018], [138.12499999999756, -2.4250000000001766], [138.17499999999754, -2.4250000000001766], [138.17499999999754, -2.325000000000175], [138.27499999999753, -2.325000000000175], [138.27499999999753, -2.2750000000001744], [138.57499999999752, -2.2750000000001744], [138.57499999999752, -2.525000000000178], [138.6249999999975, -2.525000000000178], [138.6249999999975, -2.7750000000001815], [138.57499999999752, -2.7750000000001815], [138.57499999999752, -2.8250000000001823]]], [[[136.6249999999976, -2.4750000000001773], [136.77499999999762, -2.4750000000001773], [136.77499999999762, -2.5750000000001787], [136.72499999999764, -2.5750000000001787], [136.72499999999764, -2.6250000000001794], [136.6249999999976, -2.6250000000001794], [136.6249999999976, -2.4750000000001773]]], [[[140.7749999999974, -2.375000000000176], [140.7749999999974, -2.4250000000001766], [140.7249999999974, -2.4250000000001766], [140.7249999999974, -2.525000000000178], [140.7749999999974, -2.525000000000178], [140.7749999999974, -2.7750000000001815], [140.62499999999739, -2.7750000000001815], [140.62499999999739, -2.4750000000001773], [140.5749999999974, -2.4750000000001773], [140.5749999999974, -2.4250000000001766], [140.52499999999742, -2.4250000000001766], [140.52499999999742, -2.375000000000176], [140.4749999999974, -2.375000000000176], [140.4749999999974, -2.2750000000001744], [140.5749999999974, -2.2750000000001744], [140.5749999999974, -2.2250000000001737], [140.6749999999974, -2.2250000000001737], [140.6749999999974, -2.2750000000001744], [140.7249999999974, -2.2750000000001744], [140.7249999999974, -2.375000000000176], [140.7749999999974, -2.375000000000176]]], [[[133.87499999999778, -2.025000000000171], [133.87499999999778, -2.0750000000001716], [133.97499999999778, -2.0750000000001716], [133.97499999999778, -2.1250000000001723], [134.12499999999778, -2.1250000000001723], [134.12499999999778, -2.175000000000173], [134.22499999999775, -2.175000000000173], [134.22499999999775, -2.2250000000001737], [134.32499999999777, -2.2250000000001737], [134.32499999999777, -2.525000000000178], [134.27499999999776, -2.525000000000178], [134.27499999999776, -2.5750000000001787], [134.22499999999775, -2.5750000000001787], [134.22499999999775, -2.6250000000001794], [134.12499999999778, -2.6250000000001794], [134.12499999999778, -2.67500000000018], [133.97499999999778, -2.67500000000018], [133.97499999999778, -2.6250000000001794], [133.82499999999777, -2.6250000000001794], [133.82499999999777, -2.5750000000001787], [133.7749999999978, -2.5750000000001787], [133.7749999999978, -2.525000000000178], [133.7249999999978, -2.525000000000178], [133.7249999999978, -2.4750000000001773], [133.6749999999978, -2.4750000000001773], [133.6749999999978, -2.375000000000176], [133.62499999999778, -2.375000000000176], [133.62499999999778, -2.325000000000175], [133.52499999999782, -2.325000000000175], [133.52499999999782, -2.2750000000001744], [133.3749999999978, -2.2750000000001744], [133.3749999999978, -2.2250000000001737], [133.02499999999782, -2.2250000000001737], [133.02499999999782, -2.175000000000173], [132.97499999999783, -2.175000000000173], [132.97499999999783, -2.1250000000001723], [133.02499999999782, -2.1250000000001723], [133.02499999999782, -2.0750000000001716], [133.07499999999783, -2.0750000000001716], [133.07499999999783, -2.025000000000171], [133.17499999999782, -2.025000000000171], [133.17499999999782, -1.9750000000001702], [133.32499999999783, -1.9750000000001702], [133.32499999999783, -1.9250000000001695], [133.4249999999978, -1.9250000000001695], [133.4249999999978, -1.9750000000001702], [133.7749999999978, -1.9750000000001702], [133.7749999999978, -2.025000000000171], [133.87499999999778, -2.025000000000171]]], [[[139.77499999999745, -2.175000000000173], [139.77499999999745, -2.2250000000001737], [139.92499999999745, -2.2250000000001737], [139.92499999999745, -2.2750000000001744], [139.97499999999744, -2.2750000000001744], [139.97499999999744, -2.325000000000175], [140.07499999999743, -2.325000000000175], [140.07499999999743, -2.4250000000001766], [139.47499999999746, -2.4250000000001766], [139.47499999999746, -2.4750000000001773], [139.3249999999975, -2.4750000000001773], [139.3249999999975, -2.525000000000178], [139.27499999999748, -2.525000000000178], [139.27499999999748, -2.4750000000001773], [139.17499999999748, -2.4750000000001773], [139.17499999999748, -2.4250000000001766], [139.0749999999975, -2.4250000000001766], [139.0749999999975, -2.375000000000176], [138.9749999999975, -2.375000000000176], [138.9749999999975, -2.325000000000175], [138.8749999999975, -2.325000000000175], [138.8749999999975, -2.2750000000001744], [138.8249999999975, -2.2750000000001744], [138.8249999999975, -2.175000000000173], [138.8749999999975, -2.175000000000173], [138.8749999999975, -2.1250000000001723], [139.0749999999975, -2.1250000000001723], [139.0749999999975, -2.0750000000001716], [139.27499999999748, -2.0750000000001716], [139.27499999999748, -2.1250000000001723], [139.47499999999746, -2.1250000000001723], [139.47499999999746, -2.175000000000173], [139.77499999999745, -2.175000000000173]]], [[[132.67499999999785, -1.675000000000166], [132.67499999999785, -1.7250000000001666], [132.77499999999785, -1.7250000000001666], [132.77499999999785, -1.825000000000168], [132.82499999999783, -1.825000000000168], [132.82499999999783, -1.9250000000001695], [132.72499999999786, -1.9250000000001695], [132.72499999999786, -1.8750000000001688], [132.67499999999785, -1.8750000000001688], [132.67499999999785, -1.825000000000168], [132.62499999999784, -1.825000000000168], [132.62499999999784, -1.7750000000001673], [132.57499999999786, -1.7750000000001673], [132.57499999999786, -1.7250000000001666], [132.52499999999787, -1.7250000000001666], [132.52499999999787, -1.675000000000166], [132.47499999999786, -1.675000000000166], [132.47499999999786, -1.5750000000001645], [132.57499999999786, -1.5750000000001645], [132.57499999999786, -1.6250000000001652], [132.62499999999784, -1.6250000000001652], [132.62499999999784, -1.675000000000166], [132.67499999999785, -1.675000000000166]]], [[[119.32499999999861, -1.1750000000001588], [119.32499999999861, -1.2750000000001602], [119.12499999999862, -1.2750000000001602], [119.12499999999862, -1.0250000000001567], [119.17499999999862, -1.0250000000001567], [119.17499999999862, -0.975000000000156], [119.32499999999861, -0.975000000000156], [119.32499999999861, -1.0250000000001567], [119.37499999999861, -1.0250000000001567], [119.37499999999861, -1.1750000000001588], [119.32499999999861, -1.1750000000001588]]], [[[134.62499999999773, -0.9250000000001553], [134.62499999999773, -0.975000000000156], [134.52499999999776, -0.975000000000156], [134.52499999999776, -0.9250000000001553], [134.47499999999775, -0.9250000000001553], [134.47499999999775, -0.7750000000001531], [134.52499999999776, -0.7750000000001531], [134.52499999999776, -0.7250000000001524], [134.77499999999773, -0.7250000000001524], [134.77499999999773, -0.8750000000001545], [134.72499999999775, -0.8750000000001545], [134.72499999999775, -0.9250000000001553], [134.62499999999773, -0.9250000000001553]]], [[[119.97499999999857, -0.42500000000014815], [119.97499999999857, -0.5250000000001496], [119.82499999999858, -0.5250000000001496], [119.82499999999858, -0.47500000000014886], [119.77499999999858, -0.47500000000014886], [119.77499999999858, -0.3250000000001467], [119.82499999999858, -0.3250000000001467], [119.82499999999858, -0.275000000000146], [119.87499999999858, -0.275000000000146], [119.87499999999858, -0.2250000000001453], [119.97499999999857, -0.2250000000001453], [119.97499999999857, -0.3250000000001467], [120.02499999999857, -0.3250000000001467], [120.02499999999857, -0.42500000000014815], [119.97499999999857, -0.42500000000014815]]], [[[132.37499999999787, 0.024999999999858247], [132.42499999999785, 0.024999999999858247], [132.42499999999785, 0.07499999999985896], [132.47499999999786, 0.07499999999985896], [132.47499999999786, 0.024999999999858247], [132.52499999999787, 0.024999999999858247], [132.52499999999787, -0.07500000000014317], [132.37499999999787, -0.07500000000014317], [132.37499999999787, 0.024999999999858247]]], [[[120.47499999999854, 1.624999999999881], [120.32499999999855, 1.624999999999881], [120.32499999999855, 1.6749999999998817], [120.27499999999856, 1.6749999999998817], [120.27499999999856, 1.8249999999998838], [120.22499999999856, 1.8249999999998838], [120.22499999999856, 1.974999999999886], [120.27499999999856, 1.974999999999886], [120.27499999999856, 2.0749999999998874], [120.32499999999855, 2.0749999999998874], [120.32499999999855, 2.124999999999888], [120.47499999999854, 2.124999999999888], [120.47499999999854, 2.0749999999998874], [120.52499999999854, 2.0749999999998874], [120.52499999999854, 1.6749999999998817], [120.47499999999854, 1.6749999999998817], [120.47499999999854, 1.624999999999881]]]]}}]}