{"type": "FeatureCollection", "features": [{"type": "Feature", "properties": {"date": "2026-10-02", "code": 1, "level": "waspada_tornado", "kategori": "Waspada Potensi Peluang Kecil", "color": "#FFFF00"}, "geometry": {"type": "MultiPolygon", "coordinates": [[[[107.02499999999931, -6.475000000000234], [107.1249999999993, -6.475000000000234], [107.1249999999993, -6.525000000000235], [107.02499999999931, -6.525000000000235], [107.02499999999931, -6.475000000000234]]], [[[112.474999999999, -0.47500000000014886], [112.474999999999, -0.5250000000001496], [112.374999999999, -0.5250000000001496], [112.374999999999, -0.37500000000014744], [112.424999999999, -0.37500000000014744], [112.424999999999, -0.3250000000001467], [112.474999999999, -0.3250000000001467], [112.474999999999, -0.42500000000014815], [112.524999999999, -0.42500000000014815], [112.524999999999, -0.47500000000014886], [112.474999999999, -0.47500000000014886]]], [[[111.22499999999907, -0.2250000000001453], [111.22499999999907, -0.275000000000146], [111.27499999999907, -0.275000000000146], [111.27499999999907, -0.42500000000014815], [110.87499999999909, -0.42500000000014815], [110.87499999999909, -0.37500000000014744], [110.7749999999991, -0.37500000000014744], [110.7749999999991, -0.1750000000001446], [110.8249999999991, -0.1750000000001446], [110.8249999999991, -0.12500000000014388], [111.12499999999908, -0.12500000000014388], [111.12499999999908, -0.1750000000001446], [111.17499999999907, -0.1750000000001446], [111.17499999999907, -0.2250000000001453], [111.22499999999907, -0.2250000000001453]]], [[[112.82499999999898, 0.17499999999986038], [112.77499999999898, 0.17499999999986038], [112.77499999999898, 0.07499999999985896], [112.72499999999899, 0.07499999999985896], [112.72499999999899, 0.024999999999858247], [112.67499999999899, 0.024999999999858247], [112.67499999999899, -0.025000000000142464], [112.62499999999899, -0.025000000000142464], [112.62499999999899, -0.07500000000014317], [112.574999999999, -0.07500000000014317], [112.574999999999, -0.12500000000014388], [112.524999999999, -0.12500000000014388], [112.524999999999, -0.1750000000001446], [112.424999999999, -0.1750000000001446], [112.424999999999, -0.12500000000014388], [112.374999999999, -0.12500000000014388], [112.374999999999, -0.025000000000142464], [112.32499999999901, -0.025000000000142464], [112.32499999999901, 0.2749999999998618], [112.374999999999, 0.2749999999998618], [112.374999999999, 0.42499999999986393], [112.424999999999, 0.42499999999986393], [112.424999999999, 0.47499999999986464], [112.474999999999, 0.47499999999986464], [112.474999999999, 0.5749999999998661], [112.574999999999, 0.5749999999998661], [112.574999999999, 0.6249999999998668], [112.77499999999898, 0.6249999999998668], [112.77499999999898, 0.5749999999998661], [112.82499999999898, 0.5749999999998661], [112.82499999999898, 0.17499999999986038]]], [[[109.57499999999916, 0.7249999999998682], [109.57499999999916, 0.7749999999998689], [109.62499999999916, 0.7749999999998689], [109.62499999999916, 0.8249999999998696], [109.67499999999916, 0.8249999999998696], [109.67499999999916, 0.8749999999998703], [109.82499999999915, 0.8749999999998703], [109.82499999999915, 0.6249999999998668], [109.62499999999916, 0.6249999999998668], [109.62499999999916, 0.7249999999998682], [109.57499999999916, 0.7249999999998682]]], [[[116.82499999999875, 2.474999999999893], [116.82499999999875, 2.3749999999998916], [116.87499999999875, 2.3749999999998916], [116.87499999999875, 2.324999999999891], [116.92499999999875, 2.324999999999891], [116.92499999999875, 2.2249999999998895], [116.97499999999874, 2.2249999999998895], [116.97499999999874, 2.124999999999888], [117.02499999999874, 2.124999999999888], [117.02499999999874, 1.9249999999998852], [116.97499999999874, 1.9249999999998852], [116.97499999999874, 1.7249999999998824], [116.92499999999875, 1.7249999999998824], [116.92499999999875, 1.624999999999881], [116.87499999999875, 1.624999999999881], [116.87499999999875, 1.5249999999998796], [116.92499999999875, 1.5249999999998796], [116.92499999999875, 1.4749999999998789], [116.97499999999874, 1.4749999999998789], [116.97499999999874, 1.4249999999998781], [117.02499999999874, 1.4249999999998781], [117.02499999999874, 1.3749999999998774], [117.07499999999874, 1.3749999999998774], [117.07499999999874, 1.1749999999998746], [117.02499999999874, 1.1749999999998746], [117.02499999999874, 1.0749999999998732], [116.92499999999875, 1.0749999999998732], [116.92499999999875, 1.0249999999998725], [116.72499999999876, 1.0249999999998725], [116.72499999999876, 0.9749999999998717], [116.62499999999876, 0.9749999999998717], [116.62499999999876, 0.924999999999871], [116.57499999999877, 0.924999999999871], [116.57499999999877, 0.8749999999998703], [116.47499999999877, 0.8749999999998703], [116.47499999999877, 0.8249999999998696], [116.37499999999878, 0.8249999999998696], [116.37499999999878, 0.7749999999998689], [116.22499999999879, 0.7749999999998689], [116.22499999999879, 0.8249999999998696], [116.0749999999988, 0.8249999999998696], [116.0749999999988, 0.8749999999998703], [116.0249999999988, 0.8749999999998703], [116.0249999999988, 0.8249999999998696], [115.9249999999988, 0.8249999999998696], [115.9249999999988, 0.7749999999998689], [115.8749999999988, 0.7749999999998689], [115.8749999999988, 0.7249999999998682], [115.57499999999882, 0.7249999999998682], [115.57499999999882, 0.7749999999998689], [115.22499999999884, 0.7749999999998689], [115.22499999999884, 0.7249999999998682], [114.92499999999886, 0.7249999999998682], [114.92499999999886, 0.6749999999998675], [114.67499999999887, 0.6749999999998675], [114.67499999999887, 0.7249999999998682], [114.52499999999888, 0.7249999999998682], [114.52499999999888, 0.7749999999998689], [114.2749999999989, 0.7749999999998689], [114.2749999999989, 0.3249999999998625], [114.2249999999989, 0.3249999999998625], [114.2249999999989, 0.2749999999998618], [114.1749999999989, 0.2749999999998618], [114.1749999999989, 0.2249999999998611], [114.02499999999891, 0.2249999999998611], [114.02499999999891, 0.2749999999998618], [113.97499999999891, 0.2749999999998618], [113.97499999999891, 0.3249999999998625], [113.92499999999892, 0.3249999999998625], [113.92499999999892, 0.6249999999998668], [113.97499999999891, 0.6249999999998668], [113.97499999999891, 0.8249999999998696], [114.02499999999891, 0.8249999999998696], [114.02499999999891, 0.924999999999871], [114.07499999999891, 0.924999999999871], [114.07499999999891, 0.9749999999998717], [114.1249999999989, 0.9749999999998717], [114.1249999999989, 1.0749999999998732], [114.1749999999989, 1.0749999999998732], [114.1749999999989, 1.1249999999998739], [114.2249999999989, 1.1249999999998739], [114.2249999999989, 1.1749999999998746], [114.52499999999888, 1.1749999999998746], [114.52499999999888, 1.1249999999998739], [114.62499999999888, 1.1249999999998739], [114.62499999999888, 1.0749999999998732], [114.82499999999887, 1.0749999999998732], [114.82499999999887, 1.1249999999998739], [114.97499999999886, 1.1249999999998739], [114.97499999999886, 1.1749999999998746], [115.27499999999884, 1.1749999999998746], [115.27499999999884, 1.2249999999998753], [115.37499999999883, 1.2249999999998753], [115.37499999999883, 1.274999999999876], [115.42499999999883, 1.274999999999876], [115.42499999999883, 1.3249999999998767], [115.52499999999883, 1.3249999999998767], [115.52499999999883, 1.274999999999876], [115.57499999999882, 1.274999999999876], [115.57499999999882, 1.2249999999998753], [115.62499999999882, 1.2249999999998753], [115.62499999999882, 1.1249999999998739], [115.67499999999882, 1.1249999999998739], [115.67499999999882, 1.0749999999998732], [115.72499999999881, 1.0749999999998732], [115.72499999999881, 1.0249999999998725], [115.82499999999881, 1.0249999999998725], [115.82499999999881, 0.9749999999998717], [116.0249999999988, 0.9749999999998717], [116.0249999999988, 1.0249999999998725], [116.0749999999988, 1.0249999999998725], [116.0749999999988, 1.0749999999998732], [116.12499999999879, 1.0749999999998732], [116.12499999999879, 1.1249999999998739], [116.17499999999879, 1.1249999999998739], [116.17499999999879, 1.1749999999998746], [116.22499999999879, 1.1749999999998746], [116.22499999999879, 1.2249999999998753], [116.27499999999878, 1.2249999999998753], [116.27499999999878, 1.274999999999876], [116.37499999999878, 1.274999999999876], [116.37499999999878, 1.3249999999998767], [116.42499999999878, 1.3249999999998767], [116.42499999999878, 1.3749999999998774], [116.47499999999877, 1.3749999999998774], [116.47499999999877, 1.5249999999998796], [116.52499999999877, 1.5249999999998796], [116.52499999999877, 2.0749999999998874], [116.57499999999877, 2.0749999999998874], [116.57499999999877, 2.27499999999989], [116.52499999999877, 2.27499999999989], [116.52499999999877, 2.5749999999998945], [116.57499999999877, 2.5749999999998945], [116.57499999999877, 2.624999999999895], [116.72499999999876, 2.624999999999895], [116.72499999999876, 2.5749999999998945], [116.77499999999876, 2.5749999999998945], [116.77499999999876, 2.474999999999893], [116.82499999999875, 2.474999999999893]]], [[[113.87499999999892, 2.5749999999998945], [113.92499999999892, 2.5749999999998945], [113.92499999999892, 2.474999999999893], [113.97499999999891, 2.474999999999893], [113.97499999999891, 2.324999999999891], [113.92499999999892, 2.324999999999891], [113.92499999999892, 2.2249999999998895], [113.87499999999892, 2.2249999999998895], [113.87499999999892, 2.174999999999889], [113.82499999999892, 2.174999999999889], [113.82499999999892, 2.0749999999998874], [113.77499999999893, 2.0749999999998874], [113.77499999999893, 1.974999999999886], [113.72499999999893, 1.974999999999886], [113.72499999999893, 1.9249999999998852], [113.57499999999894, 1.9249999999998852], [113.57499999999894, 1.974999999999886], [113.47499999999894, 1.974999999999886], [113.47499999999894, 2.0249999999998867], [113.42499999999895, 2.0249999999998867], [113.42499999999895, 2.0749999999998874], [113.37499999999895, 2.0749999999998874], [113.37499999999895, 2.2249999999998895], [113.32499999999895, 2.2249999999998895], [113.32499999999895, 2.474999999999893], [113.37499999999895, 2.474999999999893], [113.37499999999895, 2.5749999999998945], [113.42499999999895, 2.5749999999998945], [113.42499999999895, 2.624999999999895], [113.52499999999894, 2.624999999999895], [113.52499999999894, 2.674999999999896], [113.82499999999892, 2.674999999999896], [113.82499999999892, 2.624999999999895], [113.87499999999892, 2.624999999999895], [113.87499999999892, 2.5749999999998945]]], [[[116.32499999999878, 2.824999999999898], [116.32499999999878, 2.7749999999998973], [116.22499999999879, 2.7749999999998973], [116.22499999999879, 2.9749999999999], [116.27499999999878, 2.9749999999999], [116.27499999999878, 3.024999999999901], [116.32499999999878, 3.024999999999901], [116.32499999999878, 2.9749999999999], [116.37499999999878, 2.9749999999999], [116.37499999999878, 2.824999999999898], [116.32499999999878, 2.824999999999898]]], [[[116.37499999999878, 3.5749999999999087], [116.37499999999878, 3.4749999999999073], [116.27499999999878, 3.4749999999999073], [116.27499999999878, 3.5749999999999087], [116.37499999999878, 3.5749999999999087]]], [[[114.97499999999886, 4.1249999999999165], [114.97499999999886, 3.9749999999999144], [114.92499999999886, 3.9749999999999144], [114.92499999999886, 3.874999999999913], [114.87499999999886, 3.874999999999913], [114.87499999999886, 3.724999999999911], [114.82499999999887, 3.724999999999911], [114.82499999999887, 3.67499999999991], [114.77499999999887, 3.67499999999991], [114.77499999999887, 3.2249999999999037], [114.72499999999887, 3.2249999999999037], [114.72499999999887, 3.174999999999903], [114.1749999999989, 3.174999999999903], [114.1749999999989, 3.2249999999999037], [114.1249999999989, 3.2249999999999037], [114.1249999999989, 3.324999999999905], [114.07499999999891, 3.324999999999905], [114.07499999999891, 3.524999999999908], [114.52499999999888, 3.524999999999908], [114.52499999999888, 3.5749999999999087], [114.62499999999888, 3.5749999999999087], [114.62499999999888, 3.6249999999999094], [114.67499999999887, 3.6249999999999094], [114.67499999999887, 3.67499999999991], [114.72499999999887, 3.67499999999991], [114.72499999999887, 3.724999999999911], [114.67499999999887, 3.724999999999911], [114.67499999999887, 3.9249999999999137], [114.62499999999888, 3.9249999999999137], [114.62499999999888, 4.074999999999916], [114.57499999999888, 4.074999999999916], [114.57499999999888, 4.1249999999999165], [114.62499999999888, 4.1249999999999165], [114.62499999999888, 4.274999999999919], [114.67499999999887, 4.274999999999919], [114.67499999999887, 4.324999999999919], [114.72499999999887, 4.324999999999919], [114.72499999999887, 4.37499999999992], [114.92499999999886, 4.37499999999992], [114.92499999999886, 4.324999999999919], [115.02499999999885, 4.324999999999919], [115.02499999999885, 4.1249999999999165], [114.97499999999886, 4.1249999999999165]]], [[[115.72499999999881, 5.124999999999931], [115.72499999999881, 5.07499999999993], [115.77499999999881, 5.07499999999993], [115.77499999999881, 4.924999999999928], [115.72499999999881, 4.924999999999928], [115.72499999999881, 4.874999999999927], [115.57499999999882, 4.874999999999927], [115.57499999999882, 4.8249999999999265], [115.22499999999884, 4.8249999999999265], [115.22499999999884, 4.874999999999927], [115.17499999999885, 4.874999999999927], [115.17499999999885, 5.07499999999993], [115.22499999999884, 5.07499999999993], [115.22499999999884, 5.124999999999931], [115.27499999999884, 5.124999999999931], [115.27499999999884, 5.174999999999931], [115.37499999999883, 5.174999999999931], [115.37499999999883, 5.224999999999932], [115.52499999999883, 5.224999999999932], [115.52499999999883, 5.174999999999931], [115.62499999999882, 5.174999999999931], [115.62499999999882, 5.124999999999931], [115.72499999999881, 5.124999999999931]]], [[[114.02499999999891, 8.424999999999978], [114.02499999999891, 8.274999999999975], [113.92499999999892, 8.274999999999975], [113.92499999999892, 8.424999999999978], [114.02499999999891, 8.424999999999978]]], [[[114.1249999999989, 8.924999999999985], [114.1249999999989, 8.974999999999985], [114.2249999999989, 8.974999999999985], [114.2249999999989, 8.874999999999984], [114.1749999999989, 8.874999999999984], [114.1749999999989, 8.924999999999985], [114.1249999999989, 8.924999999999985]]], [[[135.5249999999977, -3.6250000000001936], [135.3749999999977, -3.6250000000001936], [135.3749999999977, -3.6750000000001943], [135.32499999999771, -3.6750000000001943], [135.32499999999771, -3.6250000000001936], [135.2749999999977, -3.6250000000001936], [135.2749999999977, -3.525000000000192], [135.32499999999771, -3.525000000000192], [135.32499999999771, -3.4750000000001915], [135.3749999999977, -3.4750000000001915], [135.3749999999977, -3.425000000000191], [135.5749999999977, -3.425000000000191], [135.5749999999977, -3.575000000000193], [135.5249999999977, -3.575000000000193], [135.5249999999977, -3.6250000000001936]]], [[[137.22499999999758, -3.3250000000001894], [137.22499999999758, -3.37500000000019], [137.0749999999976, -3.37500000000019], [137.0749999999976, -3.3250000000001894], [136.9749999999976, -3.3250000000001894], [136.9749999999976, -3.2750000000001886], [136.92499999999762, -3.2750000000001886], [136.92499999999762, -3.1750000000001872], [137.22499999999758, -3.1750000000001872], [137.22499999999758, -3.225000000000188], [137.2749999999976, -3.225000000000188], [137.2749999999976, -3.3250000000001894], [137.22499999999758, -3.3250000000001894]]], [[[136.67499999999762, -3.075000000000186], [136.67499999999762, -3.025000000000185], [136.6249999999976, -3.025000000000185], [136.6249999999976, -2.9750000000001844], [136.67499999999762, -2.9750000000001844], [136.67499999999762, -2.9250000000001837], [136.77499999999762, -2.9250000000001837], [136.77499999999762, -2.9750000000001844], [136.8249999999976, -2.9750000000001844], [136.8249999999976, -3.075000000000186], [136.67499999999762, -3.075000000000186]]], [[[134.72499999999775, -2.875000000000183], [134.77499999999773, -2.875000000000183], [134.77499999999773, -3.075000000000186], [134.62499999999773, -3.075000000000186], [134.62499999999773, -3.025000000000185], [134.57499999999774, -3.025000000000185], [134.57499999999774, -2.8250000000001823], [134.62499999999773, -2.8250000000001823], [134.62499999999773, -2.7750000000001815], [134.67499999999774, -2.7750000000001815], [134.67499999999774, -2.8250000000001823], [134.72499999999775, -2.8250000000001823], [134.72499999999775, -2.875000000000183]]], [[[133.87499999999778, -2.2250000000001737], [133.87499999999778, -2.325000000000175], [133.9249999999978, -2.325000000000175], [133.9249999999978, -2.375000000000176], [133.97499999999778, -2.375000000000176], [133.97499999999778, -2.4250000000001766], [134.02499999999776, -2.4250000000001766], [134.02499999999776, -2.5750000000001787], [133.97499999999778, -2.5750000000001787], [133.97499999999778, -2.6250000000001794], [133.82499999999777, -2.6250000000001794], [133.82499999999777, -2.5750000000001787], [133.7749999999978, -2.5750000000001787], [133.7749999999978, -2.525000000000178], [133.7249999999978, -2.525000000000178], [133.7249999999978, -2.025000000000171], [133.7749999999978, -2.025000000000171], [133.7749999999978, -2.0750000000001716], [133.82499999999777, -2.0750000000001716], [133.82499999999777, -2.2250000000001737], [133.87499999999778, -2.2250000000001737]]], [[[119.17499999999862, -2.0750000000001716], [119.17499999999862, -2.025000000000171], [119.27499999999861, -2.025000000000171], [119.27499999999861, -2.2750000000001744], [119.12499999999862, -2.2750000000001744], [119.12499999999862, -2.0750000000001716], [119.17499999999862, -2.0750000000001716]]], [[[120.02499999999857, -0.8250000000001538], [119.97499999999857, -0.8250000000001538], [119.97499999999857, -0.8750000000001545], [119.87499999999858, -0.8750000000001545], [119.87499999999858, -0.9250000000001553], [119.77499999999858, -0.9250000000001553], [119.77499999999858, -0.975000000000156], [119.67499999999859, -0.975000000000156], [119.67499999999859, -0.9250000000001553], [119.6249999999986, -0.9250000000001553], [119.6249999999986, -0.7750000000001531], [119.67499999999859, -0.7750000000001531], [119.67499999999859, -0.7250000000001524], [119.72499999999859, -0.7250000000001524], [119.72499999999859, -0.6750000000001517], [119.77499999999858, -0.6750000000001517], [119.77499999999858, -0.625000000000151], [119.97499999999857, -0.625000000000151], [119.97499999999857, -0.6750000000001517], [120.02499999999857, -0.6750000000001517], [120.02499999999857, -0.8250000000001538]]], [[[133.52499999999782, -0.37500000000014744], [133.52499999999782, -0.42500000000014815], [133.5749999999978, -0.42500000000014815], [133.5749999999978, -0.47500000000014886], [133.62499999999778, -0.47500000000014886], [133.62499999999778, -0.5250000000001496], [133.5749999999978, -0.5250000000001496], [133.5749999999978, -0.5750000000001503], [133.32499999999783, -0.5750000000001503], [133.32499999999783, -0.5250000000001496], [133.17499999999782, -0.5250000000001496], [133.17499999999782, -0.47500000000014886], [133.07499999999783, -0.47500000000014886], [133.07499999999783, -0.42500000000014815], [132.97499999999783, -0.42500000000014815], [132.97499999999783, -0.3250000000001467], [133.02499999999782, -0.3250000000001467], [133.02499999999782, -0.275000000000146], [133.27499999999782, -0.275000000000146], [133.27499999999782, -0.3250000000001467], [133.4749999999978, -0.3250000000001467], [133.4749999999978, -0.37500000000014744], [133.52499999999782, -0.37500000000014744]]], [[[117.97499999999869, 4.424999999999921], [117.97499999999869, 4.4749999999999215], [117.92499999999869, 4.4749999999999215], [117.92499999999869, 4.524999999999922], [117.97499999999869, 4.524999999999922], [117.97499999999869, 4.574999999999923], [118.07499999999868, 4.574999999999923], [118.07499999999868, 4.524999999999922], [118.12499999999868, 4.524999999999922], [118.12499999999868, 4.424999999999921], [117.97499999999869, 4.424999999999921]]], [[[119.07499999999862, 4.8249999999999265], [119.07499999999862, 4.224999999999918], [119.02499999999863, 4.224999999999918], [119.02499999999863, 4.174999999999917], [118.97499999999863, 4.174999999999917], [118.97499999999863, 4.1249999999999165], [118.92499999999863, 4.1249999999999165], [118.92499999999863, 4.074999999999916], [118.72499999999864, 4.074999999999916], [118.72499999999864, 4.1249999999999165], [118.67499999999865, 4.1249999999999165], [118.67499999999865, 4.324999999999919], [118.72499999999864, 4.324999999999919], [118.72499999999864, 4.724999999999925], [118.67499999999865, 4.724999999999925], [118.67499999999865, 5.024999999999929], [118.87499999999864, 5.024999999999929], [118.87499999999864, 4.974999999999929], [119.02499999999863, 4.974999999999929], [119.02499999999863, 4.8249999999999265], [119.07499999999862, 4.8249999999999265]]], [[[118.97499999999863, 5.974999999999943], [118.97499999999863, 5.77499999999994], [119.02499999999863, 5.77499999999994], [119.02499999999863, 5.6749999999999385], [119.07499999999862, 5.6749999999999385], [119.07499999999862, 5.624999999999938], [119.17499999999862, 5.624999999999938], [119.17499999999862, 5.574999999999937], [119.22499999999862, 5.574999999999937], [119.22499999999862, 5.524999999999936], [119.27499999999861, 5.524999999999936], [119.27499999999861, 5.474999999999936], [119.32499999999861, 5.474999999999936], [119.32499999999861, 5.274999999999933], [119.27499999999861, 5.274999999999933], [119.27499999999861, 5.224999999999932], [119.22499999999862, 5.224999999999932], [119.22499999999862, 5.174999999999931], [119.17499999999862, 5.174999999999931], [119.17499999999862, 5.224999999999932], [119.12499999999862, 5.224999999999932], [119.12499999999862, 5.324999999999934], [119.07499999999862, 5.324999999999934], [119.07499999999862, 5.374999999999934], [119.02499999999863, 5.374999999999934], [119.02499999999863, 5.424999999999935], [118.97499999999863, 5.424999999999935], [118.97499999999863, 5.474999999999936], [118.92499999999863, 5.474999999999936], [118.92499999999863, 5.574999999999937], [118.87499999999864, 5.574999999999937], [118.87499999999864, 5.624999999999938], [118.82499999999864, 5.624999999999938], [118.82499999999864, 5.6749999999999385], [118.77499999999864, 5.6749999999999385], [118.77499999999864, 5.724999999999939], [118.72499999999864, 5.724999999999939], [118.72499999999864, 5.77499999999994], [118.57499999999865, 5.77499999999994], [118.57499999999865, 5.824999999999941], [118.42499999999866, 5.824999999999941], [118.42499999999866, 5.874999999999941], [118.47499999999866, 5.874999999999941], [118.47499999999866, 5.974999999999943], [118.52499999999866, 5.974999999999943], [118.52499999999866, 6.0249999999999435], [118.62499999999865, 6.0249999999999435], [118.62499999999865, 6.074999999999944], [118.67499999999865, 6.074999999999944], [118.67499999999865, 6.124999999999945], [118.87499999999864, 6.124999999999945], [118.87499999999864, 6.074999999999944], [118.92499999999863, 6.074999999999944], [118.92499999999863, 5.974999999999943], [118.97499999999863, 5.974999999999943]]], [[[120.17499999999856, 7.324999999999962], [120.17499999999856, 7.274999999999961], [120.22499999999856, 7.274999999999961], [120.22499999999856, 7.224999999999961], [120.27499999999856, 7.224999999999961], [120.27499999999856, 7.17499999999996], [120.22499999999856, 7.17499999999996], [120.22499999999856, 7.074999999999958], [120.17499999999856, 7.074999999999958], [120.17499999999856, 7.024999999999958], [120.07499999999857, 7.024999999999958], [120.07499999999857, 7.074999999999958], [120.02499999999857, 7.074999999999958], [120.02499999999857, 7.124999999999959], [119.97499999999857, 7.124999999999959], [119.97499999999857, 7.17499999999996], [119.87499999999858, 7.17499999999996], [119.87499999999858, 7.224999999999961], [119.82499999999858, 7.224999999999961], [119.82499999999858, 7.274999999999961], [119.72499999999859, 7.274999999999961], [119.72499999999859, 7.324999999999962], [119.67499999999859, 7.324999999999962], [119.67499999999859, 7.424999999999963], [119.87499999999858, 7.424999999999963], [119.87499999999858, 7.374999999999963], [120.02499999999857, 7.374999999999963], [120.02499999999857, 7.324999999999962], [120.17499999999856, 7.324999999999962]]], [[[120.47499999999854, 7.724999999999968], [120.47499999999854, 7.524999999999965], [120.37499999999855, 7.524999999999965], [120.37499999999855, 7.5749999999999655], [120.32499999999855, 7.5749999999999655], [120.32499999999855, 7.724999999999968], [120.27499999999856, 7.724999999999968], [120.27499999999856, 7.774999999999968], [120.32499999999855, 7.774999999999968], [120.32499999999855, 7.824999999999969], [120.37499999999855, 7.824999999999969], [120.37499999999855, 7.774999999999968], [120.42499999999855, 7.774999999999968], [120.42499999999855, 7.724999999999968], [120.47499999999854, 7.724999999999968]]]]}}]}