{"type": "FeatureCollection", "features": [{"type": "Feature", "properties": {"date": "2026-10-05", "code": 1, "level": "waspada_tornado", "kategori": "Waspada Potensi Peluang Kecil", "color": "#FFFF00"}, "geometry": {"type": "MultiPolygon", "coordinates": [[[[104.92499999999943, -5.575000000000221], [104.87499999999943, -5.575000000000221], [104.87499999999943, -5.625000000000222], [104.42499999999946, -5.625000000000222], [104.42499999999946, -5.675000000000223], [104.32499999999946, -5.675000000000223], [104.32499999999946, -5.625000000000222], [104.27499999999947, -5.625000000000222], [104.27499999999947, -5.575000000000221], [104.22499999999947, -5.575000000000221], [104.22499999999947, -5.525000000000221], [104.27499999999947, -5.525000000000221], [104.27499999999947, -5.47500000000022], [104.32499999999946, -5.47500000000022], [104.32499999999946, -5.425000000000219], [104.87499999999943, -5.425000000000219], [104.87499999999943, -5.47500000000022], [104.92499999999943, -5.47500000000022], [104.92499999999943, -5.575000000000221]]], [[[102.42499999999957, -3.575000000000193], [102.67499999999956, -3.575000000000193], [102.67499999999956, -3.6250000000001936], [102.72499999999955, -3.6250000000001936], [102.72499999999955, -3.6750000000001943], [102.77499999999955, -3.6750000000001943], [102.77499999999955, -3.725000000000195], [102.82499999999955, -3.725000000000195], [102.82499999999955, -4.0750000000002], [102.77499999999955, -4.0750000000002], [102.77499999999955, -4.225000000000202], [102.82499999999955, -4.225000000000202], [102.82499999999955, -4.375000000000204], [102.92499999999954, -4.375000000000204], [102.92499999999954, -4.425000000000205], [102.97499999999954, -4.425000000000205], [102.97499999999954, -4.525000000000206], [102.87499999999955, -4.525000000000206], [102.87499999999955, -4.475000000000206], [102.82499999999955, -4.475000000000206], [102.82499999999955, -4.425000000000205], [102.77499999999955, -4.425000000000205], [102.77499999999955, -4.375000000000204], [102.72499999999955, -4.375000000000204], [102.72499999999955, -4.325000000000204], [102.62499999999956, -4.325000000000204], [102.62499999999956, -4.025000000000199], [102.57499999999956, -4.025000000000199], [102.57499999999956, -3.9750000000001986], [102.52499999999957, -3.9750000000001986], [102.52499999999957, -3.925000000000198], [102.47499999999957, -3.925000000000198], [102.47499999999957, -3.875000000000197], [102.37499999999957, -3.875000000000197], [102.37499999999957, -3.8250000000001965], [102.32499999999958, -3.8250000000001965], [102.32499999999958, -3.7750000000001958], [102.27499999999958, -3.7750000000001958], [102.27499999999958, -3.6750000000001943], [102.22499999999958, -3.6750000000001943], [102.22499999999958, -3.4750000000001915], [102.27499999999958, -3.4750000000001915], [102.27499999999958, -3.525000000000192], [102.42499999999957, -3.525000000000192], [102.42499999999957, -3.575000000000193]]], [[[104.72499999999944, -3.575000000000193], [104.57499999999945, -3.575000000000193], [104.57499999999945, -3.4750000000001915], [104.52499999999945, -3.4750000000001915], [104.52499999999945, -3.37500000000019], [104.57499999999945, -3.37500000000019], [104.57499999999945, -3.3250000000001894], [104.62499999999945, -3.3250000000001894], [104.62499999999945, -3.2750000000001886], [104.77499999999944, -3.2750000000001886], [104.77499999999944, -3.525000000000192], [104.72499999999944, -3.525000000000192], [104.72499999999944, -3.575000000000193]]], [[[114.57499999999888, -2.9750000000001844], [114.57499999999888, -3.025000000000185], [114.37499999999889, -3.025000000000185], [114.37499999999889, -2.7750000000001815], [114.42499999999889, -2.7750000000001815], [114.42499999999889, -2.725000000000181], [114.47499999999889, -2.725000000000181], [114.47499999999889, -2.67500000000018], [114.57499999999888, -2.67500000000018], [114.57499999999888, -2.7750000000001815], [114.62499999999888, -2.7750000000001815], [114.62499999999888, -2.9750000000001844], [114.57499999999888, -2.9750000000001844]]], [[[116.52499999999877, -2.2250000000001737], [116.52499999999877, -2.375000000000176], [116.47499999999877, -2.375000000000176], [116.47499999999877, -2.4750000000001773], [116.42499999999878, -2.4750000000001773], [116.42499999999878, -2.525000000000178], [116.37499999999878, -2.525000000000178], [116.37499999999878, -2.5750000000001787], [116.32499999999878, -2.5750000000001787], [116.32499999999878, -2.6250000000001794], [116.22499999999879, -2.6250000000001794], [116.22499999999879, -2.67500000000018], [116.12499999999879, -2.67500000000018], [116.12499999999879, -2.725000000000181], [116.0249999999988, -2.725000000000181], [116.0249999999988, -2.7750000000001815], [115.9249999999988, -2.7750000000001815], [115.9249999999988, -2.8250000000001823], [115.77499999999881, -2.8250000000001823], [115.77499999999881, -2.875000000000183], [115.37499999999883, -2.875000000000183], [115.37499999999883, -2.8250000000001823], [115.22499999999884, -2.8250000000001823], [115.22499999999884, -2.875000000000183], [115.07499999999885, -2.875000000000183], [115.07499999999885, -2.8250000000001823], [114.97499999999886, -2.8250000000001823], [114.97499999999886, -2.7750000000001815], [114.92499999999886, -2.7750000000001815], [114.92499999999886, -2.725000000000181], [114.87499999999886, -2.725000000000181], [114.87499999999886, -2.67500000000018], [114.77499999999887, -2.67500000000018], [114.77499999999887, -2.6250000000001794], [114.67499999999887, -2.6250000000001794], [114.67499999999887, -2.525000000000178], [114.72499999999887, -2.525000000000178], [114.72499999999887, -2.4750000000001773], [114.82499999999887, -2.4750000000001773], [114.82499999999887, -2.4250000000001766], [114.92499999999886, -2.4250000000001766], [114.92499999999886, -2.4750000000001773], [115.12499999999885, -2.4750000000001773], [115.12499999999885, -2.4250000000001766], [115.42499999999883, -2.4250000000001766], [115.42499999999883, -2.4750000000001773], [115.57499999999882, -2.4750000000001773], [115.57499999999882, -2.525000000000178], [115.62499999999882, -2.525000000000178], [115.62499999999882, -2.5750000000001787], [115.72499999999881, -2.5750000000001787], [115.72499999999881, -2.6250000000001794], [115.77499999999881, -2.6250000000001794], [115.77499999999881, -2.5750000000001787], [115.8749999999988, -2.5750000000001787], [115.8749999999988, -2.525000000000178], [115.9249999999988, -2.525000000000178], [115.9249999999988, -2.4750000000001773], [115.9749999999988, -2.4750000000001773], [115.9749999999988, -2.4250000000001766], [116.0249999999988, -2.4250000000001766], [116.0249999999988, -2.375000000000176], [116.12499999999879, -2.375000000000176], [116.12499999999879, -2.325000000000175], [116.17499999999879, -2.325000000000175], [116.17499999999879, -2.2750000000001744], [116.22499999999879, -2.2750000000001744], [116.22499999999879, -2.1250000000001723], [116.27499999999878, -2.1250000000001723], [116.27499999999878, -1.9750000000001702], [116.32499999999878, -1.9750000000001702], [116.32499999999878, -1.9250000000001695], [116.37499999999878, -1.9250000000001695], [116.37499999999878, -1.8750000000001688], [116.42499999999878, -1.8750000000001688], [116.42499999999878, -1.825000000000168], [116.47499999999877, -1.825000000000168], [116.47499999999877, -1.7750000000001673], [116.62499999999876, -1.7750000000001673], [116.62499999999876, -2.1250000000001723], [116.57499999999877, -2.1250000000001723], [116.57499999999877, -2.2250000000001737], [116.52499999999877, -2.2250000000001737]]], [[[106.12499999999936, -1.6250000000001652], [106.17499999999936, -1.6250000000001652], [106.17499999999936, -1.825000000000168], [106.12499999999936, -1.825000000000168], [106.12499999999936, -1.8750000000001688], [106.07499999999936, -1.8750000000001688], [106.07499999999936, -1.9250000000001695], [105.97499999999937, -1.9250000000001695], [105.97499999999937, -2.0750000000001716], [106.02499999999937, -2.0750000000001716], [106.02499999999937, -2.1250000000001723], [106.07499999999936, -2.1250000000001723], [106.07499999999936, -2.175000000000173], [106.12499999999936, -2.175000000000173], [106.12499999999936, -2.2750000000001744], [106.07499999999936, -2.2750000000001744], [106.07499999999936, -2.325000000000175], [105.97499999999937, -2.325000000000175], [105.97499999999937, -2.375000000000176], [105.72499999999938, -2.375000000000176], [105.72499999999938, -2.325000000000175], [105.3749999999994, -2.325000000000175], [105.3749999999994, -2.375000000000176], [105.22499999999941, -2.375000000000176], [105.22499999999941, -2.4250000000001766], [104.97499999999943, -2.4250000000001766], [104.97499999999943, -2.325000000000175], [104.92499999999943, -2.325000000000175], [104.92499999999943, -2.2250000000001737], [104.97499999999943, -2.2250000000001737], [104.97499999999943, -2.175000000000173], [105.02499999999942, -2.175000000000173], [105.02499999999942, -2.1250000000001723], [105.07499999999942, -2.1250000000001723], [105.07499999999942, -2.0750000000001716], [105.12499999999942, -2.0750000000001716], [105.12499999999942, -2.025000000000171], [105.22499999999941, -2.025000000000171], [105.22499999999941, -1.9750000000001702], [105.27499999999941, -1.9750000000001702], [105.27499999999941, -1.9250000000001695], [105.3749999999994, -1.9250000000001695], [105.3749999999994, -1.8750000000001688], [105.72499999999938, -1.8750000000001688], [105.72499999999938, -1.825000000000168], [105.77499999999938, -1.825000000000168], [105.77499999999938, -1.7750000000001673], [105.82499999999938, -1.7750000000001673], [105.82499999999938, -1.675000000000166], [105.77499999999938, -1.675000000000166], [105.77499999999938, -1.5750000000001645], [105.82499999999938, -1.5750000000001645], [105.82499999999938, -1.475000000000163], [106.07499999999936, -1.475000000000163], [106.07499999999936, -1.5250000000001638], [106.12499999999936, -1.5250000000001638], [106.12499999999936, -1.6250000000001652]]], [[[111.72499999999904, -1.5250000000001638], [111.72499999999904, -1.6250000000001652], [111.62499999999905, -1.6250000000001652], [111.62499999999905, -1.675000000000166], [111.47499999999906, -1.675000000000166], [111.47499999999906, -1.6250000000001652], [111.42499999999906, -1.6250000000001652], [111.42499999999906, -1.5250000000001638], [111.47499999999906, -1.5250000000001638], [111.47499999999906, -1.475000000000163], [111.52499999999905, -1.475000000000163], [111.52499999999905, -1.4250000000001624], [111.72499999999904, -1.4250000000001624], [111.72499999999904, -1.475000000000163], [111.77499999999904, -1.475000000000163], [111.77499999999904, -1.5250000000001638], [111.72499999999904, -1.5250000000001638]]], [[[108.22499999999924, -1.4250000000001624], [108.22499999999924, -1.3750000000001616], [108.17499999999924, -1.3750000000001616], [108.17499999999924, -1.325000000000161], [108.22499999999924, -1.325000000000161], [108.22499999999924, -1.2750000000001602], [108.47499999999923, -1.2750000000001602], [108.47499999999923, -1.325000000000161], [108.57499999999922, -1.325000000000161], [108.57499999999922, -1.4250000000001624], [108.22499999999924, -1.4250000000001624]]], [[[114.92499999999886, 0.17499999999986038], [114.52499999999888, 0.17499999999986038], [114.52499999999888, 0.2749999999998618], [114.57499999999888, 0.2749999999998618], [114.57499999999888, 0.3249999999998625], [114.67499999999887, 0.3249999999998625], [114.67499999999887, 0.3749999999998632], [114.97499999999886, 0.3749999999998632], [114.97499999999886, 0.2249999999998611], [114.92499999999886, 0.2249999999998611], [114.92499999999886, 0.17499999999986038]]], [[[102.57499999999956, 2.7249999999998966], [102.57499999999956, 2.824999999999898], [102.62499999999956, 2.824999999999898], [102.62499999999956, 2.8749999999998987], [102.72499999999955, 2.8749999999998987], [102.72499999999955, 2.7749999999998973], [102.67499999999956, 2.7749999999998973], [102.67499999999956, 2.7249999999998966], [102.57499999999956, 2.7249999999998966]]], [[[114.87499999999886, 3.2749999999999044], [114.87499999999886, 3.2249999999999037], [114.82499999999887, 3.2249999999999037], [114.82499999999887, 3.174999999999903], [114.57499999999888, 3.174999999999903], [114.57499999999888, 3.2249999999999037], [114.42499999999889, 3.2249999999999037], [114.42499999999889, 3.2749999999999044], [114.37499999999889, 3.2749999999999044], [114.37499999999889, 3.324999999999905], [114.47499999999889, 3.324999999999905], [114.47499999999889, 3.374999999999906], [114.62499999999888, 3.374999999999906], [114.62499999999888, 3.4249999999999066], [114.77499999999887, 3.4249999999999066], [114.77499999999887, 3.374999999999906], [114.82499999999887, 3.374999999999906], [114.82499999999887, 3.2749999999999044], [114.87499999999886, 3.2749999999999044]]], [[[144.57499999999717, -4.77500000000021], [144.62499999999716, -4.77500000000021], [144.62499999999716, -4.825000000000211], [144.67499999999717, -4.825000000000211], [144.67499999999717, -4.875000000000211], [144.72499999999718, -4.875000000000211], [144.72499999999718, -5.225000000000216], [144.57499999999717, -5.225000000000216], [144.57499999999717, -5.175000000000216], [144.42499999999717, -5.175000000000216], [144.42499999999717, -5.125000000000215], [144.0749999999972, -5.125000000000215], [144.0749999999972, -5.075000000000214], [143.9749999999972, -5.075000000000214], [143.9749999999972, -5.0250000000002135], [143.92499999999723, -5.0250000000002135], [143.92499999999723, -4.975000000000213], [143.87499999999721, -4.975000000000213], [143.87499999999721, -4.825000000000211], [143.92499999999723, -4.825000000000211], [143.92499999999723, -4.77500000000021], [143.9749999999972, -4.77500000000021], [143.9749999999972, -4.725000000000209], [144.0749999999972, -4.725000000000209], [144.0749999999972, -4.6750000000002085], [144.12499999999721, -4.6750000000002085], [144.12499999999721, -4.725000000000209], [144.57499999999717, -4.725000000000209], [144.57499999999717, -4.77500000000021]]], [[[143.57499999999723, -4.725000000000209], [143.62499999999721, -4.725000000000209], [143.62499999999721, -4.825000000000211], [143.57499999999723, -4.825000000000211], [143.57499999999723, -4.875000000000211], [143.52499999999725, -4.875000000000211], [143.52499999999725, -4.925000000000212], [143.37499999999724, -4.925000000000212], [143.37499999999724, -4.875000000000211], [142.7249999999973, -4.875000000000211], [142.7249999999973, -4.825000000000211], [142.67499999999728, -4.825000000000211], [142.67499999999728, -4.725000000000209], [142.7249999999973, -4.725000000000209], [142.7249999999973, -4.6750000000002085], [142.92499999999728, -4.6750000000002085], [142.92499999999728, -4.625000000000208], [143.22499999999724, -4.625000000000208], [143.22499999999724, -4.575000000000207], [143.52499999999725, -4.575000000000207], [143.52499999999725, -4.625000000000208], [143.57499999999723, -4.625000000000208], [143.57499999999723, -4.725000000000209]]], [[[139.52499999999748, -3.3250000000001894], [139.57499999999746, -3.3250000000001894], [139.57499999999746, -3.37500000000019], [139.67499999999745, -3.37500000000019], [139.67499999999745, -3.425000000000191], [139.72499999999746, -3.425000000000191], [139.72499999999746, -3.4750000000001915], [139.82499999999743, -3.4750000000001915], [139.82499999999743, -3.525000000000192], [139.87499999999744, -3.525000000000192], [139.87499999999744, -3.575000000000193], [139.92499999999745, -3.575000000000193], [139.92499999999745, -3.6750000000001943], [139.97499999999744, -3.6750000000001943], [139.97499999999744, -3.8250000000001965], [139.92499999999745, -3.8250000000001965], [139.92499999999745, -3.875000000000197], [139.72499999999746, -3.875000000000197], [139.72499999999746, -3.8250000000001965], [139.62499999999744, -3.8250000000001965], [139.62499999999744, -3.7750000000001958], [139.57499999999746, -3.7750000000001958], [139.57499999999746, -3.725000000000195], [139.52499999999748, -3.725000000000195], [139.52499999999748, -3.6750000000001943], [139.47499999999746, -3.6750000000001943], [139.47499999999746, -3.6250000000001936], [139.42499999999745, -3.6250000000001936], [139.42499999999745, -3.575000000000193], [139.3249999999975, -3.575000000000193], [139.3249999999975, -3.525000000000192], [139.22499999999746, -3.525000000000192], [139.22499999999746, -3.425000000000191], [139.17499999999748, -3.425000000000191], [139.17499999999748, -3.3250000000001894], [139.22499999999746, -3.3250000000001894], [139.22499999999746, -3.2750000000001886], [139.3249999999975, -3.2750000000001886], [139.3249999999975, -3.225000000000188], [139.42499999999745, -3.225000000000188], [139.42499999999745, -3.2750000000001886], [139.52499999999748, -3.2750000000001886], [139.52499999999748, -3.3250000000001894]]], [[[139.0749999999975, -2.875000000000183], [139.0749999999975, -2.8250000000001823], [138.9749999999975, -2.8250000000001823], [138.9749999999975, -2.725000000000181], [139.0749999999975, -2.725000000000181], [139.0749999999975, -2.67500000000018], [139.27499999999748, -2.67500000000018], [139.27499999999748, -2.725000000000181], [139.37499999999747, -2.725000000000181], [139.37499999999747, -2.875000000000183], [139.0749999999975, -2.875000000000183]]], [[[138.47499999999752, -2.5750000000001787], [138.47499999999752, -2.725000000000181], [138.4249999999975, -2.725000000000181], [138.4249999999975, -2.7750000000001815], [138.27499999999753, -2.7750000000001815], [138.27499999999753, -2.8250000000001823], [138.07499999999754, -2.8250000000001823], [138.07499999999754, -2.7750000000001815], [138.02499999999753, -2.7750000000001815], [138.02499999999753, -2.67500000000018], [138.07499999999754, -2.67500000000018], [138.07499999999754, -2.5750000000001787], [138.12499999999756, -2.5750000000001787], [138.12499999999756, -2.525000000000178], [138.17499999999754, -2.525000000000178], [138.17499999999754, -2.4750000000001773], [138.37499999999753, -2.4750000000001773], [138.37499999999753, -2.525000000000178], [138.4249999999975, -2.525000000000178], [138.4249999999975, -2.5750000000001787], [138.47499999999752, -2.5750000000001787]]], [[[118.57499999999865, -2.2250000000001737], [118.62499999999865, -2.2250000000001737], [118.62499999999865, -2.2750000000001744], [118.67499999999865, -2.2750000000001744], [118.67499999999865, -2.375000000000176], [118.72499999999864, -2.375000000000176], [118.72499999999864, -2.525000000000178], [118.67499999999865, -2.525000000000178], [118.67499999999865, -2.5750000000001787], [118.57499999999865, -2.5750000000001787], [118.57499999999865, -2.6250000000001794], [118.42499999999866, -2.6250000000001794], [118.42499999999866, -2.5750000000001787], [118.32499999999867, -2.5750000000001787], [118.32499999999867, -2.525000000000178], [118.27499999999867, -2.525000000000178], [118.27499999999867, -2.2250000000001737], [118.32499999999867, -2.2250000000001737], [118.32499999999867, -2.0750000000001716], [118.37499999999866, -2.0750000000001716], [118.37499999999866, -2.025000000000171], [118.52499999999866, -2.025000000000171], [118.52499999999866, -2.0750000000001716], [118.57499999999865, -2.0750000000001716], [118.57499999999865, -2.2250000000001737]]], [[[134.22499999999775, -1.9250000000001695], [134.22499999999775, -2.2250000000001737], [134.27499999999776, -2.2250000000001737], [134.27499999999776, -2.525000000000178], [134.17499999999777, -2.525000000000178], [134.17499999999777, -2.5750000000001787], [133.9249999999978, -2.5750000000001787], [133.9249999999978, -2.6250000000001794], [133.7249999999978, -2.6250000000001794], [133.7249999999978, -2.5750000000001787], [133.6749999999978, -2.5750000000001787], [133.6749999999978, -2.4750000000001773], [133.62499999999778, -2.4750000000001773], [133.62499999999778, -2.375000000000176], [133.52499999999782, -2.375000000000176], [133.52499999999782, -2.325000000000175], [133.4249999999978, -2.325000000000175], [133.4249999999978, -2.2750000000001744], [133.3749999999978, -2.2750000000001744], [133.3749999999978, -2.2250000000001737], [133.32499999999783, -2.2250000000001737], [133.32499999999783, -2.0750000000001716], [133.3749999999978, -2.0750000000001716], [133.3749999999978, -1.9750000000001702], [133.4249999999978, -1.9750000000001702], [133.4249999999978, -1.9250000000001695], [133.52499999999782, -1.9250000000001695], [133.52499999999782, -1.8750000000001688], [133.97499999999778, -1.8750000000001688], [133.97499999999778, -1.825000000000168], [134.12499999999778, -1.825000000000168], [134.12499999999778, -1.8750000000001688], [134.17499999999777, -1.8750000000001688], [134.17499999999777, -1.9250000000001695], [134.22499999999775, -1.9250000000001695]]], [[[138.32499999999754, -1.825000000000168], [138.32499999999754, -1.8750000000001688], [138.12499999999756, -1.8750000000001688], [138.12499999999756, -1.7750000000001673], [138.17499999999754, -1.7750000000001673], [138.17499999999754, -1.7250000000001666], [138.22499999999752, -1.7250000000001666], [138.22499999999752, -1.675000000000166], [138.32499999999754, -1.675000000000166], [138.32499999999754, -1.7250000000001666], [138.37499999999753, -1.7250000000001666], [138.37499999999753, -1.825000000000168], [138.32499999999754, -1.825000000000168]]], [[[119.72499999999859, -0.975000000000156], [119.67499999999859, -0.975000000000156], [119.67499999999859, -1.0250000000001567], [119.5749999999986, -1.0250000000001567], [119.5749999999986, -0.8250000000001538], [119.67499999999859, -0.8250000000001538], [119.67499999999859, -0.8750000000001545], [119.72499999999859, -0.8750000000001545], [119.72499999999859, -0.975000000000156]]], [[[119.97499999999857, 0.17499999999986038], [119.97499999999857, 0.12499999999985967], [120.02499999999857, 0.12499999999985967], [120.02499999999857, 0.07499999999985896], [120.42499999999855, 0.07499999999985896], [120.42499999999855, 0.024999999999858247], [120.52499999999854, 0.024999999999858247], [120.52499999999854, -0.07500000000014317], [120.47499999999854, -0.07500000000014317], [120.47499999999854, -0.12500000000014388], [120.42499999999855, -0.12500000000014388], [120.42499999999855, -0.1750000000001446], [120.32499999999855, -0.1750000000001446], [120.32499999999855, -0.2250000000001453], [120.22499999999856, -0.2250000000001453], [120.22499999999856, -0.1750000000001446], [120.07499999999857, -0.1750000000001446], [120.07499999999857, -0.12500000000014388], [119.97499999999857, -0.12500000000014388], [119.97499999999857, -0.1750000000001446], [119.87499999999858, -0.1750000000001446], [119.87499999999858, -0.2250000000001453], [119.77499999999858, -0.2250000000001453], [119.77499999999858, -0.1750000000001446], [119.72499999999859, -0.1750000000001446], [119.72499999999859, -0.07500000000014317], [119.67499999999859, -0.07500000000014317], [119.67499999999859, 0.47499999999986464], [119.72499999999859, 0.47499999999986464], [119.72499999999859, 0.5249999999998654], [119.87499999999858, 0.5249999999998654], [119.87499999999858, 0.2749999999998618], [119.92499999999858, 0.2749999999998618], [119.92499999999858, 0.17499999999986038], [119.97499999999857, 0.17499999999986038]]], [[[120.72499999999853, 1.1749999999998746], [120.72499999999853, 1.3249999999998767], [120.77499999999853, 1.3249999999998767], [120.77499999999853, 1.3749999999998774], [120.92499999999852, 1.3749999999998774], [120.92499999999852, 1.2249999999998753], [120.87499999999852, 1.2249999999998753], [120.87499999999852, 1.1749999999998746], [120.72499999999853, 1.1749999999998746]]]]}}]}