{"type": "FeatureCollection", "features": [{"type": "Feature", "properties": {"date": "2026-10-04", "code": 1, "level": "waspada_tornado", "kategori": "Waspada Potensi Peluang Kecil", "color": "#FFFF00"}, "geometry": {"type": "MultiPolygon", "coordinates": [[[[105.17499999999941, -2.4750000000001773], [105.02499999999942, -2.4750000000001773], [105.02499999999942, -2.4250000000001766], [104.97499999999943, -2.4250000000001766], [104.97499999999943, -2.325000000000175], [105.02499999999942, -2.325000000000175], [105.02499999999942, -2.2250000000001737], [105.07499999999942, -2.2250000000001737], [105.07499999999942, -2.175000000000173], [105.22499999999941, -2.175000000000173], [105.22499999999941, -2.375000000000176], [105.17499999999941, -2.375000000000176], [105.17499999999941, -2.4750000000001773]]], [[[116.17499999999879, -1.9750000000001702], [116.27499999999878, -1.9750000000001702], [116.27499999999878, -2.025000000000171], [116.32499999999878, -2.025000000000171], [116.32499999999878, -2.2250000000001737], [116.27499999999878, -2.2250000000001737], [116.27499999999878, -2.4750000000001773], [116.22499999999879, -2.4750000000001773], [116.22499999999879, -2.375000000000176], [116.17499999999879, -2.375000000000176], [116.17499999999879, -2.2750000000001744], [116.12499999999879, -2.2750000000001744], [116.12499999999879, -2.2250000000001737], [116.0249999999988, -2.2250000000001737], [116.0249999999988, -2.175000000000173], [115.77499999999881, -2.175000000000173], [115.77499999999881, -2.1250000000001723], [115.67499999999882, -2.1250000000001723], [115.67499999999882, -2.0750000000001716], [115.62499999999882, -2.0750000000001716], [115.62499999999882, -1.9750000000001702], [115.67499999999882, -1.9750000000001702], [115.67499999999882, -1.9250000000001695], [115.77499999999881, -1.9250000000001695], [115.77499999999881, -1.8750000000001688], [116.0749999999988, -1.8750000000001688], [116.0749999999988, -1.9250000000001695], [116.17499999999879, -1.9250000000001695], [116.17499999999879, -1.9750000000001702]]], [[[112.87499999999898, -1.8750000000001688], [112.97499999999897, -1.8750000000001688], [112.97499999999897, -1.9750000000001702], [112.87499999999898, -1.9750000000001702], [112.87499999999898, -1.8750000000001688]]], [[[105.4249999999994, -1.7750000000001673], [105.4249999999994, -1.7250000000001666], [105.4749999999994, -1.7250000000001666], [105.4749999999994, -1.675000000000166], [105.5249999999994, -1.675000000000166], [105.5249999999994, -1.825000000000168], [105.3749999999994, -1.825000000000168], [105.3749999999994, -1.7750000000001673], [105.4249999999994, -1.7750000000001673]]], [[[112.82499999999898, -1.325000000000161], [112.82499999999898, -1.3750000000001616], [112.72499999999899, -1.3750000000001616], [112.72499999999899, -1.2250000000001595], [112.77499999999898, -1.2250000000001595], [112.77499999999898, -1.1750000000001588], [112.82499999999898, -1.1750000000001588], [112.82499999999898, -1.2750000000001602], [112.87499999999898, -1.2750000000001602], [112.87499999999898, -1.325000000000161], [112.82499999999898, -1.325000000000161]]], [[[116.52499999999877, -0.2250000000001453], [116.67499999999876, -0.2250000000001453], [116.67499999999876, -0.275000000000146], [116.77499999999876, -0.275000000000146], [116.77499999999876, -0.5250000000001496], [116.82499999999875, -0.5250000000001496], [116.82499999999875, -0.5750000000001503], [117.02499999999874, -0.5750000000001503], [117.02499999999874, -0.5250000000001496], [117.07499999999874, -0.5250000000001496], [117.07499999999874, -0.47500000000014886], [117.17499999999873, -0.47500000000014886], [117.17499999999873, -0.42500000000014815], [117.22499999999873, -0.42500000000014815], [117.22499999999873, -0.37500000000014744], [117.52499999999871, -0.37500000000014744], [117.52499999999871, -0.3250000000001467], [117.6749999999987, -0.3250000000001467], [117.6749999999987, -0.275000000000146], [118.12499999999868, -0.275000000000146], [118.12499999999868, -0.2250000000001453], [118.27499999999867, -0.2250000000001453], [118.27499999999867, -0.37500000000014744], [118.22499999999867, -0.37500000000014744], [118.22499999999867, -0.42500000000014815], [118.17499999999868, -0.42500000000014815], [118.17499999999868, -0.47500000000014886], [118.07499999999868, -0.47500000000014886], [118.07499999999868, -0.5250000000001496], [117.92499999999869, -0.5250000000001496], [117.92499999999869, -0.5750000000001503], [117.8249999999987, -0.5750000000001503], [117.8249999999987, -0.625000000000151], [117.7249999999987, -0.625000000000151], [117.7249999999987, -0.6750000000001517], [117.6749999999987, -0.6750000000001517], [117.6749999999987, -0.7250000000001524], [117.6249999999987, -0.7250000000001524], [117.6249999999987, -0.7750000000001531], [117.57499999999871, -0.7750000000001531], [117.57499999999871, -0.8750000000001545], [117.52499999999871, -0.8750000000001545], [117.52499999999871, -0.975000000000156], [117.47499999999872, -0.975000000000156], [117.47499999999872, -1.0250000000001567], [117.42499999999872, -1.0250000000001567], [117.42499999999872, -1.0750000000001574], [117.27499999999873, -1.0750000000001574], [117.27499999999873, -1.125000000000158], [117.12499999999874, -1.125000000000158], [117.12499999999874, -1.1750000000001588], [117.07499999999874, -1.1750000000001588], [117.07499999999874, -1.2750000000001602], [117.02499999999874, -1.2750000000001602], [117.02499999999874, -1.325000000000161], [116.97499999999874, -1.325000000000161], [116.97499999999874, -1.3750000000001616], [116.82499999999875, -1.3750000000001616], [116.82499999999875, -1.4250000000001624], [116.72499999999876, -1.4250000000001624], [116.72499999999876, -1.3750000000001616], [116.32499999999878, -1.3750000000001616], [116.32499999999878, -1.4250000000001624], [116.0749999999988, -1.4250000000001624], [116.0749999999988, -1.2250000000001595], [116.0249999999988, -1.2250000000001595], [116.0249999999988, -1.1750000000001588], [115.9749999999988, -1.1750000000001588], [115.9749999999988, -1.125000000000158], [115.57499999999882, -1.125000000000158], [115.57499999999882, -1.0750000000001574], [115.47499999999883, -1.0750000000001574], [115.47499999999883, -1.0250000000001567], [115.42499999999883, -1.0250000000001567], [115.42499999999883, -0.975000000000156], [115.47499999999883, -0.975000000000156], [115.47499999999883, -0.9250000000001553], [115.77499999999881, -0.9250000000001553], [115.77499999999881, -0.8750000000001545], [115.8749999999988, -0.8750000000001545], [115.8749999999988, -0.8250000000001538], [115.9249999999988, -0.8250000000001538], [115.9249999999988, -0.7750000000001531], [116.0249999999988, -0.7750000000001531], [116.0249999999988, -0.7250000000001524], [116.0749999999988, -0.7250000000001524], [116.0749999999988, -0.7750000000001531], [116.32499999999878, -0.7750000000001531], [116.32499999999878, -0.7250000000001524], [116.37499999999878, -0.7250000000001524], [116.37499999999878, -0.5250000000001496], [116.32499999999878, -0.5250000000001496], [116.32499999999878, -0.47500000000014886], [116.22499999999879, -0.47500000000014886], [116.22499999999879, -0.42500000000014815], [116.17499999999879, -0.42500000000014815], [116.17499999999879, -0.37500000000014744], [116.12499999999879, -0.37500000000014744], [116.12499999999879, -0.275000000000146], [116.0749999999988, -0.275000000000146], [116.0749999999988, -0.2250000000001453], [116.12499999999879, -0.2250000000001453], [116.12499999999879, -0.12500000000014388], [116.42499999999878, -0.12500000000014388], [116.42499999999878, -0.1750000000001446], [116.52499999999877, -0.1750000000001446], [116.52499999999877, -0.2250000000001453]]], [[[104.12499999999947, 0.12499999999985967], [104.12499999999947, 0.024999999999858247], [104.02499999999948, 0.024999999999858247], [104.02499999999948, 0.07499999999985896], [103.97499999999948, 0.07499999999985896], [103.97499999999948, 0.12499999999985967], [103.92499999999949, 0.12499999999985967], [103.92499999999949, 0.17499999999986038], [103.97499999999948, 0.17499999999986038], [103.97499999999948, 0.2249999999998611], [104.02499999999948, 0.2249999999998611], [104.02499999999948, 0.17499999999986038], [104.07499999999948, 0.17499999999986038], [104.07499999999948, 0.12499999999985967], [104.12499999999947, 0.12499999999985967]]], [[[104.67499999999944, 0.42499999999986393], [104.67499999999944, 0.3749999999998632], [104.77499999999944, 0.3749999999998632], [104.77499999999944, 0.3249999999998625], [104.82499999999943, 0.3249999999998625], [104.82499999999943, 0.17499999999986038], [104.87499999999943, 0.17499999999986038], [104.87499999999943, 0.07499999999985896], [104.82499999999943, 0.07499999999985896], [104.82499999999943, -0.025000000000142464], [104.72499999999944, -0.025000000000142464], [104.72499999999944, 0.024999999999858247], [104.67499999999944, 0.024999999999858247], [104.67499999999944, 0.12499999999985967], [104.62499999999945, 0.12499999999985967], [104.62499999999945, 0.2249999999998611], [104.57499999999945, 0.2249999999998611], [104.57499999999945, 0.3249999999998625], [104.52499999999945, 0.3249999999998625], [104.52499999999945, 0.3749999999998632], [104.47499999999945, 0.3749999999998632], [104.47499999999945, 0.42499999999986393], [104.42499999999946, 0.42499999999986393], [104.42499999999946, 0.5249999999998654], [104.52499999999945, 0.5249999999998654], [104.52499999999945, 0.47499999999986464], [104.62499999999945, 0.47499999999986464], [104.62499999999945, 0.42499999999986393], [104.67499999999944, 0.42499999999986393]]], [[[109.37499999999918, 0.42499999999986393], [109.32499999999918, 0.42499999999986393], [109.32499999999918, 0.3249999999998625], [109.27499999999918, 0.3249999999998625], [109.27499999999918, 0.2749999999998618], [109.22499999999918, 0.2749999999998618], [109.22499999999918, 0.2249999999998611], [109.0249999999992, 0.2249999999998611], [109.0249999999992, 0.47499999999986464], [109.07499999999919, 0.47499999999986464], [109.07499999999919, 0.5249999999998654], [109.12499999999919, 0.5249999999998654], [109.12499999999919, 0.5749999999998661], [109.32499999999918, 0.5749999999998661], [109.32499999999918, 0.5249999999998654], [109.37499999999918, 0.5249999999998654], [109.37499999999918, 0.42499999999986393]]], [[[110.42499999999912, 1.4249999999998781], [110.42499999999912, 1.3249999999998767], [110.37499999999912, 1.3249999999998767], [110.37499999999912, 1.2249999999998753], [110.32499999999912, 1.2249999999998753], [110.32499999999912, 1.1749999999998746], [110.27499999999912, 1.1749999999998746], [110.27499999999912, 1.1249999999998739], [110.22499999999913, 1.1249999999998739], [110.22499999999913, 1.0749999999998732], [110.17499999999913, 1.0749999999998732], [110.17499999999913, 1.0249999999998725], [110.12499999999913, 1.0249999999998725], [110.12499999999913, 0.9749999999998717], [110.07499999999914, 0.9749999999998717], [110.07499999999914, 0.924999999999871], [110.02499999999914, 0.924999999999871], [110.02499999999914, 0.8749999999998703], [109.97499999999914, 0.8749999999998703], [109.97499999999914, 0.8249999999998696], [109.92499999999914, 0.8249999999998696], [109.92499999999914, 0.7749999999998689], [109.87499999999915, 0.7749999999998689], [109.87499999999915, 0.7249999999998682], [109.82499999999915, 0.7249999999998682], [109.82499999999915, 0.6749999999998675], [109.77499999999915, 0.6749999999998675], [109.77499999999915, 0.6249999999998668], [109.67499999999916, 0.6249999999998668], [109.67499999999916, 0.7249999999998682], [109.62499999999916, 0.7249999999998682], [109.62499999999916, 0.924999999999871], [109.57499999999916, 0.924999999999871], [109.57499999999916, 1.1249999999998739], [109.52499999999917, 1.1249999999998739], [109.52499999999917, 1.3749999999998774], [109.57499999999916, 1.3749999999998774], [109.57499999999916, 1.4249999999998781], [109.62499999999916, 1.4249999999998781], [109.62499999999916, 1.4749999999998789], [109.87499999999915, 1.4749999999998789], [109.87499999999915, 1.4249999999998781], [110.22499999999913, 1.4249999999998781], [110.22499999999913, 1.4749999999998789], [110.32499999999912, 1.4749999999998789], [110.32499999999912, 1.5249999999998796], [110.37499999999912, 1.5249999999998796], [110.37499999999912, 1.624999999999881], [110.42499999999912, 1.624999999999881], [110.42499999999912, 1.6749999999998817], [110.52499999999911, 1.6749999999998817], [110.52499999999911, 1.5249999999998796], [110.47499999999911, 1.5249999999998796], [110.47499999999911, 1.4249999999998781], [110.42499999999912, 1.4249999999998781]]], [[[106.32499999999935, 3.324999999999905], [106.32499999999935, 3.024999999999901], [106.27499999999935, 3.024999999999901], [106.27499999999935, 2.9749999999999], [106.22499999999935, 2.9749999999999], [106.22499999999935, 2.9249999999998995], [106.02499999999937, 2.9249999999998995], [106.02499999999937, 2.9749999999999], [105.97499999999937, 2.9749999999999], [105.97499999999937, 3.024999999999901], [105.92499999999937, 3.024999999999901], [105.92499999999937, 3.0749999999999016], [105.87499999999937, 3.0749999999999016], [105.87499999999937, 3.2749999999999044], [105.92499999999937, 3.2749999999999044], [105.92499999999937, 3.324999999999905], [105.97499999999937, 3.324999999999905], [105.97499999999937, 3.374999999999906], [106.02499999999937, 3.374999999999906], [106.02499999999937, 3.4249999999999066], [106.17499999999936, 3.4249999999999066], [106.17499999999936, 3.374999999999906], [106.27499999999935, 3.374999999999906], [106.27499999999935, 3.324999999999905], [106.32499999999935, 3.324999999999905]]], [[[142.32499999999732, -4.525000000000206], [142.3749999999973, -4.525000000000206], [142.3749999999973, -4.575000000000207], [142.4749999999973, -4.575000000000207], [142.4749999999973, -4.625000000000208], [143.62499999999721, -4.625000000000208], [143.62499999999721, -4.6750000000002085], [143.92499999999723, -4.6750000000002085], [143.92499999999723, -4.625000000000208], [144.0749999999972, -4.625000000000208], [144.0749999999972, -4.575000000000207], [144.3749999999972, -4.575000000000207], [144.3749999999972, -4.625000000000208], [144.47499999999718, -4.625000000000208], [144.47499999999718, -4.6750000000002085], [144.5249999999972, -4.6750000000002085], [144.5249999999972, -4.725000000000209], [144.57499999999717, -4.725000000000209], [144.57499999999717, -4.77500000000021], [144.62499999999716, -4.77500000000021], [144.62499999999716, -4.875000000000211], [144.67499999999717, -4.875000000000211], [144.67499999999717, -4.925000000000212], [144.72499999999718, -4.925000000000212], [144.72499999999718, -5.0250000000002135], [144.67499999999717, -5.0250000000002135], [144.67499999999717, -4.975000000000213], [144.57499999999717, -4.975000000000213], [144.57499999999717, -4.925000000000212], [144.12499999999721, -4.925000000000212], [144.12499999999721, -4.875000000000211], [143.9749999999972, -4.875000000000211], [143.9749999999972, -4.825000000000211], [142.7249999999973, -4.825000000000211], [142.7249999999973, -4.875000000000211], [142.5749999999973, -4.875000000000211], [142.5749999999973, -4.825000000000211], [142.3749999999973, -4.825000000000211], [142.3749999999973, -4.77500000000021], [142.2749999999973, -4.77500000000021], [142.2749999999973, -4.725000000000209], [142.2249999999973, -4.725000000000209], [142.2249999999973, -4.6750000000002085], [142.12499999999733, -4.6750000000002085], [142.12499999999733, -4.625000000000208], [142.07499999999732, -4.625000000000208], [142.07499999999732, -4.575000000000207], [142.0249999999973, -4.575000000000207], [142.0249999999973, -4.525000000000206], [141.97499999999732, -4.525000000000206], [141.97499999999732, -4.475000000000206], [142.0249999999973, -4.475000000000206], [142.0249999999973, -4.425000000000205], [142.2249999999973, -4.425000000000205], [142.2249999999973, -4.475000000000206], [142.32499999999732, -4.475000000000206], [142.32499999999732, -4.525000000000206]]], [[[142.2249999999973, -3.425000000000191], [142.32499999999732, -3.425000000000191], [142.32499999999732, -3.4750000000001915], [142.3749999999973, -3.4750000000001915], [142.3749999999973, -3.525000000000192], [142.4749999999973, -3.525000000000192], [142.4749999999973, -3.575000000000193], [142.5249999999973, -3.575000000000193], [142.5249999999973, -3.7750000000001958], [142.42499999999728, -3.7750000000001958], [142.42499999999728, -3.8250000000001965], [142.3749999999973, -3.8250000000001965], [142.3749999999973, -3.7750000000001958], [142.07499999999732, -3.7750000000001958], [142.07499999999732, -3.725000000000195], [141.97499999999732, -3.725000000000195], [141.97499999999732, -3.6250000000001936], [141.92499999999734, -3.6250000000001936], [141.92499999999734, -3.4750000000001915], [141.87499999999733, -3.4750000000001915], [141.87499999999733, -3.37500000000019], [141.92499999999734, -3.37500000000019], [141.92499999999734, -3.3250000000001894], [142.12499999999733, -3.3250000000001894], [142.12499999999733, -3.37500000000019], [142.2249999999973, -3.37500000000019], [142.2249999999973, -3.425000000000191]]], [[[139.82499999999743, -3.075000000000186], [139.77499999999745, -3.075000000000186], [139.77499999999745, -3.1250000000001865], [139.72499999999746, -3.1250000000001865], [139.72499999999746, -3.1750000000001872], [139.67499999999745, -3.1750000000001872], [139.67499999999745, -3.225000000000188], [139.57499999999746, -3.225000000000188], [139.57499999999746, -3.4750000000001915], [139.62499999999744, -3.4750000000001915], [139.62499999999744, -3.6250000000001936], [139.67499999999745, -3.6250000000001936], [139.67499999999745, -3.6750000000001943], [139.77499999999745, -3.6750000000001943], [139.77499999999745, -3.6250000000001936], [139.82499999999743, -3.6250000000001936], [139.82499999999743, -3.525000000000192], [139.87499999999744, -3.525000000000192], [139.87499999999744, -3.425000000000191], [139.92499999999745, -3.425000000000191], [139.92499999999745, -3.37500000000019], [140.17499999999742, -3.37500000000019], [140.17499999999742, -3.425000000000191], [140.2249999999974, -3.425000000000191], [140.2249999999974, -3.4750000000001915], [140.27499999999742, -3.4750000000001915], [140.27499999999742, -3.525000000000192], [140.32499999999743, -3.525000000000192], [140.32499999999743, -3.575000000000193], [140.3749999999974, -3.575000000000193], [140.3749999999974, -3.6250000000001936], [140.52499999999742, -3.6250000000001936], [140.52499999999742, -3.6750000000001943], [140.87499999999739, -3.6750000000001943], [140.87499999999739, -3.725000000000195], [140.97499999999738, -3.725000000000195], [140.97499999999738, -3.7750000000001958], [141.02499999999736, -3.7750000000001958], [141.02499999999736, -3.925000000000198], [140.97499999999738, -3.925000000000198], [140.97499999999738, -3.9750000000001986], [140.9249999999974, -3.9750000000001986], [140.9249999999974, -4.025000000000199], [140.87499999999739, -4.025000000000199], [140.87499999999739, -4.125000000000201], [140.82499999999737, -4.125000000000201], [140.82499999999737, -4.175000000000201], [140.62499999999739, -4.175000000000201], [140.62499999999739, -4.125000000000201], [140.5749999999974, -4.125000000000201], [140.5749999999974, -4.0750000000002], [140.4749999999974, -4.0750000000002], [140.4749999999974, -4.025000000000199], [140.02499999999742, -4.025000000000199], [140.02499999999742, -3.9750000000001986], [139.87499999999744, -3.9750000000001986], [139.87499999999744, -3.925000000000198], [139.82499999999743, -3.925000000000198], [139.82499999999743, -3.875000000000197], [139.77499999999745, -3.875000000000197], [139.77499999999745, -3.8250000000001965], [139.72499999999746, -3.8250000000001965], [139.72499999999746, -3.7750000000001958], [139.42499999999745, -3.7750000000001958], [139.42499999999745, -3.725000000000195], [139.3249999999975, -3.725000000000195], [139.3249999999975, -3.6750000000001943], [139.27499999999748, -3.6750000000001943], [139.27499999999748, -3.6250000000001936], [139.22499999999746, -3.6250000000001936], [139.22499999999746, -3.575000000000193], [139.17499999999748, -3.575000000000193], [139.17499999999748, -3.425000000000191], [139.22499999999746, -3.425000000000191], [139.22499999999746, -3.37500000000019], [139.27499999999748, -3.37500000000019], [139.27499999999748, -3.3250000000001894], [139.3249999999975, -3.3250000000001894], [139.3249999999975, -3.2750000000001886], [139.42499999999745, -3.2750000000001886], [139.42499999999745, -3.225000000000188], [139.47499999999746, -3.225000000000188], [139.47499999999746, -2.9250000000001837], [139.52499999999748, -2.9250000000001837], [139.52499999999748, -2.875000000000183], [139.57499999999746, -2.875000000000183], [139.57499999999746, -2.8250000000001823], [139.62499999999744, -2.8250000000001823], [139.62499999999744, -2.7750000000001815], [139.77499999999745, -2.7750000000001815], [139.77499999999745, -2.8250000000001823], [139.82499999999743, -2.8250000000001823], [139.82499999999743, -3.075000000000186]]], [[[141.67499999999734, -3.425000000000191], [141.67499999999734, -3.4750000000001915], [141.62499999999733, -3.4750000000001915], [141.62499999999733, -3.525000000000192], [141.57499999999735, -3.525000000000192], [141.57499999999735, -3.575000000000193], [141.52499999999736, -3.575000000000193], [141.52499999999736, -3.6250000000001936], [141.27499999999736, -3.6250000000001936], [141.27499999999736, -3.525000000000192], [141.22499999999735, -3.525000000000192], [141.22499999999735, -3.425000000000191], [141.27499999999736, -3.425000000000191], [141.27499999999736, -3.3250000000001894], [141.57499999999735, -3.3250000000001894], [141.57499999999735, -3.37500000000019], [141.62499999999733, -3.37500000000019], [141.62499999999733, -3.425000000000191], [141.67499999999734, -3.425000000000191]]], [[[133.07499999999783, -2.2750000000001744], [133.07499999999783, -2.525000000000178], [132.92499999999785, -2.525000000000178], [132.92499999999785, -2.2750000000001744], [133.07499999999783, -2.2750000000001744]]], [[[134.27499999999776, -2.375000000000176], [134.32499999999777, -2.375000000000176], [134.32499999999777, -2.525000000000178], [134.17499999999777, -2.525000000000178], [134.17499999999777, -2.4750000000001773], [134.12499999999778, -2.4750000000001773], [134.12499999999778, -2.2750000000001744], [134.22499999999775, -2.2750000000001744], [134.22499999999775, -2.325000000000175], [134.27499999999776, -2.325000000000175], [134.27499999999776, -2.375000000000176]]], [[[119.77499999999858, -1.0250000000001567], [119.77499999999858, -1.125000000000158], [119.72499999999859, -1.125000000000158], [119.72499999999859, -1.1750000000001588], [119.67499999999859, -1.1750000000001588], [119.67499999999859, -1.2250000000001595], [119.6249999999986, -1.2250000000001595], [119.6249999999986, -1.3750000000001616], [119.5749999999986, -1.3750000000001616], [119.5749999999986, -1.5750000000001645], [119.5249999999986, -1.5750000000001645], [119.5249999999986, -1.675000000000166], [119.4749999999986, -1.675000000000166], [119.4749999999986, -1.8750000000001688], [119.4249999999986, -1.8750000000001688], [119.4249999999986, -2.0750000000001716], [119.37499999999861, -2.0750000000001716], [119.37499999999861, -2.1250000000001723], [119.32499999999861, -2.1250000000001723], [119.32499999999861, -2.175000000000173], [119.27499999999861, -2.175000000000173], [119.27499999999861, -2.0750000000001716], [119.22499999999862, -2.0750000000001716], [119.22499999999862, -1.9750000000001702], [119.17499999999862, -1.9750000000001702], [119.17499999999862, -1.7750000000001673], [119.12499999999862, -1.7750000000001673], [119.12499999999862, -1.675000000000166], [119.17499999999862, -1.675000000000166], [119.17499999999862, -1.475000000000163], [119.22499999999862, -1.475000000000163], [119.22499999999862, -1.4250000000001624], [119.27499999999861, -1.4250000000001624], [119.27499999999861, -1.325000000000161], [119.37499999999861, -1.325000000000161], [119.37499999999861, -1.2750000000001602], [119.4249999999986, -1.2750000000001602], [119.4249999999986, -1.1750000000001588], [119.4749999999986, -1.1750000000001588], [119.4749999999986, -0.8250000000001538], [119.5249999999986, -0.8250000000001538], [119.5249999999986, -0.7750000000001531], [119.6249999999986, -0.7750000000001531], [119.6249999999986, -0.7250000000001524], [119.77499999999858, -0.7250000000001524], [119.77499999999858, -0.7750000000001531], [119.82499999999858, -0.7750000000001531], [119.82499999999858, -1.0250000000001567], [119.77499999999858, -1.0250000000001567]]], [[[131.8749999999979, -0.9250000000001553], [131.8749999999979, -0.975000000000156], [131.5749999999979, -0.975000000000156], [131.5749999999979, -0.8750000000001545], [131.6249999999979, -0.8750000000001545], [131.6249999999979, -0.7750000000001531], [131.6749999999979, -0.7750000000001531], [131.6749999999979, -0.6750000000001517], [131.7749999999979, -0.6750000000001517], [131.7749999999979, -0.625000000000151], [131.82499999999789, -0.625000000000151], [131.82499999999789, -0.5750000000001503], [132.02499999999787, -0.5750000000001503], [132.02499999999787, -0.8750000000001545], [131.9749999999979, -0.8750000000001545], [131.9749999999979, -0.9250000000001553], [131.8749999999979, -0.9250000000001553]]], [[[120.37499999999855, 0.2749999999998618], [120.42499999999855, 0.2749999999998618], [120.42499999999855, 0.12499999999985967], [120.47499999999854, 0.12499999999985967], [120.47499999999854, -0.12500000000014388], [120.42499999999855, -0.12500000000014388], [120.42499999999855, -0.2250000000001453], [120.47499999999854, -0.2250000000001453], [120.47499999999854, -0.3250000000001467], [120.52499999999854, -0.3250000000001467], [120.52499999999854, -0.37500000000014744], [120.57499999999854, -0.37500000000014744], [120.57499999999854, -0.42500000000014815], [120.67499999999853, -0.42500000000014815], [120.67499999999853, -0.47500000000014886], [120.72499999999853, -0.47500000000014886], [120.72499999999853, -0.5750000000001503], [120.57499999999854, -0.5750000000001503], [120.57499999999854, -0.625000000000151], [120.42499999999855, -0.625000000000151], [120.42499999999855, -0.6750000000001517], [120.37499999999855, -0.6750000000001517], [120.37499999999855, -0.7250000000001524], [120.27499999999856, -0.7250000000001524], [120.27499999999856, -0.7750000000001531], [120.12499999999856, -0.7750000000001531], [120.12499999999856, -0.7250000000001524], [119.92499999999858, -0.7250000000001524], [119.92499999999858, -0.6750000000001517], [119.87499999999858, -0.6750000000001517], [119.87499999999858, -0.42500000000014815], [119.92499999999858, -0.42500000000014815], [119.92499999999858, -0.3250000000001467], [119.97499999999857, -0.3250000000001467], [119.97499999999857, -0.275000000000146], [120.02499999999857, -0.275000000000146], [120.02499999999857, -0.2250000000001453], [120.12499999999856, -0.2250000000001453], [120.12499999999856, -0.1750000000001446], [120.17499999999856, -0.1750000000001446], [120.17499999999856, -0.12500000000014388], [120.22499999999856, -0.12500000000014388], [120.22499999999856, 0.024999999999858247], [120.17499999999856, 0.024999999999858247], [120.17499999999856, 0.07499999999985896], [120.12499999999856, 0.07499999999985896], [120.12499999999856, 0.12499999999985967], [120.07499999999857, 0.12499999999985967], [120.07499999999857, 0.17499999999986038], [120.02499999999857, 0.17499999999986038], [120.02499999999857, 0.3749999999998632], [120.32499999999855, 0.3749999999998632], [120.32499999999855, 0.3249999999998625], [120.37499999999855, 0.3249999999998625], [120.37499999999855, 0.2749999999998618]]], [[[121.42499999999849, 0.2249999999998611], [121.42499999999849, 0.12499999999985967], [121.3249999999985, 0.12499999999985967], [121.3249999999985, 0.2249999999998611], [121.42499999999849, 0.2249999999998611]]], [[[118.37499999999866, 0.2249999999998611], [118.37499999999866, 0.3249999999998625], [118.32499999999867, 0.3249999999998625], [118.32499999999867, 0.3749999999998632], [118.37499999999866, 0.3749999999998632], [118.37499999999866, 0.42499999999986393], [118.72499999999864, 0.42499999999986393], [118.72499999999864, 0.2749999999998618], [118.67499999999865, 0.2749999999998618], [118.67499999999865, 0.2249999999998611], [118.37499999999866, 0.2249999999998611]]]]}}]}