{"type": "FeatureCollection", "features": [{"type": "Feature", "properties": {"date": "2026-10-04", "code": 1, "level": "waspada_tornado", "kategori": "Waspada Potensi Peluang Kecil", "color": "#FFFF00"}, "geometry": {"type": "MultiPolygon", "coordinates": [[[[105.5249999999994, -1.4250000000001624], [105.57499999999939, -1.4250000000001624], [105.57499999999939, -1.475000000000163], [105.5249999999994, -1.475000000000163], [105.5249999999994, -1.4250000000001624]]], [[[110.97499999999908, -0.6750000000001517], [110.97499999999908, -0.8250000000001538], [110.7249999999991, -0.8250000000001538], [110.7249999999991, -0.6750000000001517], [110.97499999999908, -0.6750000000001517]]], [[[113.27499999999895, -0.12500000000014388], [113.27499999999895, -0.275000000000146], [113.22499999999896, -0.275000000000146], [113.22499999999896, -0.3250000000001467], [113.02499999999897, -0.3250000000001467], [113.02499999999897, -0.025000000000142464], [113.17499999999896, -0.025000000000142464], [113.17499999999896, -0.07500000000014317], [113.22499999999896, -0.07500000000014317], [113.22499999999896, -0.12500000000014388], [113.27499999999895, -0.12500000000014388]]], [[[109.42499999999917, 0.42499999999986393], [109.47499999999917, 0.42499999999986393], [109.47499999999917, 0.024999999999858247], [109.42499999999917, 0.024999999999858247], [109.42499999999917, -0.025000000000142464], [109.27499999999918, -0.025000000000142464], [109.27499999999918, 0.5249999999998654], [109.37499999999918, 0.5249999999998654], [109.37499999999918, 0.47499999999986464], [109.42499999999917, 0.47499999999986464], [109.42499999999917, 0.42499999999986393]]], [[[113.02499999999897, 0.2249999999998611], [113.02499999999897, 0.12499999999985967], [112.92499999999897, 0.12499999999985967], [112.92499999999897, 0.17499999999986038], [112.87499999999898, 0.17499999999986038], [112.87499999999898, 0.2749999999998618], [112.82499999999898, 0.2749999999998618], [112.82499999999898, 0.3749999999998632], [112.92499999999897, 0.3749999999998632], [112.92499999999897, 0.42499999999986393], [113.02499999999897, 0.42499999999986393], [113.02499999999897, 0.3749999999998632], [113.07499999999897, 0.3749999999998632], [113.07499999999897, 0.2249999999998611], [113.02499999999897, 0.2249999999998611]]], [[[112.67499999999899, 0.42499999999986393], [112.67499999999899, 0.3749999999998632], [112.62499999999899, 0.3749999999998632], [112.62499999999899, 0.3249999999998625], [112.574999999999, 0.3249999999998625], [112.574999999999, 0.3749999999998632], [112.474999999999, 0.3749999999998632], [112.474999999999, 0.5249999999998654], [112.67499999999899, 0.5249999999998654], [112.67499999999899, 0.47499999999986464], [112.72499999999899, 0.47499999999986464], [112.72499999999899, 0.42499999999986393], [112.67499999999899, 0.42499999999986393]]], [[[114.57499999999888, 0.8749999999998703], [114.62499999999888, 0.8749999999998703], [114.62499999999888, 0.8249999999998696], [114.67499999999887, 0.8249999999998696], [114.67499999999887, 0.7749999999998689], [114.87499999999886, 0.7749999999998689], [114.87499999999886, 0.7249999999998682], [114.97499999999886, 0.7249999999998682], [114.97499999999886, 0.6749999999998675], [115.02499999999885, 0.6749999999998675], [115.02499999999885, 0.6249999999998668], [115.07499999999885, 0.6249999999998668], [115.07499999999885, 0.5249999999998654], [115.12499999999885, 0.5249999999998654], [115.12499999999885, 0.2749999999998618], [115.07499999999885, 0.2749999999998618], [115.07499999999885, 0.17499999999986038], [115.02499999999885, 0.17499999999986038], [115.02499999999885, 0.12499999999985967], [114.97499999999886, 0.12499999999985967], [114.97499999999886, 0.07499999999985896], [114.92499999999886, 0.07499999999985896], [114.92499999999886, 0.024999999999858247], [114.82499999999887, 0.024999999999858247], [114.82499999999887, -0.025000000000142464], [114.67499999999887, -0.025000000000142464], [114.67499999999887, 0.024999999999858247], [114.62499999999888, 0.024999999999858247], [114.62499999999888, 0.6249999999998668], [114.57499999999888, 0.6249999999998668], [114.57499999999888, 0.6749999999998675], [114.52499999999888, 0.6749999999998675], [114.52499999999888, 0.7249999999998682], [114.42499999999889, 0.7249999999998682], [114.42499999999889, 0.924999999999871], [114.47499999999889, 0.924999999999871], [114.47499999999889, 0.9749999999998717], [114.52499999999888, 0.9749999999998717], [114.52499999999888, 0.924999999999871], [114.57499999999888, 0.924999999999871], [114.57499999999888, 0.8749999999998703]]], [[[115.8749999999988, 0.8749999999998703], [115.8749999999988, 0.7249999999998682], [115.82499999999881, 0.7249999999998682], [115.82499999999881, 0.6749999999998675], [115.57499999999882, 0.6749999999998675], [115.57499999999882, 0.7249999999998682], [115.52499999999883, 0.7249999999998682], [115.52499999999883, 0.924999999999871], [115.57499999999882, 0.924999999999871], [115.57499999999882, 0.9749999999998717], [115.72499999999881, 0.9749999999998717], [115.72499999999881, 0.924999999999871], [115.82499999999881, 0.924999999999871], [115.82499999999881, 0.8749999999998703], [115.8749999999988, 0.8749999999998703]]], [[[103.12499999999953, 1.9249999999998852], [103.12499999999953, 1.8749999999998845], [103.02499999999954, 1.8749999999998845], [103.02499999999954, 1.9249999999998852], [102.97499999999954, 1.9249999999998852], [102.97499999999954, 1.974999999999886], [103.02499999999954, 1.974999999999886], [103.02499999999954, 2.0249999999998867], [103.12499999999953, 2.0249999999998867], [103.12499999999953, 1.974999999999886], [103.17499999999953, 1.974999999999886], [103.17499999999953, 1.9249999999998852], [103.12499999999953, 1.9249999999998852]]], [[[112.87499999999898, 2.324999999999891], [112.92499999999897, 2.324999999999891], [112.92499999999897, 2.174999999999889], [112.87499999999898, 2.174999999999889], [112.87499999999898, 2.124999999999888], [112.72499999999899, 2.124999999999888], [112.72499999999899, 2.174999999999889], [112.67499999999899, 2.174999999999889], [112.67499999999899, 2.324999999999891], [112.62499999999899, 2.324999999999891], [112.62499999999899, 2.474999999999893], [112.82499999999898, 2.474999999999893], [112.82499999999898, 2.4249999999998924], [112.87499999999898, 2.4249999999998924], [112.87499999999898, 2.324999999999891]]], [[[105.62499999999939, 3.6249999999999094], [105.62499999999939, 3.5749999999999087], [105.57499999999939, 3.5749999999999087], [105.57499999999939, 3.4749999999999073], [105.4749999999994, 3.4749999999999073], [105.4749999999994, 3.4249999999999066], [105.3249999999994, 3.4249999999999066], [105.3249999999994, 3.4749999999999073], [105.27499999999941, 3.4749999999999073], [105.27499999999941, 3.524999999999908], [105.3249999999994, 3.524999999999908], [105.3249999999994, 3.6249999999999094], [105.4249999999994, 3.6249999999999094], [105.4249999999994, 3.67499999999991], [105.5249999999994, 3.67499999999991], [105.5249999999994, 3.724999999999911], [105.62499999999939, 3.724999999999911], [105.62499999999939, 3.7749999999999115], [105.72499999999938, 3.7749999999999115], [105.72499999999938, 3.724999999999911], [105.67499999999939, 3.724999999999911], [105.67499999999939, 3.6249999999999094], [105.62499999999939, 3.6249999999999094]]], [[[115.17499999999885, 4.174999999999917], [115.17499999999885, 4.1249999999999165], [115.12499999999885, 4.1249999999999165], [115.12499999999885, 4.074999999999916], [115.07499999999885, 4.074999999999916], [115.07499999999885, 4.024999999999915], [115.02499999999885, 4.024999999999915], [115.02499999999885, 3.724999999999911], [114.92499999999886, 3.724999999999911], [114.92499999999886, 3.9249999999999137], [114.97499999999886, 3.9249999999999137], [114.97499999999886, 4.074999999999916], [114.92499999999886, 4.074999999999916], [114.92499999999886, 4.324999999999919], [114.97499999999886, 4.324999999999919], [114.97499999999886, 4.37499999999992], [115.07499999999885, 4.37499999999992], [115.07499999999885, 4.424999999999921], [115.17499999999885, 4.424999999999921], [115.17499999999885, 4.37499999999992], [115.22499999999884, 4.37499999999992], [115.22499999999884, 4.174999999999917], [115.17499999999885, 4.174999999999917]]], [[[101.72499999999961, 6.224999999999946], [101.8249999999996, 6.224999999999946], [101.8249999999996, 6.174999999999946], [101.72499999999961, 6.174999999999946], [101.72499999999961, 6.224999999999946]]], [[[140.97499999999738, -4.225000000000202], [140.97499999999738, -4.375000000000204], [140.6749999999974, -4.375000000000204], [140.6749999999974, -4.325000000000204], [140.62499999999739, -4.325000000000204], [140.62499999999739, -4.125000000000201], [140.87499999999739, -4.125000000000201], [140.87499999999739, -4.175000000000201], [140.9249999999974, -4.175000000000201], [140.9249999999974, -4.225000000000202], [140.97499999999738, -4.225000000000202]]], [[[140.2249999999974, -2.325000000000175], [140.2249999999974, -2.375000000000176], [140.27499999999742, -2.375000000000176], [140.27499999999742, -2.4250000000001766], [140.32499999999743, -2.4250000000001766], [140.32499999999743, -2.5750000000001787], [140.27499999999742, -2.5750000000001787], [140.27499999999742, -2.725000000000181], [140.2249999999974, -2.725000000000181], [140.2249999999974, -2.8250000000001823], [140.07499999999743, -2.8250000000001823], [140.07499999999743, -2.7750000000001815], [140.02499999999742, -2.7750000000001815], [140.02499999999742, -2.725000000000181], [139.97499999999744, -2.725000000000181], [139.97499999999744, -2.5750000000001787], [139.92499999999745, -2.5750000000001787], [139.92499999999745, -2.525000000000178], [139.82499999999743, -2.525000000000178], [139.82499999999743, -2.4750000000001773], [139.77499999999745, -2.4750000000001773], [139.77499999999745, -2.4250000000001766], [139.72499999999746, -2.4250000000001766], [139.72499999999746, -2.325000000000175], [139.77499999999745, -2.325000000000175], [139.77499999999745, -2.2750000000001744], [139.82499999999743, -2.2750000000001744], [139.82499999999743, -2.2250000000001737], [139.97499999999744, -2.2250000000001737], [139.97499999999744, -2.2750000000001744], [140.07499999999743, -2.2750000000001744], [140.07499999999743, -2.325000000000175], [140.2249999999974, -2.325000000000175]]], [[[116.12499999999879, -1.4250000000001624], [116.22499999999879, -1.4250000000001624], [116.22499999999879, -1.475000000000163], [116.27499999999878, -1.475000000000163], [116.27499999999878, -1.7750000000001673], [116.22499999999879, -1.7750000000001673], [116.22499999999879, -1.8750000000001688], [115.9249999999988, -1.8750000000001688], [115.9249999999988, -1.9250000000001695], [115.67499999999882, -1.9250000000001695], [115.67499999999882, -1.5250000000001638], [115.72499999999881, -1.5250000000001638], [115.72499999999881, -1.3750000000001616], [115.77499999999881, -1.3750000000001616], [115.77499999999881, -1.325000000000161], [116.0749999999988, -1.325000000000161], [116.0749999999988, -1.3750000000001616], [116.12499999999879, -1.3750000000001616], [116.12499999999879, -1.4250000000001624]]], [[[119.72499999999859, -0.8750000000001545], [119.72499999999859, -0.975000000000156], [119.67499999999859, -0.975000000000156], [119.67499999999859, -1.0250000000001567], [119.6249999999986, -1.0250000000001567], [119.6249999999986, -1.0750000000001574], [119.5749999999986, -1.0750000000001574], [119.5749999999986, -1.3750000000001616], [119.5249999999986, -1.3750000000001616], [119.5249999999986, -1.475000000000163], [119.32499999999861, -1.475000000000163], [119.32499999999861, -1.4250000000001624], [119.27499999999861, -1.4250000000001624], [119.27499999999861, -1.2750000000001602], [119.32499999999861, -1.2750000000001602], [119.32499999999861, -1.2250000000001595], [119.37499999999861, -1.2250000000001595], [119.37499999999861, -1.1750000000001588], [119.4749999999986, -1.1750000000001588], [119.4749999999986, -1.125000000000158], [119.5249999999986, -1.125000000000158], [119.5249999999986, -0.8750000000001545], [119.5749999999986, -0.8750000000001545], [119.5749999999986, -0.8250000000001538], [119.6249999999986, -0.8250000000001538], [119.6249999999986, -0.7750000000001531], [119.72499999999859, -0.7750000000001531], [119.72499999999859, -0.8250000000001538], [119.77499999999858, -0.8250000000001538], [119.77499999999858, -0.8750000000001545], [119.72499999999859, -0.8750000000001545]]], [[[120.17499999999856, -1.0750000000001574], [120.17499999999856, -1.0250000000001567], [120.12499999999856, -1.0250000000001567], [120.12499999999856, -0.975000000000156], [120.22499999999856, -0.975000000000156], [120.22499999999856, -0.9250000000001553], [120.32499999999855, -0.9250000000001553], [120.32499999999855, -0.975000000000156], [120.37499999999855, -0.975000000000156], [120.37499999999855, -1.0750000000001574], [120.17499999999856, -1.0750000000001574]]], [[[121.97499999999846, -0.7250000000001524], [122.07499999999845, -0.7250000000001524], [122.07499999999845, -0.7750000000001531], [121.97499999999846, -0.7750000000001531], [121.97499999999846, -0.7250000000001524]]], [[[121.62499999999848, 0.9749999999998717], [121.62499999999848, 0.7749999999998689], [121.57499999999848, 0.7749999999998689], [121.57499999999848, 0.5749999999998661], [121.52499999999849, 0.5749999999998661], [121.52499999999849, 0.5249999999998654], [121.47499999999849, 0.5249999999998654], [121.47499999999849, 0.47499999999986464], [121.2749999999985, 0.47499999999986464], [121.2749999999985, 0.6249999999998668], [121.3249999999985, 0.6249999999998668], [121.3249999999985, 1.0249999999998725], [121.3749999999985, 1.0249999999998725], [121.3749999999985, 1.0749999999998732], [121.52499999999849, 1.0749999999998732], [121.52499999999849, 1.0249999999998725], [121.57499999999848, 1.0249999999998725], [121.57499999999848, 0.9749999999998717], [121.62499999999848, 0.9749999999998717]]], [[[122.32499999999844, 0.8249999999998696], [122.32499999999844, 0.6749999999998675], [122.27499999999844, 0.6749999999998675], [122.27499999999844, 0.6249999999998668], [122.22499999999845, 0.6249999999998668], [122.22499999999845, 0.6749999999998675], [122.17499999999845, 0.6749999999998675], [122.17499999999845, 0.7749999999998689], [122.12499999999845, 0.7749999999998689], [122.12499999999845, 0.924999999999871], [122.22499999999845, 0.924999999999871], [122.22499999999845, 0.8749999999998703], [122.27499999999844, 0.8749999999998703], [122.27499999999844, 0.8249999999998696], [122.32499999999844, 0.8249999999998696]]], [[[128.77499999999807, 1.4249999999998781], [128.77499999999807, 1.2249999999998753], [128.7249999999981, 1.2249999999998753], [128.7249999999981, 1.0749999999998732], [128.67499999999808, 1.0749999999998732], [128.67499999999808, 0.9749999999998717], [128.5249999999981, 0.9749999999998717], [128.5249999999981, 1.1249999999998739], [128.57499999999808, 1.1249999999998739], [128.57499999999808, 1.2249999999998753], [128.5249999999981, 1.2249999999998753], [128.5249999999981, 1.3249999999998767], [128.4749999999981, 1.3249999999998767], [128.4749999999981, 1.4749999999998789], [128.5249999999981, 1.4749999999998789], [128.5249999999981, 1.5249999999998796], [128.67499999999808, 1.5249999999998796], [128.67499999999808, 1.4749999999998789], [128.7249999999981, 1.4749999999998789], [128.7249999999981, 1.4249999999998781], [128.77499999999807, 1.4249999999998781]]], [[[120.92499999999852, 1.3749999999998774], [120.92499999999852, 1.4249999999998781], [120.87499999999852, 1.4249999999998781], [120.87499999999852, 1.5249999999998796], [120.92499999999852, 1.5249999999998796], [120.92499999999852, 1.5749999999998803], [121.02499999999851, 1.5749999999998803], [121.02499999999851, 1.5249999999998796], [121.07499999999851, 1.5249999999998796], [121.07499999999851, 1.3749999999998774], [120.92499999999852, 1.3749999999998774]]], [[[116.77499999999876, 1.6749999999998817], [116.77499999999876, 1.624999999999881], [116.57499999999877, 1.624999999999881], [116.57499999999877, 1.6749999999998817], [116.52499999999877, 1.6749999999998817], [116.52499999999877, 1.7749999999998831], [116.57499999999877, 1.7749999999998831], [116.57499999999877, 1.8249999999998838], [116.82499999999875, 1.8249999999998838], [116.82499999999875, 1.7749999999998831], [116.87499999999875, 1.7749999999998831], [116.87499999999875, 1.6749999999998817], [116.77499999999876, 1.6749999999998817]]], [[[117.27499999999873, 4.724999999999925], [117.27499999999873, 4.574999999999923], [117.22499999999873, 4.574999999999923], [117.22499999999873, 4.524999999999922], [116.97499999999874, 4.524999999999922], [116.97499999999874, 4.4749999999999215], [116.72499999999876, 4.4749999999999215], [116.72499999999876, 4.524999999999922], [116.57499999999877, 4.524999999999922], [116.57499999999877, 4.574999999999923], [116.52499999999877, 4.574999999999923], [116.52499999999877, 4.724999999999925], [116.57499999999877, 4.724999999999925], [116.57499999999877, 4.774999999999926], [117.02499999999874, 4.774999999999926], [117.02499999999874, 4.8249999999999265], [117.12499999999874, 4.8249999999999265], [117.12499999999874, 4.774999999999926], [117.22499999999873, 4.774999999999926], [117.22499999999873, 4.724999999999925], [117.27499999999873, 4.724999999999925]]]]}}]}