{"type": "FeatureCollection", "features": [{"type": "Feature", "properties": {"date": "2026-10-05", "code": 1, "level": "waspada_tornado", "kategori": "Waspada Potensi Peluang Kecil", "color": "#FFFF00"}, "geometry": {"type": "MultiPolygon", "coordinates": [[[[105.3749999999994, -5.7250000000002235], [105.3749999999994, -5.675000000000223], [105.5249999999994, -5.675000000000223], [105.5249999999994, -5.775000000000224], [105.4249999999994, -5.775000000000224], [105.4249999999994, -5.7250000000002235], [105.3749999999994, -5.7250000000002235]]], [[[103.42499999999951, -4.725000000000209], [103.42499999999951, -4.77500000000021], [103.37499999999952, -4.77500000000021], [103.37499999999952, -4.825000000000211], [103.12499999999953, -4.825000000000211], [103.12499999999953, -4.725000000000209], [103.07499999999953, -4.725000000000209], [103.07499999999953, -4.6750000000002085], [103.12499999999953, -4.6750000000002085], [103.12499999999953, -4.625000000000208], [103.32499999999952, -4.625000000000208], [103.32499999999952, -4.6750000000002085], [103.37499999999952, -4.6750000000002085], [103.37499999999952, -4.725000000000209], [103.42499999999951, -4.725000000000209]]], [[[104.87499999999943, -3.4750000000001915], [104.87499999999943, -3.6250000000001936], [104.92499999999943, -3.6250000000001936], [104.92499999999943, -3.7750000000001958], [104.97499999999943, -3.7750000000001958], [104.97499999999943, -3.875000000000197], [105.02499999999942, -3.875000000000197], [105.02499999999942, -4.025000000000199], [105.07499999999942, -4.025000000000199], [105.07499999999942, -4.175000000000201], [105.02499999999942, -4.175000000000201], [105.02499999999942, -4.225000000000202], [104.97499999999943, -4.225000000000202], [104.97499999999943, -4.275000000000203], [104.72499999999944, -4.275000000000203], [104.72499999999944, -4.225000000000202], [104.67499999999944, -4.225000000000202], [104.67499999999944, -4.125000000000201], [104.62499999999945, -4.125000000000201], [104.62499999999945, -4.025000000000199], [104.57499999999945, -4.025000000000199], [104.57499999999945, -3.9750000000001986], [104.52499999999945, -3.9750000000001986], [104.52499999999945, -3.925000000000198], [104.47499999999945, -3.925000000000198], [104.47499999999945, -3.7750000000001958], [104.42499999999946, -3.7750000000001958], [104.42499999999946, -3.525000000000192], [104.47499999999945, -3.525000000000192], [104.47499999999945, -3.4750000000001915], [104.52499999999945, -3.4750000000001915], [104.52499999999945, -3.425000000000191], [104.57499999999945, -3.425000000000191], [104.57499999999945, -3.37500000000019], [104.77499999999944, -3.37500000000019], [104.77499999999944, -3.425000000000191], [104.82499999999943, -3.425000000000191], [104.82499999999943, -3.4750000000001915], [104.87499999999943, -3.4750000000001915]]], [[[111.97499999999903, -2.875000000000183], [111.97499999999903, -3.025000000000185], [111.92499999999903, -3.025000000000185], [111.92499999999903, -3.075000000000186], [111.87499999999903, -3.075000000000186], [111.87499999999903, -3.1250000000001865], [111.72499999999904, -3.1250000000001865], [111.72499999999904, -3.075000000000186], [111.67499999999905, -3.075000000000186], [111.67499999999905, -2.9250000000001837], [111.72499999999904, -2.9250000000001837], [111.72499999999904, -2.8250000000001823], [111.77499999999904, -2.8250000000001823], [111.77499999999904, -2.7750000000001815], [111.87499999999903, -2.7750000000001815], [111.87499999999903, -2.8250000000001823], [111.92499999999903, -2.8250000000001823], [111.92499999999903, -2.875000000000183], [111.97499999999903, -2.875000000000183]]], [[[115.52499999999883, -2.325000000000175], [115.52499999999883, -2.375000000000176], [115.57499999999882, -2.375000000000176], [115.57499999999882, -2.4250000000001766], [115.62499999999882, -2.4250000000001766], [115.62499999999882, -2.4750000000001773], [115.77499999999881, -2.4750000000001773], [115.77499999999881, -2.4250000000001766], [115.8749999999988, -2.4250000000001766], [115.8749999999988, -2.375000000000176], [116.27499999999878, -2.375000000000176], [116.27499999999878, -2.4250000000001766], [116.32499999999878, -2.4250000000001766], [116.32499999999878, -2.5750000000001787], [116.27499999999878, -2.5750000000001787], [116.27499999999878, -2.67500000000018], [116.22499999999879, -2.67500000000018], [116.22499999999879, -2.725000000000181], [116.17499999999879, -2.725000000000181], [116.17499999999879, -2.7750000000001815], [116.0249999999988, -2.7750000000001815], [116.0249999999988, -2.8250000000001823], [115.9749999999988, -2.8250000000001823], [115.9749999999988, -3.1250000000001865], [115.9249999999988, -3.1250000000001865], [115.9249999999988, -3.225000000000188], [115.8749999999988, -3.225000000000188], [115.8749999999988, -3.2750000000001886], [115.52499999999883, -3.2750000000001886], [115.52499999999883, -3.1750000000001872], [115.47499999999883, -3.1750000000001872], [115.47499999999883, -2.7750000000001815], [115.42499999999883, -2.7750000000001815], [115.42499999999883, -2.725000000000181], [115.37499999999883, -2.725000000000181], [115.37499999999883, -2.67500000000018], [115.32499999999884, -2.67500000000018], [115.32499999999884, -2.6250000000001794], [115.22499999999884, -2.6250000000001794], [115.22499999999884, -2.67500000000018], [115.12499999999885, -2.67500000000018], [115.12499999999885, -2.7750000000001815], [115.07499999999885, -2.7750000000001815], [115.07499999999885, -2.875000000000183], [115.02499999999885, -2.875000000000183], [115.02499999999885, -2.9750000000001844], [114.97499999999886, -2.9750000000001844], [114.97499999999886, -3.025000000000185], [114.92499999999886, -3.025000000000185], [114.92499999999886, -3.075000000000186], [114.82499999999887, -3.075000000000186], [114.82499999999887, -3.1250000000001865], [114.77499999999887, -3.1250000000001865], [114.77499999999887, -3.1750000000001872], [114.67499999999887, -3.1750000000001872], [114.67499999999887, -3.225000000000188], [114.52499999999888, -3.225000000000188], [114.52499999999888, -3.1750000000001872], [114.47499999999889, -3.1750000000001872], [114.47499999999889, -3.075000000000186], [114.42499999999889, -3.075000000000186], [114.42499999999889, -2.8250000000001823], [114.47499999999889, -2.8250000000001823], [114.47499999999889, -2.5750000000001787], [114.52499999999888, -2.5750000000001787], [114.52499999999888, -2.525000000000178], [114.57499999999888, -2.525000000000178], [114.57499999999888, -2.4750000000001773], [114.92499999999886, -2.4750000000001773], [114.92499999999886, -2.4250000000001766], [115.12499999999885, -2.4250000000001766], [115.12499999999885, -2.375000000000176], [115.17499999999885, -2.375000000000176], [115.17499999999885, -2.325000000000175], [115.22499999999884, -2.325000000000175], [115.22499999999884, -2.2750000000001744], [115.32499999999884, -2.2750000000001744], [115.32499999999884, -2.2250000000001737], [115.37499999999883, -2.2250000000001737], [115.37499999999883, -2.2750000000001744], [115.42499999999883, -2.2750000000001744], [115.42499999999883, -2.325000000000175], [115.52499999999883, -2.325000000000175]]], [[[105.4249999999994, -1.9750000000001702], [105.4249999999994, -1.9250000000001695], [105.57499999999939, -1.9250000000001695], [105.57499999999939, -2.025000000000171], [105.5249999999994, -2.025000000000171], [105.5249999999994, -2.0750000000001716], [105.27499999999941, -2.0750000000001716], [105.27499999999941, -2.1250000000001723], [105.22499999999941, -2.1250000000001723], [105.22499999999941, -2.175000000000173], [104.97499999999943, -2.175000000000173], [104.97499999999943, -2.1250000000001723], [104.92499999999943, -2.1250000000001723], [104.92499999999943, -2.0750000000001716], [104.87499999999943, -2.0750000000001716], [104.87499999999943, -1.9250000000001695], [104.92499999999943, -1.9250000000001695], [104.92499999999943, -1.8750000000001688], [105.12499999999942, -1.8750000000001688], [105.12499999999942, -1.9250000000001695], [105.22499999999941, -1.9250000000001695], [105.22499999999941, -1.9750000000001702], [105.4249999999994, -1.9750000000001702]]], [[[105.87499999999937, -1.825000000000168], [105.87499999999937, -1.8750000000001688], [105.67499999999939, -1.8750000000001688], [105.67499999999939, -1.675000000000166], [105.72499999999938, -1.675000000000166], [105.72499999999938, -1.6250000000001652], [105.82499999999938, -1.6250000000001652], [105.82499999999938, -1.675000000000166], [105.92499999999937, -1.675000000000166], [105.92499999999937, -1.825000000000168], [105.87499999999937, -1.825000000000168]]], [[[112.87499999999898, -0.6750000000001517], [112.87499999999898, -0.7250000000001524], [112.77499999999898, -0.7250000000001524], [112.77499999999898, -0.6750000000001517], [112.87499999999898, -0.6750000000001517]]], [[[113.72499999999893, -0.47500000000014886], [113.72499999999893, -0.5250000000001496], [113.67499999999893, -0.5250000000001496], [113.67499999999893, -0.5750000000001503], [113.42499999999895, -0.5750000000001503], [113.42499999999895, -0.5250000000001496], [113.37499999999895, -0.5250000000001496], [113.37499999999895, -0.47500000000014886], [113.32499999999895, -0.47500000000014886], [113.32499999999895, -0.42500000000014815], [113.37499999999895, -0.42500000000014815], [113.37499999999895, -0.3250000000001467], [113.47499999999894, -0.3250000000001467], [113.47499999999894, -0.275000000000146], [113.72499999999893, -0.275000000000146], [113.72499999999893, -0.37500000000014744], [113.77499999999893, -0.37500000000014744], [113.77499999999893, -0.47500000000014886], [113.72499999999893, -0.47500000000014886]]], [[[101.02499999999965, -0.5250000000001496], [101.02499999999965, -0.5750000000001503], [100.97499999999965, -0.5750000000001503], [100.97499999999965, -0.5250000000001496], [100.92499999999966, -0.5250000000001496], [100.92499999999966, -0.42500000000014815], [100.87499999999966, -0.42500000000014815], [100.87499999999966, -0.3250000000001467], [100.92499999999966, -0.3250000000001467], [100.92499999999966, -0.1750000000001446], [100.97499999999965, -0.1750000000001446], [100.97499999999965, -0.12500000000014388], [101.02499999999965, -0.12500000000014388], [101.02499999999965, -0.1750000000001446], [101.07499999999965, -0.1750000000001446], [101.07499999999965, -0.5250000000001496], [101.02499999999965, -0.5250000000001496]]], [[[114.67499999999887, 0.42499999999986393], [114.67499999999887, 0.3749999999998632], [114.72499999999887, 0.3749999999998632], [114.72499999999887, 0.3249999999998625], [114.77499999999887, 0.3249999999998625], [114.77499999999887, 0.2249999999998611], [114.82499999999887, 0.2249999999998611], [114.82499999999887, 0.17499999999986038], [114.87499999999886, 0.17499999999986038], [114.87499999999886, 0.12499999999985967], [114.92499999999886, 0.12499999999985967], [114.92499999999886, 0.07499999999985896], [114.97499999999886, 0.07499999999985896], [114.97499999999886, -0.025000000000142464], [114.92499999999886, -0.025000000000142464], [114.92499999999886, -0.07500000000014317], [114.37499999999889, -0.07500000000014317], [114.37499999999889, -0.2250000000001453], [114.42499999999889, -0.2250000000001453], [114.42499999999889, -0.3250000000001467], [114.47499999999889, -0.3250000000001467], [114.47499999999889, -0.47500000000014886], [114.42499999999889, -0.47500000000014886], [114.42499999999889, -0.5250000000001496], [114.2749999999989, -0.5250000000001496], [114.2749999999989, -0.47500000000014886], [114.2249999999989, -0.47500000000014886], [114.2249999999989, -0.42500000000014815], [114.1749999999989, -0.42500000000014815], [114.1749999999989, -0.2250000000001453], [114.1249999999989, -0.2250000000001453], [114.1249999999989, -0.1750000000001446], [114.07499999999891, -0.1750000000001446], [114.07499999999891, -0.12500000000014388], [114.02499999999891, -0.12500000000014388], [114.02499999999891, -0.07500000000014317], [113.97499999999891, -0.07500000000014317], [113.97499999999891, -0.025000000000142464], [113.92499999999892, -0.025000000000142464], [113.92499999999892, 0.2749999999998618], [113.97499999999891, 0.2749999999998618], [113.97499999999891, 0.3249999999998625], [114.02499999999891, 0.3249999999998625], [114.02499999999891, 0.3749999999998632], [114.07499999999891, 0.3749999999998632], [114.07499999999891, 0.42499999999986393], [114.1749999999989, 0.42499999999986393], [114.1749999999989, 0.47499999999986464], [114.3249999999989, 0.47499999999986464], [114.3249999999989, 0.5249999999998654], [114.42499999999889, 0.5249999999998654], [114.42499999999889, 0.47499999999986464], [114.57499999999888, 0.47499999999986464], [114.57499999999888, 0.42499999999986393], [114.67499999999887, 0.42499999999986393]]], [[[109.97499999999914, 0.8249999999998696], [109.97499999999914, 0.7249999999998682], [109.92499999999914, 0.7249999999998682], [109.92499999999914, 0.6749999999998675], [109.82499999999915, 0.6749999999998675], [109.82499999999915, 0.6249999999998668], [109.72499999999916, 0.6249999999998668], [109.72499999999916, 0.6749999999998675], [109.62499999999916, 0.6749999999998675], [109.62499999999916, 0.8749999999998703], [109.67499999999916, 0.8749999999998703], [109.67499999999916, 0.924999999999871], [109.72499999999916, 0.924999999999871], [109.72499999999916, 0.9749999999998717], [109.87499999999915, 0.9749999999998717], [109.87499999999915, 0.924999999999871], [109.92499999999914, 0.924999999999871], [109.92499999999914, 0.8249999999998696], [109.97499999999914, 0.8249999999998696]]], [[[100.52499999999968, 2.474999999999893], [100.52499999999968, 2.5249999999998938], [100.67499999999967, 2.5249999999998938], [100.67499999999967, 2.4249999999998924], [100.57499999999968, 2.4249999999998924], [100.57499999999968, 2.474999999999893], [100.52499999999968, 2.474999999999893]]], [[[107.67499999999927, 2.9749999999999], [107.67499999999927, 2.9249999999998995], [107.62499999999928, 2.9249999999998995], [107.62499999999928, 2.8749999999998987], [107.57499999999928, 2.8749999999998987], [107.57499999999928, 2.824999999999898], [107.47499999999928, 2.824999999999898], [107.47499999999928, 2.7749999999998973], [107.42499999999929, 2.7749999999998973], [107.42499999999929, 2.7249999999998966], [107.37499999999929, 2.7249999999998966], [107.37499999999929, 2.624999999999895], [107.32499999999929, 2.624999999999895], [107.32499999999929, 2.5249999999998938], [107.2749999999993, 2.5249999999998938], [107.2749999999993, 2.474999999999893], [107.0749999999993, 2.474999999999893], [107.0749999999993, 2.5249999999998938], [107.02499999999931, 2.5249999999998938], [107.02499999999931, 2.7249999999998966], [107.0749999999993, 2.7249999999998966], [107.0749999999993, 2.7749999999998973], [107.1249999999993, 2.7749999999998973], [107.1249999999993, 2.824999999999898], [107.1749999999993, 2.824999999999898], [107.1749999999993, 2.9249999999998995], [107.2249999999993, 2.9249999999998995], [107.2249999999993, 2.9749999999999], [107.2749999999993, 2.9749999999999], [107.2749999999993, 3.024999999999901], [107.37499999999929, 3.024999999999901], [107.37499999999929, 3.0749999999999016], [107.47499999999928, 3.0749999999999016], [107.47499999999928, 3.024999999999901], [107.62499999999928, 3.024999999999901], [107.62499999999928, 2.9749999999999], [107.67499999999927, 2.9749999999999]]], [[[114.3249999999989, 3.4749999999999073], [114.3249999999989, 3.524999999999908], [114.52499999999888, 3.524999999999908], [114.52499999999888, 3.4249999999999066], [114.37499999999889, 3.4249999999999066], [114.37499999999889, 3.4749999999999073], [114.3249999999989, 3.4749999999999073]]], [[[115.02499999999885, 4.024999999999915], [114.97499999999886, 4.024999999999915], [114.97499999999886, 3.9749999999999144], [114.82499999999887, 3.9749999999999144], [114.82499999999887, 4.224999999999918], [114.87499999999886, 4.224999999999918], [114.87499999999886, 4.274999999999919], [115.12499999999885, 4.274999999999919], [115.12499999999885, 4.224999999999918], [115.07499999999885, 4.224999999999918], [115.07499999999885, 4.1249999999999165], [115.02499999999885, 4.1249999999999165], [115.02499999999885, 4.024999999999915]]], [[[116.37499999999878, 4.37499999999992], [116.27499999999878, 4.37499999999992], [116.27499999999878, 4.424999999999921], [116.22499999999879, 4.424999999999921], [116.22499999999879, 4.574999999999923], [116.37499999999878, 4.574999999999923], [116.37499999999878, 4.524999999999922], [116.42499999999878, 4.524999999999922], [116.42499999999878, 4.424999999999921], [116.37499999999878, 4.424999999999921], [116.37499999999878, 4.37499999999992]]], [[[144.67499999999717, -5.225000000000216], [144.67499999999717, -5.175000000000216], [144.62499999999716, -5.175000000000216], [144.62499999999716, -5.075000000000214], [144.57499999999717, -5.075000000000214], [144.57499999999717, -5.0250000000002135], [144.5249999999972, -5.0250000000002135], [144.5249999999972, -4.975000000000213], [144.3749999999972, -4.975000000000213], [144.3749999999972, -4.925000000000212], [144.1749999999972, -4.925000000000212], [144.1749999999972, -4.975000000000213], [144.0249999999972, -4.975000000000213], [144.0249999999972, -4.925000000000212], [143.92499999999723, -4.925000000000212], [143.92499999999723, -4.825000000000211], [143.87499999999721, -4.825000000000211], [143.87499999999721, -4.77500000000021], [143.92499999999723, -4.77500000000021], [143.92499999999723, -4.725000000000209], [143.9749999999972, -4.725000000000209], [143.9749999999972, -4.6750000000002085], [144.62499999999716, -4.6750000000002085], [144.62499999999716, -4.725000000000209], [144.72499999999718, -4.725000000000209], [144.72499999999718, -5.225000000000216], [144.67499999999717, -5.225000000000216]]], [[[118.72499999999864, -4.225000000000202], [118.72499999999864, -4.325000000000204], [118.57499999999865, -4.325000000000204], [118.57499999999865, -4.225000000000202], [118.72499999999864, -4.225000000000202]]], [[[140.07499999999743, -3.725000000000195], [140.07499999999743, -3.8250000000001965], [140.12499999999744, -3.8250000000001965], [140.12499999999744, -3.875000000000197], [140.17499999999742, -3.875000000000197], [140.17499999999742, -3.925000000000198], [140.4749999999974, -3.925000000000198], [140.4749999999974, -3.9750000000001986], [140.52499999999742, -3.9750000000001986], [140.52499999999742, -4.0750000000002], [140.4249999999974, -4.0750000000002], [140.4249999999974, -4.125000000000201], [140.32499999999743, -4.125000000000201], [140.32499999999743, -4.0750000000002], [140.2249999999974, -4.0750000000002], [140.2249999999974, -4.025000000000199], [140.17499999999742, -4.025000000000199], [140.17499999999742, -3.9750000000001986], [140.12499999999744, -3.9750000000001986], [140.12499999999744, -3.925000000000198], [139.92499999999745, -3.925000000000198], [139.92499999999745, -3.875000000000197], [139.72499999999746, -3.875000000000197], [139.72499999999746, -3.8250000000001965], [139.62499999999744, -3.8250000000001965], [139.62499999999744, -3.6750000000001943], [139.72499999999746, -3.6750000000001943], [139.72499999999746, -3.6250000000001936], [139.92499999999745, -3.6250000000001936], [139.92499999999745, -3.6750000000001943], [140.02499999999742, -3.6750000000001943], [140.02499999999742, -3.725000000000195], [140.07499999999743, -3.725000000000195]]], [[[138.8749999999975, -2.7750000000001815], [138.8749999999975, -2.725000000000181], [139.17499999999748, -2.725000000000181], [139.17499999999748, -2.7750000000001815], [139.22499999999746, -2.7750000000001815], [139.22499999999746, -2.9250000000001837], [139.27499999999748, -2.9250000000001837], [139.27499999999748, -3.025000000000185], [139.3249999999975, -3.025000000000185], [139.3249999999975, -3.075000000000186], [139.37499999999747, -3.075000000000186], [139.37499999999747, -3.1250000000001865], [139.42499999999745, -3.1250000000001865], [139.42499999999745, -3.1750000000001872], [139.47499999999746, -3.1750000000001872], [139.47499999999746, -3.425000000000191], [139.42499999999745, -3.425000000000191], [139.42499999999745, -3.4750000000001915], [139.22499999999746, -3.4750000000001915], [139.22499999999746, -3.425000000000191], [139.17499999999748, -3.425000000000191], [139.17499999999748, -3.3250000000001894], [139.1249999999975, -3.3250000000001894], [139.1249999999975, -3.1750000000001872], [139.0749999999975, -3.1750000000001872], [139.0749999999975, -3.1250000000001865], [139.02499999999748, -3.1250000000001865], [139.02499999999748, -3.075000000000186], [138.9249999999975, -3.075000000000186], [138.9249999999975, -3.025000000000185], [138.32499999999754, -3.025000000000185], [138.32499999999754, -2.9750000000001844], [138.27499999999753, -2.9750000000001844], [138.27499999999753, -2.9250000000001837], [138.17499999999754, -2.9250000000001837], [138.17499999999754, -2.875000000000183], [138.12499999999756, -2.875000000000183], [138.12499999999756, -2.8250000000001823], [138.07499999999754, -2.8250000000001823], [138.07499999999754, -2.7750000000001815], [138.12499999999756, -2.7750000000001815], [138.12499999999756, -2.725000000000181], [138.17499999999754, -2.725000000000181], [138.17499999999754, -2.67500000000018], [138.57499999999752, -2.67500000000018], [138.57499999999752, -2.725000000000181], [138.72499999999752, -2.725000000000181], [138.72499999999752, -2.7750000000001815], [138.8749999999975, -2.7750000000001815]]], [[[136.07499999999766, -3.025000000000185], [136.07499999999766, -3.075000000000186], [135.92499999999768, -3.075000000000186], [135.92499999999768, -3.025000000000185], [135.87499999999767, -3.025000000000185], [135.87499999999767, -2.875000000000183], [135.92499999999768, -2.875000000000183], [135.92499999999768, -2.8250000000001823], [136.17499999999765, -2.8250000000001823], [136.17499999999765, -2.9750000000001844], [136.12499999999767, -2.9750000000001844], [136.12499999999767, -3.025000000000185], [136.07499999999766, -3.025000000000185]]], [[[133.9249999999978, -2.1250000000001723], [133.9249999999978, -2.2250000000001737], [133.97499999999778, -2.2250000000001737], [133.97499999999778, -2.2750000000001744], [134.02499999999776, -2.2750000000001744], [134.02499999999776, -2.4750000000001773], [133.97499999999778, -2.4750000000001773], [133.97499999999778, -2.525000000000178], [133.9249999999978, -2.525000000000178], [133.9249999999978, -2.5750000000001787], [133.82499999999777, -2.5750000000001787], [133.82499999999777, -2.525000000000178], [133.7749999999978, -2.525000000000178], [133.7749999999978, -2.4750000000001773], [133.7249999999978, -2.4750000000001773], [133.7249999999978, -2.325000000000175], [133.6749999999978, -2.325000000000175], [133.6749999999978, -2.2750000000001744], [133.5749999999978, -2.2750000000001744], [133.5749999999978, -2.2250000000001737], [133.3749999999978, -2.2250000000001737], [133.3749999999978, -2.175000000000173], [133.27499999999782, -2.175000000000173], [133.27499999999782, -2.0750000000001716], [133.32499999999783, -2.0750000000001716], [133.32499999999783, -2.025000000000171], [133.4249999999978, -2.025000000000171], [133.4249999999978, -1.9750000000001702], [133.5749999999978, -1.9750000000001702], [133.5749999999978, -1.9250000000001695], [133.82499999999777, -1.9250000000001695], [133.82499999999777, -1.9750000000001702], [133.87499999999778, -1.9750000000001702], [133.87499999999778, -2.1250000000001723], [133.9249999999978, -2.1250000000001723]]], [[[132.82499999999783, -2.0750000000001716], [132.82499999999783, -2.1250000000001723], [132.87499999999784, -2.1250000000001723], [132.87499999999784, -2.175000000000173], [132.92499999999785, -2.175000000000173], [132.92499999999785, -2.2250000000001737], [132.87499999999784, -2.2250000000001737], [132.87499999999784, -2.2750000000001744], [132.82499999999783, -2.2750000000001744], [132.82499999999783, -2.325000000000175], [132.72499999999786, -2.325000000000175], [132.72499999999786, -2.2250000000001737], [132.67499999999785, -2.2250000000001737], [132.67499999999785, -2.1250000000001723], [132.57499999999786, -2.1250000000001723], [132.57499999999786, -1.9750000000001702], [132.62499999999784, -1.9750000000001702], [132.62499999999784, -2.025000000000171], [132.77499999999785, -2.025000000000171], [132.77499999999785, -2.0750000000001716], [132.82499999999783, -2.0750000000001716]]], [[[139.3249999999975, -1.9750000000001702], [139.3249999999975, -2.025000000000171], [139.37499999999747, -2.025000000000171], [139.37499999999747, -2.0750000000001716], [139.42499999999745, -2.0750000000001716], [139.42499999999745, -2.1250000000001723], [139.47499999999746, -2.1250000000001723], [139.47499999999746, -2.2750000000001744], [139.42499999999745, -2.2750000000001744], [139.42499999999745, -2.325000000000175], [139.22499999999746, -2.325000000000175], [139.22499999999746, -2.2750000000001744], [139.0749999999975, -2.2750000000001744], [139.0749999999975, -2.2250000000001737], [138.9749999999975, -2.2250000000001737], [138.9749999999975, -2.175000000000173], [138.8749999999975, -2.175000000000173], [138.8749999999975, -2.1250000000001723], [138.6249999999975, -2.1250000000001723], [138.6249999999975, -2.025000000000171], [138.6749999999975, -2.025000000000171], [138.6749999999975, -1.9750000000001702], [138.72499999999752, -1.9750000000001702], [138.72499999999752, -1.9250000000001695], [138.8749999999975, -1.9250000000001695], [138.8749999999975, -1.8750000000001688], [139.0749999999975, -1.8750000000001688], [139.0749999999975, -1.9250000000001695], [139.17499999999748, -1.9250000000001695], [139.17499999999748, -1.9750000000001702], [139.3249999999975, -1.9750000000001702]]], [[[116.72499999999876, -1.9250000000001695], [116.72499999999876, -2.025000000000171], [116.67499999999876, -2.025000000000171], [116.67499999999876, -2.1250000000001723], [116.62499999999876, -2.1250000000001723], [116.62499999999876, -2.175000000000173], [116.52499999999877, -2.175000000000173], [116.52499999999877, -2.2250000000001737], [116.37499999999878, -2.2250000000001737], [116.37499999999878, -2.175000000000173], [116.32499999999878, -2.175000000000173], [116.32499999999878, -1.9750000000001702], [116.37499999999878, -1.9750000000001702], [116.37499999999878, -1.9250000000001695], [116.42499999999878, -1.9250000000001695], [116.42499999999878, -1.8750000000001688], [116.47499999999877, -1.8750000000001688], [116.47499999999877, -1.825000000000168], [116.62499999999876, -1.825000000000168], [116.62499999999876, -1.8750000000001688], [116.67499999999876, -1.8750000000001688], [116.67499999999876, -1.9250000000001695], [116.72499999999876, -1.9250000000001695]]], [[[118.22499999999867, -1.675000000000166], [118.22499999999867, -2.0750000000001716], [118.17499999999868, -2.0750000000001716], [118.17499999999868, -2.175000000000173], [117.97499999999869, -2.175000000000173], [117.97499999999869, -2.1250000000001723], [117.87499999999869, -2.1250000000001723], [117.87499999999869, -2.0750000000001716], [117.7749999999987, -2.0750000000001716], [117.7749999999987, -1.9750000000001702], [117.7249999999987, -1.9750000000001702], [117.7249999999987, -1.8750000000001688], [117.6749999999987, -1.8750000000001688], [117.6749999999987, -1.675000000000166], [117.7249999999987, -1.675000000000166], [117.7249999999987, -1.6250000000001652], [117.7749999999987, -1.6250000000001652], [117.7749999999987, -1.5750000000001645], [117.87499999999869, -1.5750000000001645], [117.87499999999869, -1.6250000000001652], [118.12499999999868, -1.6250000000001652], [118.12499999999868, -1.675000000000166], [118.22499999999867, -1.675000000000166]]], [[[116.82499999999875, -0.975000000000156], [116.82499999999875, -1.0250000000001567], [116.87499999999875, -1.0250000000001567], [116.87499999999875, -1.0750000000001574], [116.92499999999875, -1.0750000000001574], [116.92499999999875, -1.4250000000001624], [116.87499999999875, -1.4250000000001624], [116.87499999999875, -1.5750000000001645], [116.82499999999875, -1.5750000000001645], [116.82499999999875, -1.6250000000001652], [116.77499999999876, -1.6250000000001652], [116.77499999999876, -1.675000000000166], [116.62499999999876, -1.675000000000166], [116.62499999999876, -1.6250000000001652], [116.57499999999877, -1.6250000000001652], [116.57499999999877, -1.475000000000163], [116.52499999999877, -1.475000000000163], [116.52499999999877, -1.3750000000001616], [116.57499999999877, -1.3750000000001616], [116.57499999999877, -1.2750000000001602], [116.52499999999877, -1.2750000000001602], [116.52499999999877, -1.1750000000001588], [116.47499999999877, -1.1750000000001588], [116.47499999999877, -1.125000000000158], [116.32499999999878, -1.125000000000158], [116.32499999999878, -1.0750000000001574], [116.27499999999878, -1.0750000000001574], [116.27499999999878, -1.0250000000001567], [116.32499999999878, -1.0250000000001567], [116.32499999999878, -0.975000000000156], [116.37499999999878, -0.975000000000156], [116.37499999999878, -0.9250000000001553], [116.42499999999878, -0.9250000000001553], [116.42499999999878, -0.8750000000001545], [116.72499999999876, -0.8750000000001545], [116.72499999999876, -0.9250000000001553], [116.77499999999876, -0.9250000000001553], [116.77499999999876, -0.975000000000156], [116.82499999999875, -0.975000000000156]]], [[[120.57499999999854, -0.42500000000014815], [120.57499999999854, -0.5250000000001496], [120.62499999999854, -0.5250000000001496], [120.62499999999854, -0.625000000000151], [120.67499999999853, -0.625000000000151], [120.67499999999853, -0.9250000000001553], [120.62499999999854, -0.9250000000001553], [120.62499999999854, -0.975000000000156], [119.97499999999857, -0.975000000000156], [119.97499999999857, -1.0250000000001567], [119.87499999999858, -1.0250000000001567], [119.87499999999858, -1.0750000000001574], [119.82499999999858, -1.0750000000001574], [119.82499999999858, -1.1750000000001588], [119.77499999999858, -1.1750000000001588], [119.77499999999858, -1.2250000000001595], [119.72499999999859, -1.2250000000001595], [119.72499999999859, -1.2750000000001602], [119.67499999999859, -1.2750000000001602], [119.67499999999859, -1.325000000000161], [119.5749999999986, -1.325000000000161], [119.5749999999986, -1.2250000000001595], [119.5249999999986, -1.2250000000001595], [119.5249999999986, -0.7750000000001531], [119.5749999999986, -0.7750000000001531], [119.5749999999986, -0.7250000000001524], [119.6249999999986, -0.7250000000001524], [119.6249999999986, -0.6750000000001517], [119.77499999999858, -0.6750000000001517], [119.77499999999858, -0.625000000000151], [119.82499999999858, -0.625000000000151], [119.82499999999858, -0.5750000000001503], [119.87499999999858, -0.5750000000001503], [119.87499999999858, -0.5250000000001496], [119.92499999999858, -0.5250000000001496], [119.92499999999858, -0.47500000000014886], [119.97499999999857, -0.47500000000014886], [119.97499999999857, -0.42500000000014815], [120.02499999999857, -0.42500000000014815], [120.02499999999857, -0.37500000000014744], [120.12499999999856, -0.37500000000014744], [120.12499999999856, -0.3250000000001467], [120.47499999999854, -0.3250000000001467], [120.47499999999854, -0.37500000000014744], [120.52499999999854, -0.37500000000014744], [120.52499999999854, -0.42500000000014815], [120.57499999999854, -0.42500000000014815]]], [[[121.67499999999848, 0.47499999999986464], [121.67499999999848, 0.42499999999986393], [121.62499999999848, 0.42499999999986393], [121.62499999999848, 0.3749999999998632], [121.57499999999848, 0.3749999999998632], [121.57499999999848, 0.3249999999998625], [121.42499999999849, 0.3249999999998625], [121.42499999999849, 0.2749999999998618], [121.2749999999985, 0.2749999999998618], [121.2749999999985, 0.3249999999998625], [121.1749999999985, 0.3249999999998625], [121.1749999999985, 0.5249999999998654], [121.2749999999985, 0.5249999999998654], [121.2749999999985, 0.5749999999998661], [121.42499999999849, 0.5749999999998661], [121.42499999999849, 0.6249999999998668], [121.57499999999848, 0.6249999999998668], [121.57499999999848, 0.5749999999998661], [121.62499999999848, 0.5749999999998661], [121.62499999999848, 0.47499999999986464], [121.67499999999848, 0.47499999999986464]]], [[[121.12499999999851, 1.1249999999998739], [121.12499999999851, 1.0749999999998732], [121.07499999999851, 1.0749999999998732], [121.07499999999851, 1.0249999999998725], [121.02499999999851, 1.0249999999998725], [121.02499999999851, 0.9749999999998717], [120.97499999999852, 0.9749999999998717], [120.97499999999852, 0.924999999999871], [120.92499999999852, 0.924999999999871], [120.92499999999852, 0.8249999999998696], [120.87499999999852, 0.8249999999998696], [120.87499999999852, 0.7249999999998682], [120.82499999999852, 0.7249999999998682], [120.82499999999852, 0.42499999999986393], [120.77499999999853, 0.42499999999986393], [120.77499999999853, 0.3749999999998632], [120.72499999999853, 0.3749999999998632], [120.72499999999853, 0.42499999999986393], [120.67499999999853, 0.42499999999986393], [120.67499999999853, 0.47499999999986464], [120.57499999999854, 0.47499999999986464], [120.57499999999854, 0.5249999999998654], [120.42499999999855, 0.5249999999998654], [120.42499999999855, 0.47499999999986464], [120.22499999999856, 0.47499999999986464], [120.22499999999856, 0.8249999999998696], [120.27499999999856, 0.8249999999998696], [120.27499999999856, 0.8749999999998703], [120.32499999999855, 0.8749999999998703], [120.32499999999855, 0.924999999999871], [120.42499999999855, 0.924999999999871], [120.42499999999855, 0.9749999999998717], [120.57499999999854, 0.9749999999998717], [120.57499999999854, 1.0249999999998725], [120.62499999999854, 1.0249999999998725], [120.62499999999854, 1.0749999999998732], [120.67499999999853, 1.0749999999998732], [120.67499999999853, 1.1749999999998746], [120.72499999999853, 1.1749999999998746], [120.72499999999853, 1.2249999999998753], [120.77499999999853, 1.2249999999998753], [120.77499999999853, 1.274999999999876], [120.92499999999852, 1.274999999999876], [120.92499999999852, 1.2249999999998753], [121.1749999999985, 1.2249999999998753], [121.1749999999985, 1.1249999999998739], [121.12499999999851, 1.1249999999998739]]], [[[116.37499999999878, 1.0749999999998732], [116.37499999999878, 1.1249999999998739], [116.42499999999878, 1.1249999999998739], [116.42499999999878, 1.0249999999998725], [116.32499999999878, 1.0249999999998725], [116.32499999999878, 1.0749999999998732], [116.37499999999878, 1.0749999999998732]]], [[[117.07499999999874, 4.424999999999921], [116.87499999999875, 4.424999999999921], [116.87499999999875, 4.524999999999922], [117.07499999999874, 4.524999999999922], [117.07499999999874, 4.424999999999921]]], [[[116.52499999999877, 5.474999999999936], [116.47499999999877, 5.474999999999936], [116.47499999999877, 5.524999999999936], [116.37499999999878, 5.524999999999936], [116.37499999999878, 5.724999999999939], [116.42499999999878, 5.724999999999939], [116.42499999999878, 5.77499999999994], [116.52499999999877, 5.77499999999994], [116.52499999999877, 5.824999999999941], [116.57499999999877, 5.824999999999941], [116.57499999999877, 5.77499999999994], [116.62499999999876, 5.77499999999994], [116.62499999999876, 5.524999999999936], [116.52499999999877, 5.524999999999936], [116.52499999999877, 5.474999999999936]]]]}}]}