{"type": "FeatureCollection", "features": [{"type": "Feature", "properties": {"date": "2026-10-01", "code": 1, "level": "waspada_tornado", "kategori": "Waspada Potensi Peluang Kecil", "color": "#FFFF00"}, "geometry": {"type": "MultiPolygon", "coordinates": [[[[135.5749999999977, -3.525000000000192], [135.5249999999977, -3.525000000000192], [135.5249999999977, -3.575000000000193], [135.42499999999768, -3.575000000000193], [135.42499999999768, -3.6250000000001936], [135.32499999999771, -3.6250000000001936], [135.32499999999771, -3.575000000000193], [135.2249999999977, -3.575000000000193], [135.2249999999977, -3.4750000000001915], [135.2749999999977, -3.4750000000001915], [135.2749999999977, -3.425000000000191], [135.3749999999977, -3.425000000000191], [135.3749999999977, -3.37500000000019], [135.4749999999977, -3.37500000000019], [135.4749999999977, -3.3250000000001894], [135.62499999999767, -3.3250000000001894], [135.62499999999767, -3.4750000000001915], [135.5749999999977, -3.4750000000001915], [135.5749999999977, -3.525000000000192]]], [[[114.97499999999886, -3.1750000000001872], [114.97499999999886, -3.225000000000188], [115.02499999999885, -3.225000000000188], [115.02499999999885, -3.4750000000001915], [114.92499999999886, -3.4750000000001915], [114.92499999999886, -3.525000000000192], [114.72499999999887, -3.525000000000192], [114.72499999999887, -3.425000000000191], [114.67499999999887, -3.425000000000191], [114.67499999999887, -3.1750000000001872], [114.72499999999887, -3.1750000000001872], [114.72499999999887, -3.1250000000001865], [114.77499999999887, -3.1250000000001865], [114.77499999999887, -3.075000000000186], [114.87499999999886, -3.075000000000186], [114.87499999999886, -3.1250000000001865], [114.92499999999886, -3.1250000000001865], [114.92499999999886, -3.1750000000001872], [114.97499999999886, -3.1750000000001872]]], [[[115.67499999999882, -3.37500000000019], [115.67499999999882, -3.3250000000001894], [115.62499999999882, -3.3250000000001894], [115.62499999999882, -3.2750000000001886], [115.67499999999882, -3.2750000000001886], [115.67499999999882, -3.225000000000188], [115.72499999999881, -3.225000000000188], [115.72499999999881, -3.1750000000001872], [115.77499999999881, -3.1750000000001872], [115.77499999999881, -3.225000000000188], [115.82499999999881, -3.225000000000188], [115.82499999999881, -3.37500000000019], [115.67499999999882, -3.37500000000019]]], [[[135.92499999999768, -3.1750000000001872], [135.87499999999767, -3.1750000000001872], [135.87499999999767, -3.225000000000188], [135.7249999999977, -3.225000000000188], [135.7249999999977, -3.1250000000001865], [135.77499999999768, -3.1250000000001865], [135.77499999999768, -3.025000000000185], [135.97499999999766, -3.025000000000185], [135.97499999999766, -3.1250000000001865], [135.92499999999768, -3.1250000000001865], [135.92499999999768, -3.1750000000001872]]], [[[136.17499999999765, -1.4250000000001624], [136.17499999999765, -1.5750000000001645], [136.02499999999765, -1.5750000000001645], [136.02499999999765, -1.4250000000001624], [136.17499999999765, -1.4250000000001624]]], [[[119.92499999999858, -0.7250000000001524], [119.92499999999858, -0.9250000000001553], [119.87499999999858, -0.9250000000001553], [119.87499999999858, -0.975000000000156], [119.82499999999858, -0.975000000000156], [119.82499999999858, -1.0250000000001567], [119.77499999999858, -1.0250000000001567], [119.77499999999858, -0.975000000000156], [119.67499999999859, -0.975000000000156], [119.67499999999859, -0.6750000000001517], [119.72499999999859, -0.6750000000001517], [119.72499999999859, -0.625000000000151], [119.77499999999858, -0.625000000000151], [119.77499999999858, -0.5750000000001503], [119.82499999999858, -0.5750000000001503], [119.82499999999858, -0.625000000000151], [119.87499999999858, -0.625000000000151], [119.87499999999858, -0.7250000000001524], [119.92499999999858, -0.7250000000001524]]], [[[115.47499999999883, 0.924999999999871], [115.22499999999884, 0.924999999999871], [115.22499999999884, 1.0249999999998725], [115.52499999999883, 1.0249999999998725], [115.52499999999883, 0.9749999999998717], [115.47499999999883, 0.9749999999998717], [115.47499999999883, 0.924999999999871]]], [[[117.02499999999874, 2.174999999999889], [117.02499999999874, 2.124999999999888], [117.07499999999874, 2.124999999999888], [117.07499999999874, 2.0749999999998874], [117.12499999999874, 2.0749999999998874], [117.12499999999874, 1.9249999999998852], [117.07499999999874, 1.9249999999998852], [117.07499999999874, 1.624999999999881], [117.12499999999874, 1.624999999999881], [117.12499999999874, 1.5749999999998803], [117.17499999999873, 1.5749999999998803], [117.17499999999873, 1.5249999999998796], [117.27499999999873, 1.5249999999998796], [117.27499999999873, 1.5749999999998803], [117.32499999999872, 1.5749999999998803], [117.32499999999872, 1.624999999999881], [117.37499999999872, 1.624999999999881], [117.37499999999872, 2.0249999999998867], [117.42499999999872, 2.0249999999998867], [117.42499999999872, 2.0749999999998874], [117.52499999999871, 2.0749999999998874], [117.52499999999871, 2.0249999999998867], [117.6249999999987, 2.0249999999998867], [117.6249999999987, 1.974999999999886], [117.6749999999987, 1.974999999999886], [117.6749999999987, 1.5249999999998796], [117.6249999999987, 1.5249999999998796], [117.6249999999987, 1.4749999999998789], [117.57499999999871, 1.4749999999998789], [117.57499999999871, 1.4249999999998781], [117.52499999999871, 1.4249999999998781], [117.52499999999871, 1.3749999999998774], [117.47499999999872, 1.3749999999998774], [117.47499999999872, 1.3249999999998767], [117.42499999999872, 1.3249999999998767], [117.42499999999872, 1.0749999999998732], [116.72499999999876, 1.0749999999998732], [116.72499999999876, 1.1249999999998739], [116.47499999999877, 1.1249999999998739], [116.47499999999877, 1.0749999999998732], [116.37499999999878, 1.0749999999998732], [116.37499999999878, 1.0249999999998725], [116.32499999999878, 1.0249999999998725], [116.32499999999878, 0.9749999999998717], [116.17499999999879, 0.9749999999998717], [116.17499999999879, 0.924999999999871], [116.0249999999988, 0.924999999999871], [116.0249999999988, 1.0749999999998732], [116.0749999999988, 1.0749999999998732], [116.0749999999988, 1.2249999999998753], [116.12499999999879, 1.2249999999998753], [116.12499999999879, 1.3249999999998767], [116.17499999999879, 1.3249999999998767], [116.17499999999879, 1.3749999999998774], [116.22499999999879, 1.3749999999998774], [116.22499999999879, 1.4749999999998789], [116.27499999999878, 1.4749999999998789], [116.27499999999878, 1.624999999999881], [116.32499999999878, 1.624999999999881], [116.32499999999878, 1.8249999999998838], [116.27499999999878, 1.8249999999998838], [116.27499999999878, 2.124999999999888], [116.32499999999878, 2.124999999999888], [116.32499999999878, 2.174999999999889], [116.37499999999878, 2.174999999999889], [116.37499999999878, 2.2249999999998895], [116.57499999999877, 2.2249999999998895], [116.57499999999877, 2.27499999999989], [116.82499999999875, 2.27499999999989], [116.82499999999875, 2.2249999999998895], [116.97499999999874, 2.2249999999998895], [116.97499999999874, 2.174999999999889], [117.02499999999874, 2.174999999999889]], [[116.87499999999875, 1.7249999999998824], [116.82499999999875, 1.7249999999998824], [116.82499999999875, 1.7749999999998831], [116.67499999999876, 1.7749999999998831], [116.67499999999876, 1.624999999999881], [116.82499999999875, 1.624999999999881], [116.82499999999875, 1.6749999999998817], [116.87499999999875, 1.6749999999998817], [116.87499999999875, 1.7249999999998824]]], [[[102.42499999999957, 3.2749999999999044], [102.42499999999957, 3.174999999999903], [102.27499999999958, 3.174999999999903], [102.27499999999958, 3.2249999999999037], [102.22499999999958, 3.2249999999999037], [102.22499999999958, 3.5749999999999087], [102.27499999999958, 3.5749999999999087], [102.27499999999958, 3.67499999999991], [102.32499999999958, 3.67499999999991], [102.32499999999958, 3.724999999999911], [102.52499999999957, 3.724999999999911], [102.52499999999957, 3.4749999999999073], [102.47499999999957, 3.4749999999999073], [102.47499999999957, 3.2749999999999044], [102.42499999999957, 3.2749999999999044]]], [[[117.37499999999872, 3.874999999999913], [117.32499999999872, 3.874999999999913], [117.32499999999872, 3.8249999999999122], [117.27499999999873, 3.8249999999999122], [117.27499999999873, 3.7749999999999115], [117.22499999999873, 3.7749999999999115], [117.22499999999873, 3.724999999999911], [117.07499999999874, 3.724999999999911], [117.07499999999874, 3.67499999999991], [116.97499999999874, 3.67499999999991], [116.97499999999874, 3.7749999999999115], [116.92499999999875, 3.7749999999999115], [116.92499999999875, 3.8249999999999122], [116.87499999999875, 3.8249999999999122], [116.87499999999875, 3.9249999999999137], [116.82499999999875, 3.9249999999999137], [116.82499999999875, 4.1249999999999165], [116.87499999999875, 4.1249999999999165], [116.87499999999875, 4.174999999999917], [116.92499999999875, 4.174999999999917], [116.92499999999875, 4.224999999999918], [116.97499999999874, 4.224999999999918], [116.97499999999874, 4.274999999999919], [117.07499999999874, 4.274999999999919], [117.07499999999874, 4.324999999999919], [117.32499999999872, 4.324999999999919], [117.32499999999872, 4.224999999999918], [117.37499999999872, 4.224999999999918], [117.37499999999872, 3.874999999999913]]], [[[103.27499999999952, 5.324999999999934], [103.27499999999952, 5.07499999999993], [103.17499999999953, 5.07499999999993], [103.17499999999953, 5.124999999999931], [103.12499999999953, 5.124999999999931], [103.12499999999953, 5.174999999999931], [103.07499999999953, 5.174999999999931], [103.07499999999953, 5.374999999999934], [103.12499999999953, 5.374999999999934], [103.12499999999953, 5.424999999999935], [103.17499999999953, 5.424999999999935], [103.17499999999953, 5.374999999999934], [103.22499999999953, 5.374999999999934], [103.22499999999953, 5.324999999999934], [103.27499999999952, 5.324999999999934]]], [[[117.57499999999871, 5.724999999999939], [117.57499999999871, 5.6749999999999385], [117.47499999999872, 5.6749999999999385], [117.47499999999872, 5.724999999999939], [117.42499999999872, 5.724999999999939], [117.42499999999872, 6.074999999999944], [117.57499999999871, 6.074999999999944], [117.57499999999871, 5.924999999999942], [117.6249999999987, 5.924999999999942], [117.6249999999987, 5.724999999999939], [117.57499999999871, 5.724999999999939]]], [[[123.27499999999839, 8.324999999999976], [123.32499999999838, 8.324999999999976], [123.32499999999838, 8.224999999999975], [123.27499999999839, 8.224999999999975], [123.27499999999839, 8.324999999999976]]], [[[144.3749999999972, -4.325000000000204], [144.3749999999972, -4.425000000000205], [144.42499999999717, -4.425000000000205], [144.42499999999717, -4.475000000000206], [144.3749999999972, -4.475000000000206], [144.3749999999972, -4.525000000000206], [144.2749999999972, -4.525000000000206], [144.2749999999972, -4.425000000000205], [144.22499999999718, -4.425000000000205], [144.22499999999718, -4.375000000000204], [144.1749999999972, -4.375000000000204], [144.1749999999972, -4.325000000000204], [144.12499999999721, -4.325000000000204], [144.12499999999721, -4.275000000000203], [144.0249999999972, -4.275000000000203], [144.0249999999972, -4.225000000000202], [144.1749999999972, -4.225000000000202], [144.1749999999972, -4.275000000000203], [144.2749999999972, -4.275000000000203], [144.2749999999972, -4.325000000000204], [144.3749999999972, -4.325000000000204]]], [[[141.82499999999732, -3.875000000000197], [141.82499999999732, -3.925000000000198], [141.57499999999735, -3.925000000000198], [141.57499999999735, -3.8250000000001965], [141.62499999999733, -3.8250000000001965], [141.62499999999733, -3.7750000000001958], [141.82499999999732, -3.7750000000001958], [141.82499999999732, -3.8250000000001965], [141.87499999999733, -3.8250000000001965], [141.87499999999733, -3.875000000000197], [141.82499999999732, -3.875000000000197]]], [[[143.32499999999726, -3.7750000000001958], [143.22499999999724, -3.7750000000001958], [143.22499999999724, -3.725000000000195], [143.17499999999725, -3.725000000000195], [143.17499999999725, -3.6250000000001936], [143.27499999999725, -3.6250000000001936], [143.27499999999725, -3.6750000000001943], [143.32499999999726, -3.6750000000001943], [143.32499999999726, -3.7750000000001958]]], [[[141.07499999999737, -2.8250000000001823], [141.07499999999737, -2.875000000000183], [141.17499999999737, -2.875000000000183], [141.17499999999737, -2.9250000000001837], [141.32499999999737, -2.9250000000001837], [141.32499999999737, -2.875000000000183], [141.42499999999734, -2.875000000000183], [141.42499999999734, -2.8250000000001823], [141.72499999999735, -2.8250000000001823], [141.72499999999735, -2.875000000000183], [141.77499999999733, -2.875000000000183], [141.77499999999733, -2.9250000000001837], [141.87499999999733, -2.9250000000001837], [141.87499999999733, -2.9750000000001844], [142.5249999999973, -2.9750000000001844], [142.5249999999973, -2.9250000000001837], [142.5749999999973, -2.9250000000001837], [142.5749999999973, -2.875000000000183], [142.67499999999728, -2.875000000000183], [142.67499999999728, -2.9750000000001844], [142.62499999999727, -2.9750000000001844], [142.62499999999727, -3.025000000000185], [142.5749999999973, -3.025000000000185], [142.5749999999973, -3.225000000000188], [142.5249999999973, -3.225000000000188], [142.5249999999973, -3.3250000000001894], [142.4749999999973, -3.3250000000001894], [142.4749999999973, -3.37500000000019], [142.07499999999732, -3.37500000000019], [142.07499999999732, -3.3250000000001894], [141.87499999999733, -3.3250000000001894], [141.87499999999733, -3.2750000000001886], [141.72499999999735, -3.2750000000001886], [141.72499999999735, -3.225000000000188], [141.67499999999734, -3.225000000000188], [141.67499999999734, -3.1750000000001872], [141.52499999999736, -3.1750000000001872], [141.52499999999736, -3.1250000000001865], [141.37499999999736, -3.1250000000001865], [141.37499999999736, -3.075000000000186], [141.22499999999735, -3.075000000000186], [141.22499999999735, -3.1250000000001865], [141.17499999999737, -3.1250000000001865], [141.17499999999737, -3.225000000000188], [141.12499999999739, -3.225000000000188], [141.12499999999739, -3.525000000000192], [141.17499999999737, -3.525000000000192], [141.17499999999737, -3.6750000000001943], [141.22499999999735, -3.6750000000001943], [141.22499999999735, -3.725000000000195], [141.27499999999736, -3.725000000000195], [141.27499999999736, -3.7750000000001958], [141.32499999999737, -3.7750000000001958], [141.32499999999737, -3.9750000000001986], [141.27499999999736, -3.9750000000001986], [141.27499999999736, -4.025000000000199], [141.17499999999737, -4.025000000000199], [141.17499999999737, -4.0750000000002], [141.02499999999736, -4.0750000000002], [141.02499999999736, -4.025000000000199], [140.97499999999738, -4.025000000000199], [140.97499999999738, -3.925000000000198], [140.9249999999974, -3.925000000000198], [140.9249999999974, -3.875000000000197], [140.87499999999739, -3.875000000000197], [140.87499999999739, -3.8250000000001965], [140.7749999999974, -3.8250000000001965], [140.7749999999974, -3.7750000000001958], [140.6749999999974, -3.7750000000001958], [140.6749999999974, -3.6750000000001943], [140.62499999999739, -3.6750000000001943], [140.62499999999739, -3.575000000000193], [140.5749999999974, -3.575000000000193], [140.5749999999974, -3.37500000000019], [140.52499999999742, -3.37500000000019], [140.52499999999742, -3.3250000000001894], [140.4749999999974, -3.3250000000001894], [140.4749999999974, -3.2750000000001886], [140.4249999999974, -3.2750000000001886], [140.4249999999974, -3.225000000000188], [140.3749999999974, -3.225000000000188], [140.3749999999974, -3.075000000000186], [140.32499999999743, -3.075000000000186], [140.32499999999743, -2.8250000000001823], [140.3749999999974, -2.8250000000001823], [140.3749999999974, -2.7750000000001815], [140.4249999999974, -2.7750000000001815], [140.4249999999974, -2.725000000000181], [140.62499999999739, -2.725000000000181], [140.62499999999739, -2.7750000000001815], [140.82499999999737, -2.7750000000001815], [140.82499999999737, -2.8250000000001823], [141.07499999999737, -2.8250000000001823]]], [[[139.22499999999746, -3.3250000000001894], [139.22499999999746, -3.37500000000019], [139.17499999999748, -3.37500000000019], [139.17499999999748, -3.3250000000001894], [139.0749999999975, -3.3250000000001894], [139.0749999999975, -3.1750000000001872], [139.1249999999975, -3.1750000000001872], [139.1249999999975, -3.1250000000001865], [139.22499999999746, -3.1250000000001865], [139.22499999999746, -3.1750000000001872], [139.27499999999748, -3.1750000000001872], [139.27499999999748, -3.3250000000001894], [139.22499999999746, -3.3250000000001894]]], [[[137.1249999999976, -3.1750000000001872], [137.3249999999976, -3.1750000000001872], [137.3249999999976, -3.2750000000001886], [137.1249999999976, -3.2750000000001886], [137.1249999999976, -3.1750000000001872]]], [[[136.17499999999765, -3.1250000000001865], [136.17499999999765, -3.075000000000186], [136.02499999999765, -3.075000000000186], [136.02499999999765, -3.025000000000185], [136.07499999999766, -3.025000000000185], [136.07499999999766, -2.9750000000001844], [136.12499999999767, -2.9750000000001844], [136.12499999999767, -2.9250000000001837], [136.22499999999764, -2.9250000000001837], [136.22499999999764, -2.875000000000183], [136.47499999999764, -2.875000000000183], [136.47499999999764, -2.8250000000001823], [136.8249999999976, -2.8250000000001823], [136.8249999999976, -3.075000000000186], [136.72499999999764, -3.075000000000186], [136.72499999999764, -3.1250000000001865], [136.17499999999765, -3.1250000000001865]]], [[[138.6249999999975, -2.5750000000001787], [138.6249999999975, -2.6250000000001794], [138.6749999999975, -2.6250000000001794], [138.6749999999975, -2.67500000000018], [138.72499999999752, -2.67500000000018], [138.72499999999752, -2.7750000000001815], [138.6249999999975, -2.7750000000001815], [138.6249999999975, -2.8250000000001823], [138.27499999999753, -2.8250000000001823], [138.27499999999753, -2.7750000000001815], [138.22499999999752, -2.7750000000001815], [138.22499999999752, -2.67500000000018], [138.27499999999753, -2.67500000000018], [138.27499999999753, -2.6250000000001794], [138.32499999999754, -2.6250000000001794], [138.32499999999754, -2.5750000000001787], [138.37499999999753, -2.5750000000001787], [138.37499999999753, -2.525000000000178], [138.4249999999975, -2.525000000000178], [138.4249999999975, -2.4750000000001773], [138.52499999999753, -2.4750000000001773], [138.52499999999753, -2.525000000000178], [138.57499999999752, -2.525000000000178], [138.57499999999752, -2.5750000000001787], [138.6249999999975, -2.5750000000001787]]], [[[142.4749999999973, -2.6250000000001794], [142.4749999999973, -2.67500000000018], [142.3749999999973, -2.67500000000018], [142.3749999999973, -2.6250000000001794], [142.4749999999973, -2.6250000000001794]]], [[[139.3249999999975, -2.525000000000178], [139.3249999999975, -2.67500000000018], [139.27499999999748, -2.67500000000018], [139.27499999999748, -2.725000000000181], [138.8749999999975, -2.725000000000181], [138.8749999999975, -2.5750000000001787], [138.9249999999975, -2.5750000000001787], [138.9249999999975, -2.4750000000001773], [138.9749999999975, -2.4750000000001773], [138.9749999999975, -2.4250000000001766], [139.22499999999746, -2.4250000000001766], [139.22499999999746, -2.4750000000001773], [139.27499999999748, -2.4750000000001773], [139.27499999999748, -2.525000000000178], [139.3249999999975, -2.525000000000178]]], [[[137.77499999999756, -2.175000000000173], [137.77499999999756, -2.1250000000001723], [137.67499999999757, -2.1250000000001723], [137.67499999999757, -2.025000000000171], [137.62499999999756, -2.025000000000171], [137.62499999999756, -1.9250000000001695], [137.57499999999757, -1.9250000000001695], [137.57499999999757, -1.825000000000168], [137.62499999999756, -1.825000000000168], [137.62499999999756, -1.7250000000001666], [137.67499999999757, -1.7250000000001666], [137.67499999999757, -1.675000000000166], [137.72499999999758, -1.675000000000166], [137.72499999999758, -1.6250000000001652], [137.77499999999756, -1.6250000000001652], [137.77499999999756, -1.5750000000001645], [138.02499999999753, -1.5750000000001645], [138.02499999999753, -2.0750000000001716], [137.97499999999755, -2.0750000000001716], [137.97499999999755, -2.175000000000173], [137.77499999999756, -2.175000000000173]]], [[[140.4749999999974, -1.675000000000166], [140.4749999999974, -1.7250000000001666], [140.4249999999974, -1.7250000000001666], [140.4249999999974, -1.675000000000166], [140.3749999999974, -1.675000000000166], [140.3749999999974, -1.5250000000001638], [140.4749999999974, -1.5250000000001638], [140.4749999999974, -1.5750000000001645], [140.52499999999742, -1.5750000000001645], [140.52499999999742, -1.675000000000166], [140.4749999999974, -1.675000000000166]]]]}}]}