{"type": "FeatureCollection", "features": [{"type": "Feature", "properties": {"date": "2026-08-16", "category_id": 1, "level": "waspada", "kategori": "Waspada Potensi Longsor", "color": "#FFFF00"}, "geometry": {"type": "MultiPolygon", "coordinates": [[[[98.66999999999668, -1.315000000001299], [98.66499999999668, -1.315000000001299], [98.66499999999668, -1.3100000000012981], [98.66999999999668, -1.3100000000012981], [98.66999999999668, -1.315000000001299]]], [[[98.65999999999669, -1.3100000000012981], [98.65499999999669, -1.3100000000012981], [98.65499999999669, -1.3050000000012973], [98.65999999999669, -1.3050000000012973], [98.65999999999669, -1.3100000000012981]]], [[[98.65999999999669, -1.220000000001284], [98.65499999999669, -1.220000000001284], [98.65499999999669, -1.2150000000012833], [98.65999999999669, -1.2150000000012833], [98.65999999999669, -1.220000000001284]]], [[[98.62499999999672, -1.2150000000012833], [98.62499999999672, -1.2100000000012825], [98.62999999999671, -1.2100000000012825], [98.62999999999671, -1.2150000000012833], [98.62499999999672, -1.2150000000012833]]], [[[98.65499999999669, -1.2100000000012825], [98.65499999999669, -1.2050000000012817], [98.66499999999668, -1.2050000000012817], [98.66499999999668, -1.2100000000012825], [98.65499999999669, -1.2100000000012825]]], [[[98.65499999999669, -1.2050000000012817], [98.6399999999967, -1.2050000000012817], [98.6399999999967, -1.200000000001281], [98.65499999999669, -1.200000000001281], [98.65499999999669, -1.2050000000012817]]], [[[98.67499999999667, -1.200000000001281], [98.67499999999667, -1.1950000000012801], [98.67999999999667, -1.1950000000012801], [98.67999999999667, -1.200000000001281], [98.67499999999667, -1.200000000001281]]], [[[98.62499999999672, -1.1950000000012801], [98.62499999999672, -1.1850000000012786], [98.63499999999671, -1.1850000000012786], [98.63499999999671, -1.1950000000012801], [98.62499999999672, -1.1950000000012801]]], [[[98.62999999999671, -1.1800000000012778], [98.62499999999672, -1.1800000000012778], [98.62499999999672, -1.175000000001277], [98.62999999999671, -1.175000000001277], [98.62999999999671, -1.1800000000012778]]], [[[98.66499999999668, -1.155000000001274], [98.66499999999668, -1.1500000000012731], [98.66999999999668, -1.1500000000012731], [98.66999999999668, -1.155000000001274], [98.66499999999668, -1.155000000001274]]], [[[98.6499999999967, -1.1500000000012731], [98.6499999999967, -1.1450000000012723], [98.65999999999669, -1.1450000000012723], [98.65999999999669, -1.1500000000012731], [98.6499999999967, -1.1500000000012731]]], [[[98.67499999999667, -1.1500000000012731], [98.66999999999668, -1.1500000000012731], [98.66999999999668, -1.1450000000012723], [98.67499999999667, -1.1450000000012723], [98.67499999999667, -1.1500000000012731]]], [[[98.66499999999668, -1.1400000000012716], [98.66499999999668, -1.1350000000012708], [98.66999999999668, -1.1350000000012708], [98.66999999999668, -1.1400000000012716], [98.66499999999668, -1.1400000000012716]]], [[[98.67499999999667, -1.1400000000012716], [98.67499999999667, -1.13000000000127], [98.67999999999667, -1.13000000000127], [98.67999999999667, -1.1400000000012716], [98.67499999999667, -1.1400000000012716]]], [[[98.67499999999667, -1.13000000000127], [98.66999999999668, -1.13000000000127], [98.66999999999668, -1.1250000000012692], [98.67499999999667, -1.1250000000012692], [98.67499999999667, -1.13000000000127]]], [[[98.6449999999967, -1.1250000000012692], [98.6449999999967, -1.1150000000012676], [98.6499999999967, -1.1150000000012676], [98.6499999999967, -1.1250000000012692], [98.6449999999967, -1.1250000000012692]]], [[[98.66499999999668, -1.0900000000012637], [98.66499999999668, -1.085000000001263], [98.67499999999667, -1.085000000001263], [98.67499999999667, -1.0900000000012637], [98.66499999999668, -1.0900000000012637]]], [[[98.66499999999668, -1.0750000000012614], [98.66999999999668, -1.0750000000012614], [98.66999999999668, -1.0650000000012598], [98.67999999999667, -1.0650000000012598], [98.67999999999667, -1.085000000001263], [98.67499999999667, -1.085000000001263], [98.67499999999667, -1.0800000000012622], [98.66499999999668, -1.0800000000012622], [98.66499999999668, -1.0750000000012614]]], [[[98.67999999999667, -1.060000000001259], [98.67999999999667, -1.0550000000012583], [98.68499999999666, -1.0550000000012583], [98.68499999999666, -1.060000000001259], [98.67999999999667, -1.060000000001259]]], [[[98.66499999999668, -1.0300000000012544], [98.66499999999668, -1.0250000000012536], [98.66999999999668, -1.0250000000012536], [98.66999999999668, -1.0300000000012544], [98.66499999999668, -1.0300000000012544]]], [[[98.67999999999667, -1.0300000000012544], [98.67499999999667, -1.0300000000012544], [98.67499999999667, -1.0250000000012536], [98.67999999999667, -1.0250000000012536], [98.67999999999667, -1.0300000000012544]]], [[[98.68499999999666, -1.0100000000012512], [98.68499999999666, -1.0050000000012504], [98.68999999999666, -1.0050000000012504], [98.68999999999666, -1.0100000000012512], [98.68499999999666, -1.0100000000012512]]], [[[98.68499999999666, -1.0000000000012497], [98.68499999999666, -1.0050000000012504], [98.67499999999667, -1.0050000000012504], [98.67499999999667, -1.0000000000012497], [98.68499999999666, -1.0000000000012497]]], [[[98.67999999999667, -0.9950000000012489], [98.67499999999667, -0.9950000000012489], [98.67499999999667, -0.9900000000012481], [98.67999999999667, -0.9900000000012481], [98.67999999999667, -0.9950000000012489]]], [[[98.72499999999663, -1.3750000000013083], [98.72499999999663, -1.3700000000013075], [98.72999999999662, -1.3700000000013075], [98.72999999999662, -1.3750000000013083], [98.72499999999663, -1.3750000000013083]]], [[[98.69999999999665, -1.3650000000013067], [98.69999999999665, -1.360000000001306], [98.70999999999664, -1.360000000001306], [98.70999999999664, -1.3650000000013067], [98.69999999999665, -1.3650000000013067]]], [[[98.73499999999662, -1.3650000000013067], [98.72999999999662, -1.3650000000013067], [98.72999999999662, -1.360000000001306], [98.73499999999662, -1.360000000001306], [98.73499999999662, -1.3650000000013067]]], [[[98.69499999999665, -1.360000000001306], [98.69499999999665, -1.3550000000013052], [98.69999999999665, -1.3550000000013052], [98.69999999999665, -1.360000000001306], [98.69499999999665, -1.360000000001306]]], [[[98.73999999999661, -1.360000000001306], [98.73999999999661, -1.3500000000013044], [98.74499999999661, -1.3500000000013044], [98.74499999999661, -1.360000000001306], [98.73999999999661, -1.360000000001306]]], [[[98.69999999999665, -1.2400000000012872], [98.69499999999665, -1.2400000000012872], [98.69499999999665, -1.2350000000012864], [98.69999999999665, -1.2350000000012864], [98.69999999999665, -1.2400000000012872]]], [[[98.68999999999666, -1.2150000000012833], [98.68999999999666, -1.2100000000012825], [98.69499999999665, -1.2100000000012825], [98.69499999999665, -1.2150000000012833], [98.68999999999666, -1.2150000000012833]]], [[[98.70999999999664, -1.1600000000012747], [98.70999999999664, -1.155000000001274], [98.71499999999664, -1.155000000001274], [98.71499999999664, -1.1600000000012747], [98.70999999999664, -1.1600000000012747]]], [[[98.71999999999663, -1.1100000000012669], [98.71499999999664, -1.1100000000012669], [98.71499999999664, -1.105000000001266], [98.71999999999663, -1.105000000001266], [98.71999999999663, -1.1100000000012669]]], [[[98.69999999999665, -1.0750000000012614], [98.69999999999665, -1.085000000001263], [98.68999999999666, -1.085000000001263], [98.68999999999666, -1.0800000000012622], [98.69499999999665, -1.0800000000012622], [98.69499999999665, -1.0750000000012614], [98.69999999999665, -1.0750000000012614]]], [[[98.71499999999664, -1.0800000000012622], [98.71499999999664, -1.0750000000012614], [98.71999999999663, -1.0750000000012614], [98.71999999999663, -1.0800000000012622], [98.71499999999664, -1.0800000000012622]]], [[[98.71499999999664, -1.0750000000012614], [98.70999999999664, -1.0750000000012614], [98.70999999999664, -1.0700000000012606], [98.71499999999664, -1.0700000000012606], [98.71499999999664, -1.0750000000012614]]], [[[98.69499999999665, -1.0700000000012606], [98.69499999999665, -1.0650000000012598], [98.69999999999665, -1.0650000000012598], [98.69999999999665, -1.0700000000012606], [98.69499999999665, -1.0700000000012606]]], [[[98.73499999999662, -1.0700000000012606], [98.73499999999662, -1.0650000000012598], [98.73999999999661, -1.0650000000012598], [98.73999999999661, -1.0700000000012606], [98.73499999999662, -1.0700000000012606]]], [[[98.69999999999665, -1.0500000000012575], [98.69999999999665, -1.0550000000012583], [98.70499999999664, -1.0550000000012583], [98.70499999999664, -1.060000000001259], [98.69499999999665, -1.060000000001259], [98.69499999999665, -1.0500000000012575], [98.69999999999665, -1.0500000000012575]]], [[[98.68499999999666, -1.0450000000012567], [98.69499999999665, -1.0450000000012567], [98.69499999999665, -1.0500000000012575], [98.68499999999666, -1.0500000000012575], [98.68499999999666, -1.0450000000012567]]], [[[98.69999999999665, -1.0450000000012567], [98.69499999999665, -1.0450000000012567], [98.69499999999665, -1.040000000001256], [98.70499999999664, -1.040000000001256], [98.70499999999664, -1.0450000000012567], [98.70999999999664, -1.0450000000012567], [98.70999999999664, -1.0500000000012575], [98.69999999999665, -1.0500000000012575], [98.69999999999665, -1.0450000000012567]]], [[[98.68999999999666, -1.0300000000012544], [98.68499999999666, -1.0300000000012544], [98.68499999999666, -1.0250000000012536], [98.68999999999666, -1.0250000000012536], [98.68999999999666, -1.0300000000012544]]], [[[98.71499999999664, -1.0250000000012536], [98.71499999999664, -1.0300000000012544], [98.71999999999663, -1.0300000000012544], [98.71999999999663, -1.0350000000012551], [98.72499999999663, -1.0350000000012551], [98.72499999999663, -1.0300000000012544], [98.73499999999662, -1.0300000000012544], [98.73499999999662, -1.0350000000012551], [98.73999999999661, -1.0350000000012551], [98.73999999999661, -1.040000000001256], [98.7499999999966, -1.040000000001256], [98.7499999999966, -1.0450000000012567], [98.74499999999661, -1.0450000000012567], [98.74499999999661, -1.0500000000012575], [98.7549999999966, -1.0500000000012575], [98.7549999999966, -1.0450000000012567], [98.7599999999966, -1.0450000000012567], [98.7599999999966, -1.0550000000012583], [98.7499999999966, -1.0550000000012583], [98.7499999999966, -1.060000000001259], [98.73499999999662, -1.060000000001259], [98.73499999999662, -1.0650000000012598], [98.71499999999664, -1.0650000000012598], [98.71499999999664, -1.060000000001259], [98.72499999999663, -1.060000000001259], [98.72499999999663, -1.0450000000012567], [98.71499999999664, -1.0450000000012567], [98.71499999999664, -1.040000000001256], [98.70499999999664, -1.040000000001256], [98.70499999999664, -1.0350000000012551], [98.70999999999664, -1.0350000000012551], [98.70999999999664, -1.0300000000012544], [98.70499999999664, -1.0300000000012544], [98.70499999999664, -1.015000000001252], [98.68999999999666, -1.015000000001252], [98.68999999999666, -1.0100000000012512], [98.69499999999665, -1.0100000000012512], [98.69499999999665, -1.0050000000012504], [98.70499999999664, -1.0050000000012504], [98.70499999999664, -1.0000000000012497], [98.69999999999665, -1.0000000000012497], [98.69999999999665, -0.9950000000012489], [98.70499999999664, -0.9950000000012489], [98.70499999999664, -0.9900000000012481], [98.70999999999664, -0.9900000000012481], [98.70999999999664, -1.0000000000012497], [98.71499999999664, -1.0000000000012497], [98.71499999999664, -1.0200000000012528], [98.72999999999662, -1.0200000000012528], [98.72999999999662, -1.0250000000012536], [98.71499999999664, -1.0250000000012536]], [[98.73499999999662, -1.0500000000012575], [98.72999999999662, -1.0500000000012575], [98.72999999999662, -1.0550000000012583], [98.73499999999662, -1.0550000000012583], [98.73499999999662, -1.0500000000012575]]], [[[98.72999999999662, -1.0100000000012512], [98.74499999999661, -1.0100000000012512], [98.74499999999661, -1.015000000001252], [98.73499999999662, -1.015000000001252], [98.73499999999662, -1.0200000000012528], [98.72999999999662, -1.0200000000012528], [98.72999999999662, -1.0100000000012512]]], [[[98.72499999999663, -1.0050000000012504], [98.71999999999663, -1.0050000000012504], [98.71999999999663, -1.0000000000012497], [98.72499999999663, -1.0000000000012497], [98.72499999999663, -1.0050000000012504]]], [[[98.72999999999662, -1.0050000000012504], [98.72999999999662, -1.0000000000012497], [98.73499999999662, -1.0000000000012497], [98.73499999999662, -1.0050000000012504], [98.72999999999662, -1.0050000000012504]]], [[[98.69499999999665, -0.9950000000012489], [98.69499999999665, -0.9900000000012481], [98.69999999999665, -0.9900000000012481], [98.69999999999665, -0.9950000000012489], [98.69499999999665, -0.9950000000012489]]], [[[98.70499999999664, -0.9900000000012481], [98.69999999999665, -0.9900000000012481], [98.69999999999665, -0.9850000000012473], [98.70499999999664, -0.9850000000012473], [98.70499999999664, -0.9900000000012481]]], [[[98.79999999999656, -1.3750000000013083], [98.79499999999656, -1.3750000000013083], [98.79499999999656, -1.3650000000013067], [98.79999999999656, -1.3650000000013067], [98.79999999999656, -1.3750000000013083]]], [[[98.80499999999655, -1.3650000000013067], [98.79999999999656, -1.3650000000013067], [98.79999999999656, -1.360000000001306], [98.80499999999655, -1.360000000001306], [98.80499999999655, -1.3650000000013067]]], [[[98.77999999999658, -1.3650000000013067], [98.77999999999658, -1.3700000000013075], [98.78999999999657, -1.3700000000013075], [98.78999999999657, -1.3750000000013083], [98.7499999999966, -1.3750000000013083], [98.7499999999966, -1.3700000000013075], [98.73999999999661, -1.3700000000013075], [98.73999999999661, -1.3650000000013067], [98.7549999999966, -1.3650000000013067], [98.7549999999966, -1.3550000000013052], [98.7599999999966, -1.3550000000013052], [98.7599999999966, -1.360000000001306], [98.76499999999659, -1.360000000001306], [98.76499999999659, -1.3550000000013052], [98.76999999999659, -1.3550000000013052], [98.76999999999659, -1.3450000000013036], [98.77499999999658, -1.3450000000013036], [98.77499999999658, -1.3500000000013044], [98.77999999999658, -1.3500000000013044], [98.77999999999658, -1.3550000000013052], [98.77499999999658, -1.3550000000013052], [98.77499999999658, -1.3650000000013067], [98.77999999999658, -1.3650000000013067]], [[98.76999999999659, -1.3650000000013067], [98.76499999999659, -1.3650000000013067], [98.76499999999659, -1.3700000000013075], [98.76999999999659, -1.3700000000013075], [98.76999999999659, -1.3650000000013067]]], [[[98.81999999999654, -1.3250000000013005], [98.81999999999654, -1.3200000000012997], [98.82499999999654, -1.3200000000012997], [98.82499999999654, -1.3250000000013005], [98.81999999999654, -1.3250000000013005]]], [[[98.80499999999655, -1.0650000000012598], [98.81499999999654, -1.0650000000012598], [98.81499999999654, -1.0700000000012606], [98.81999999999654, -1.0700000000012606], [98.81999999999654, -1.0750000000012614], [98.80499999999655, -1.0750000000012614], [98.80499999999655, -1.0800000000012622], [98.80999999999655, -1.0800000000012622], [98.80999999999655, -1.085000000001263], [98.81999999999654, -1.085000000001263], [98.81999999999654, -1.0900000000012637], [98.82499999999654, -1.0900000000012637], [98.82499999999654, -1.1000000000012653], [98.82999999999653, -1.1000000000012653], [98.82999999999653, -1.0950000000012645], [98.83499999999653, -1.0950000000012645], [98.83499999999653, -1.1000000000012653], [98.83999999999652, -1.1000000000012653], [98.83999999999652, -1.105000000001266], [98.83499999999653, -1.105000000001266], [98.83499999999653, -1.1150000000012676], [98.84499999999652, -1.1150000000012676], [98.84499999999652, -1.1200000000012684], [98.84999999999651, -1.1200000000012684], [98.84999999999651, -1.1100000000012669], [98.85499999999651, -1.1100000000012669], [98.85499999999651, -1.13000000000127], [98.84999999999651, -1.13000000000127], [98.84999999999651, -1.1250000000012692], [98.84499999999652, -1.1250000000012692], [98.84499999999652, -1.1350000000012708], [98.85499999999651, -1.1350000000012708], [98.85499999999651, -1.1450000000012723], [98.8599999999965, -1.1450000000012723], [98.8599999999965, -1.155000000001274], [98.8649999999965, -1.155000000001274], [98.8649999999965, -1.1700000000012762], [98.8699999999965, -1.1700000000012762], [98.8699999999965, -1.1650000000012755], [98.87499999999649, -1.1650000000012755], [98.87499999999649, -1.2150000000012833], [98.85499999999651, -1.2150000000012833], [98.85499999999651, -1.2100000000012825], [98.84999999999651, -1.2100000000012825], [98.84999999999651, -1.220000000001284], [98.8599999999965, -1.220000000001284], [98.8599999999965, -1.2250000000012848], [98.87499999999649, -1.2250000000012848], [98.87499999999649, -1.2400000000012872], [98.8649999999965, -1.2400000000012872], [98.8649999999965, -1.2550000000012895], [98.87499999999649, -1.2550000000012895], [98.87499999999649, -1.2850000000012942], [98.8699999999965, -1.2850000000012942], [98.8699999999965, -1.2800000000012934], [98.8649999999965, -1.2800000000012934], [98.8649999999965, -1.2750000000012927], [98.85499999999651, -1.2750000000012927], [98.85499999999651, -1.2700000000012919], [98.83499999999653, -1.2700000000012919], [98.83499999999653, -1.2800000000012934], [98.82499999999654, -1.2800000000012934], [98.82499999999654, -1.2750000000012927], [98.82999999999653, -1.2750000000012927], [98.82999999999653, -1.265000000001291], [98.82499999999654, -1.265000000001291], [98.82499999999654, -1.2600000000012903], [98.81499999999654, -1.2600000000012903], [98.81499999999654, -1.265000000001291], [98.81999999999654, -1.265000000001291], [98.81999999999654, -1.2850000000012942], [98.80999999999655, -1.2850000000012942], [98.80999999999655, -1.290000000001295], [98.80499999999655, -1.290000000001295], [98.80499999999655, -1.2950000000012958], [98.80999999999655, -1.2950000000012958], [98.80999999999655, -1.3000000000012966], [98.81499999999654, -1.3000000000012966], [98.81499999999654, -1.3050000000012973], [98.80999999999655, -1.3050000000012973], [98.80999999999655, -1.315000000001299], [98.81999999999654, -1.315000000001299], [98.81999999999654, -1.3200000000012997], [98.81499999999654, -1.3200000000012997], [98.81499999999654, -1.335000000001302], [98.82499999999654, -1.335000000001302], [98.82499999999654, -1.3300000000013013], [98.83999999999652, -1.3300000000013013], [98.83999999999652, -1.335000000001302], [98.84499999999652, -1.335000000001302], [98.84499999999652, -1.3400000000013028], [98.83999999999652, -1.3400000000013028], [98.83999999999652, -1.3500000000013044], [98.84499999999652, -1.3500000000013044], [98.84499999999652, -1.3550000000013052], [98.84999999999651, -1.3550000000013052], [98.84999999999651, -1.3450000000013036], [98.85499999999651, -1.3450000000013036], [98.85499999999651, -1.3400000000013028], [98.84999999999651, -1.3400000000013028], [98.84999999999651, -1.335000000001302], [98.8599999999965, -1.335000000001302], [98.8599999999965, -1.3500000000013044], [98.8699999999965, -1.3500000000013044], [98.8699999999965, -1.3550000000013052], [98.8649999999965, -1.3550000000013052], [98.8649999999965, -1.360000000001306], [98.87499999999649, -1.360000000001306], [98.87499999999649, -1.3750000000013083], [98.8699999999965, -1.3750000000013083], [98.8699999999965, -1.3650000000013067], [98.8599999999965, -1.3650000000013067], [98.8599999999965, -1.3700000000013075], [98.8649999999965, -1.3700000000013075], [98.8649999999965, -1.3750000000013083], [98.84999999999651, -1.3750000000013083], [98.84999999999651, -1.3700000000013075], [98.84499999999652, -1.3700000000013075], [98.84499999999652, -1.3750000000013083], [98.81499999999654, -1.3750000000013083], [98.81499999999654, -1.360000000001306], [98.81999999999654, -1.360000000001306], [98.81999999999654, -1.3550000000013052], [98.82499999999654, -1.3550000000013052], [98.82499999999654, -1.3500000000013044], [98.83499999999653, -1.3500000000013044], [98.83499999999653, -1.3400000000013028], [98.82499999999654, -1.3400000000013028], [98.82499999999654, -1.3450000000013036], [98.81499999999654, -1.3450000000013036], [98.81499999999654, -1.3550000000013052], [98.79499999999656, -1.3550000000013052], [98.79499999999656, -1.3450000000013036], [98.77999999999658, -1.3450000000013036], [98.77999999999658, -1.3400000000013028], [98.78499999999657, -1.3400000000013028], [98.78499999999657, -1.335000000001302], [98.76999999999659, -1.335000000001302], [98.76999999999659, -1.3300000000013013], [98.76499999999659, -1.3300000000013013], [98.76499999999659, -1.3450000000013036], [98.7599999999966, -1.3450000000013036], [98.7599999999966, -1.3400000000013028], [98.7549999999966, -1.3400000000013028], [98.7549999999966, -1.3500000000013044], [98.74499999999661, -1.3500000000013044], [98.74499999999661, -1.3450000000013036], [98.73999999999661, -1.3450000000013036], [98.73999999999661, -1.3300000000013013], [98.73499999999662, -1.3300000000013013], [98.73499999999662, -1.3250000000013005], [98.72999999999662, -1.3250000000013005], [98.72999999999662, -1.3450000000013036], [98.73499999999662, -1.3450000000013036], [98.73499999999662, -1.3500000000013044], [98.72999999999662, -1.3500000000013044], [98.72999999999662, -1.360000000001306], [98.71499999999664, -1.360000000001306], [98.71499999999664, -1.3550000000013052], [98.70499999999664, -1.3550000000013052], [98.70499999999664, -1.3500000000013044], [98.71499999999664, -1.3500000000013044], [98.71499999999664, -1.3450000000013036], [98.69499999999665, -1.3450000000013036], [98.69499999999665, -1.3400000000013028], [98.70499999999664, -1.3400000000013028], [98.70499999999664, -1.335000000001302], [98.69499999999665, -1.335000000001302], [98.69499999999665, -1.315000000001299], [98.68999999999666, -1.315000000001299], [98.68999999999666, -1.3000000000012966], [98.68499999999666, -1.3000000000012966], [98.68499999999666, -1.2950000000012958], [98.67999999999667, -1.2950000000012958], [98.67999999999667, -1.3000000000012966], [98.67499999999667, -1.3000000000012966], [98.67499999999667, -1.3050000000012973], [98.68499999999666, -1.3050000000012973], [98.68499999999666, -1.315000000001299], [98.67499999999667, -1.315000000001299], [98.67499999999667, -1.3100000000012981], [98.66999999999668, -1.3100000000012981], [98.66999999999668, -1.3050000000012973], [98.66499999999668, -1.3050000000012973], [98.66499999999668, -1.2950000000012958], [98.66999999999668, -1.2950000000012958], [98.66999999999668, -1.2850000000012942], [98.65499999999669, -1.2850000000012942], [98.65499999999669, -1.2800000000012934], [98.6499999999967, -1.2800000000012934], [98.6499999999967, -1.2850000000012942], [98.6399999999967, -1.2850000000012942], [98.6399999999967, -1.2700000000012919], [98.6449999999967, -1.2700000000012919], [98.6449999999967, -1.2600000000012903], [98.6399999999967, -1.2600000000012903], [98.6399999999967, -1.2500000000012887], [98.6449999999967, -1.2500000000012887], [98.6449999999967, -1.245000000001288], [98.6399999999967, -1.245000000001288], [98.6399999999967, -1.2400000000012872], [98.63499999999671, -1.2400000000012872], [98.63499999999671, -1.2350000000012864], [98.62999999999671, -1.2350000000012864], [98.62999999999671, -1.2400000000012872], [98.62499999999672, -1.2400000000012872], [98.62499999999672, -1.2300000000012856], [98.62999999999671, -1.2300000000012856], [98.62999999999671, -1.220000000001284], [98.63499999999671, -1.220000000001284], [98.63499999999671, -1.2100000000012825], [98.6449999999967, -1.2100000000012825], [98.6449999999967, -1.2150000000012833], [98.6499999999967, -1.2150000000012833], [98.6499999999967, -1.220000000001284], [98.65499999999669, -1.220000000001284], [98.65499999999669, -1.2250000000012848], [98.6499999999967, -1.2250000000012848], [98.6499999999967, -1.2350000000012864], [98.65499999999669, -1.2350000000012864], [98.65499999999669, -1.2300000000012856], [98.65999999999669, -1.2300000000012856], [98.65999999999669, -1.2250000000012848], [98.66499999999668, -1.2250000000012848], [98.66499999999668, -1.220000000001284], [98.66999999999668, -1.220000000001284], [98.66999999999668, -1.2150000000012833], [98.67499999999667, -1.2150000000012833], [98.67499999999667, -1.2300000000012856], [98.67999999999667, -1.2300000000012856], [98.67999999999667, -1.2250000000012848], [98.68499999999666, -1.2250000000012848], [98.68499999999666, -1.220000000001284], [98.68999999999666, -1.220000000001284], [98.68999999999666, -1.2300000000012856], [98.68499999999666, -1.2300000000012856], [98.68499999999666, -1.2350000000012864], [98.67499999999667, -1.2350000000012864], [98.67499999999667, -1.245000000001288], [98.68999999999666, -1.245000000001288], [98.68999999999666, -1.2500000000012887], [98.69499999999665, -1.2500000000012887], [98.69499999999665, -1.245000000001288], [98.69999999999665, -1.245000000001288], [98.69999999999665, -1.2550000000012895], [98.69499999999665, -1.2550000000012895], [98.69499999999665, -1.265000000001291], [98.70999999999664, -1.265000000001291], [98.70999999999664, -1.2800000000012934], [98.71499999999664, -1.2800000000012934], [98.71499999999664, -1.2850000000012942], [98.72499999999663, -1.2850000000012942], [98.72499999999663, -1.290000000001295], [98.72999999999662, -1.290000000001295], [98.72999999999662, -1.2800000000012934], [98.71999999999663, -1.2800000000012934], [98.71999999999663, -1.2750000000012927], [98.71499999999664, -1.2750000000012927], [98.71499999999664, -1.2700000000012919], [98.71999999999663, -1.2700000000012919], [98.71999999999663, -1.2550000000012895], [98.73999999999661, -1.2550000000012895], [98.73999999999661, -1.2500000000012887], [98.7499999999966, -1.2500000000012887], [98.7499999999966, -1.245000000001288], [98.73499999999662, -1.245000000001288], [98.73499999999662, -1.2500000000012887], [98.72499999999663, -1.2500000000012887], [98.72499999999663, -1.245000000001288], [98.71999999999663, -1.245000000001288], [98.71999999999663, -1.2300000000012856], [98.70999999999664, -1.2300000000012856], [98.70999999999664, -1.2250000000012848], [98.70499999999664, -1.2250000000012848], [98.70499999999664, -1.2150000000012833], [98.71499999999664, -1.2150000000012833], [98.71499999999664, -1.2250000000012848], [98.72499999999663, -1.2250000000012848], [98.72499999999663, -1.2300000000012856], [98.73499999999662, -1.2300000000012856], [98.73499999999662, -1.220000000001284], [98.72499999999663, -1.220000000001284], [98.72499999999663, -1.2150000000012833], [98.71999999999663, -1.2150000000012833], [98.71999999999663, -1.2100000000012825], [98.72999999999662, -1.2100000000012825], [98.72999999999662, -1.2150000000012833], [98.73499999999662, -1.2150000000012833], [98.73499999999662, -1.2100000000012825], [98.73999999999661, -1.2100000000012825], [98.73999999999661, -1.2050000000012817], [98.72499999999663, -1.2050000000012817], [98.72499999999663, -1.200000000001281], [98.71999999999663, -1.200000000001281], [98.71999999999663, -1.2050000000012817], [98.70999999999664, -1.2050000000012817], [98.70999999999664, -1.2100000000012825], [98.69999999999665, -1.2100000000012825], [98.69999999999665, -1.200000000001281], [98.69499999999665, -1.200000000001281], [98.69499999999665, -1.1800000000012778], [98.69999999999665, -1.1800000000012778], [98.69999999999665, -1.175000000001277], [98.69499999999665, -1.175000000001277], [98.69499999999665, -1.1700000000012762], [98.68999999999666, -1.1700000000012762], [98.68999999999666, -1.1650000000012755], [98.68499999999666, -1.1650000000012755], [98.68499999999666, -1.175000000001277], [98.68999999999666, -1.175000000001277], [98.68999999999666, -1.1800000000012778], [98.67999999999667, -1.1800000000012778], [98.67999999999667, -1.1850000000012786], [98.66999999999668, -1.1850000000012786], [98.66999999999668, -1.175000000001277], [98.66499999999668, -1.175000000001277], [98.66499999999668, -1.1650000000012755], [98.65999999999669, -1.1650000000012755], [98.65999999999669, -1.1600000000012747], [98.66999999999668, -1.1600000000012747], [98.66999999999668, -1.1650000000012755], [98.67999999999667, -1.1650000000012755], [98.67999999999667, -1.1600000000012747], [98.67499999999667, -1.1600000000012747], [98.67499999999667, -1.155000000001274], [98.67999999999667, -1.155000000001274], [98.67999999999667, -1.1500000000012731], [98.68499999999666, -1.1500000000012731], [98.68499999999666, -1.155000000001274], [98.68999999999666, -1.155000000001274], [98.68999999999666, -1.1500000000012731], [98.69499999999665, -1.1500000000012731], [98.69499999999665, -1.155000000001274], [98.69999999999665, -1.155000000001274], [98.69999999999665, -1.1600000000012747], [98.70999999999664, -1.1600000000012747], [98.70999999999664, -1.1650000000012755], [98.71499999999664, -1.1650000000012755], [98.71499999999664, -1.1600000000012747], [98.71999999999663, -1.1600000000012747], [98.71999999999663, -1.155000000001274], [98.72499999999663, -1.155000000001274], [98.72499999999663, -1.1450000000012723], [98.71499999999664, -1.1450000000012723], [98.71499999999664, -1.1500000000012731], [98.70999999999664, -1.1500000000012731], [98.70999999999664, -1.1450000000012723], [98.70499999999664, -1.1450000000012723], [98.70499999999664, -1.1400000000012716], [98.69999999999665, -1.1400000000012716], [98.69999999999665, -1.1350000000012708], [98.70499999999664, -1.1350000000012708], [98.70499999999664, -1.13000000000127], [98.69999999999665, -1.13000000000127], [98.69999999999665, -1.1200000000012684], [98.69499999999665, -1.1200000000012684], [98.69499999999665, -1.1250000000012692], [98.68999999999666, -1.1250000000012692], [98.68999999999666, -1.1150000000012676], [98.67999999999667, -1.1150000000012676], [98.67999999999667, -1.1100000000012669], [98.67499999999667, -1.1100000000012669], [98.67499999999667, -1.1000000000012653], [98.67999999999667, -1.1000000000012653], [98.67999999999667, -1.105000000001266], [98.68499999999666, -1.105000000001266], [98.68499999999666, -1.1100000000012669], [98.68999999999666, -1.1100000000012669], [98.68999999999666, -1.0950000000012645], [98.68499999999666, -1.0950000000012645], [98.68499999999666, -1.0900000000012637], [98.69499999999665, -1.0900000000012637], [98.69499999999665, -1.1000000000012653], [98.70499999999664, -1.1000000000012653], [98.70499999999664, -1.1100000000012669], [98.70999999999664, -1.1100000000012669], [98.70999999999664, -1.1150000000012676], [98.71999999999663, -1.1150000000012676], [98.71999999999663, -1.1100000000012669], [98.72499999999663, -1.1100000000012669], [98.72499999999663, -1.1000000000012653], [98.71499999999664, -1.1000000000012653], [98.71499999999664, -1.0950000000012645], [98.70499999999664, -1.0950000000012645], [98.70499999999664, -1.085000000001263], [98.70999999999664, -1.085000000001263], [98.70999999999664, -1.0900000000012637], [98.71999999999663, -1.0900000000012637], [98.71999999999663, -1.0800000000012622], [98.72499999999663, -1.0800000000012622], [98.72499999999663, -1.0750000000012614], [98.73999999999661, -1.0750000000012614], [98.73999999999661, -1.0800000000012622], [98.73499999999662, -1.0800000000012622], [98.73499999999662, -1.0950000000012645], [98.73999999999661, -1.0950000000012645], [98.73999999999661, -1.105000000001266], [98.74499999999661, -1.105000000001266], [98.74499999999661, -1.1000000000012653], [98.7499999999966, -1.1000000000012653], [98.7499999999966, -1.0950000000012645], [98.7549999999966, -1.0950000000012645], [98.7549999999966, -1.105000000001266], [98.7599999999966, -1.105000000001266], [98.7599999999966, -1.1100000000012669], [98.76499999999659, -1.1100000000012669], [98.76499999999659, -1.1200000000012684], [98.77499999999658, -1.1200000000012684], [98.77499999999658, -1.1150000000012676], [98.77999999999658, -1.1150000000012676], [98.77999999999658, -1.1100000000012669], [98.77499999999658, -1.1100000000012669], [98.77499999999658, -1.105000000001266], [98.76999999999659, -1.105000000001266], [98.76999999999659, -1.0950000000012645], [98.76499999999659, -1.0950000000012645], [98.76499999999659, -1.1000000000012653], [98.7599999999966, -1.1000000000012653], [98.7599999999966, -1.0900000000012637], [98.76499999999659, -1.0900000000012637], [98.76499999999659, -1.0800000000012622], [98.7599999999966, -1.0800000000012622], [98.7599999999966, -1.0750000000012614], [98.76499999999659, -1.0750000000012614], [98.76499999999659, -1.060000000001259], [98.7599999999966, -1.060000000001259], [98.7599999999966, -1.0550000000012583], [98.76999999999659, -1.0550000000012583], [98.76999999999659, -1.0500000000012575], [98.76499999999659, -1.0500000000012575], [98.76499999999659, -1.0450000000012567], [98.77499999999658, -1.0450000000012567], [98.77499999999658, -1.0500000000012575], [98.77999999999658, -1.0500000000012575], [98.77999999999658, -1.0550000000012583], [98.80499999999655, -1.0550000000012583], [98.80499999999655, -1.0650000000012598]], [[98.8599999999965, -1.2700000000012919], [98.8599999999965, -1.2600000000012903], [98.85499999999651, -1.2600000000012903], [98.85499999999651, -1.2700000000012919], [98.8599999999965, -1.2700000000012919]], [[98.80499999999655, -1.265000000001291], [98.79999999999656, -1.265000000001291], [98.79999999999656, -1.2600000000012903], [98.78999999999657, -1.2600000000012903], [98.78999999999657, -1.2700000000012919], [98.79999999999656, -1.2700000000012919], [98.79999999999656, -1.2800000000012934], [98.78999999999657, -1.2800000000012934], [98.78999999999657, -1.2750000000012927], [98.78499999999657, -1.2750000000012927], [98.78499999999657, -1.2850000000012942], [98.79499999999656, -1.2850000000012942], [98.79499999999656, -1.290000000001295], [98.80499999999655, -1.290000000001295], [98.80499999999655, -1.265000000001291]], [[98.78999999999657, -1.2550000000012895], [98.77499999999658, -1.2550000000012895], [98.77499999999658, -1.2500000000012887], [98.76999999999659, -1.2500000000012887], [98.76999999999659, -1.2600000000012903], [98.77499999999658, -1.2600000000012903], [98.77499999999658, -1.265000000001291], [98.78499999999657, -1.265000000001291], [98.78499999999657, -1.2600000000012903], [98.78999999999657, -1.2600000000012903], [98.78999999999657, -1.2550000000012895]], [[98.76999999999659, -1.245000000001288], [98.76499999999659, -1.245000000001288], [98.76499999999659, -1.2500000000012887], [98.76999999999659, -1.2500000000012887], [98.76999999999659, -1.245000000001288]], [[98.77499999999658, -1.245000000001288], [98.77499999999658, -1.2350000000012864], [98.76999999999659, -1.2350000000012864], [98.76999999999659, -1.245000000001288], [98.77499999999658, -1.245000000001288]], [[98.76999999999659, -1.2250000000012848], [98.76499999999659, -1.2250000000012848], [98.76499999999659, -1.2350000000012864], [98.76999999999659, -1.2350000000012864], [98.76999999999659, -1.2250000000012848]], [[98.7599999999966, -1.2500000000012887], [98.7599999999966, -1.2550000000012895], [98.7549999999966, -1.2550000000012895], [98.7549999999966, -1.2600000000012903], [98.76499999999659, -1.2600000000012903], [98.76499999999659, -1.2500000000012887], [98.7599999999966, -1.2500000000012887]], [[98.7599999999966, -1.245000000001288], [98.7549999999966, -1.245000000001288], [98.7549999999966, -1.2500000000012887], [98.7599999999966, -1.2500000000012887], [98.7599999999966, -1.245000000001288]], [[98.78499999999657, -1.2700000000012919], [98.77999999999658, -1.2700000000012919], [98.77999999999658, -1.2750000000012927], [98.78499999999657, -1.2750000000012927], [98.78499999999657, -1.2700000000012919]], [[98.77499999999658, -1.2750000000012927], [98.77499999999658, -1.2800000000012934], [98.77999999999658, -1.2800000000012934], [98.77999999999658, -1.2750000000012927], [98.77499999999658, -1.2750000000012927]], [[98.63499999999671, -1.2250000000012848], [98.6399999999967, -1.2250000000012848], [98.6399999999967, -1.220000000001284], [98.63499999999671, -1.220000000001284], [98.63499999999671, -1.2250000000012848]], [[98.72999999999662, -1.2950000000012958], [98.73499999999662, -1.2950000000012958], [98.73499999999662, -1.290000000001295], [98.72999999999662, -1.290000000001295], [98.72999999999662, -1.2950000000012958]], [[98.71999999999663, -1.2950000000012958], [98.71999999999663, -1.3000000000012966], [98.72999999999662, -1.3000000000012966], [98.72999999999662, -1.2950000000012958], [98.71999999999663, -1.2950000000012958]], [[98.73999999999661, -1.290000000001295], [98.73999999999661, -1.2850000000012942], [98.73499999999662, -1.2850000000012942], [98.73499999999662, -1.290000000001295], [98.73999999999661, -1.290000000001295]], [[98.74499999999661, -1.2850000000012942], [98.74499999999661, -1.2800000000012934], [98.73999999999661, -1.2800000000012934], [98.73999999999661, -1.2850000000012942], [98.74499999999661, -1.2850000000012942]], [[98.73499999999662, -1.2800000000012934], [98.73499999999662, -1.2750000000012927], [98.72999999999662, -1.2750000000012927], [98.72999999999662, -1.2800000000012934], [98.73499999999662, -1.2800000000012934]], [[98.73999999999661, -1.2750000000012927], [98.73999999999661, -1.2700000000012919], [98.73499999999662, -1.2700000000012919], [98.73499999999662, -1.2750000000012927], [98.73999999999661, -1.2750000000012927]], [[98.72999999999662, -1.265000000001291], [98.72499999999663, -1.265000000001291], [98.72499999999663, -1.2750000000012927], [98.72999999999662, -1.2750000000012927], [98.72999999999662, -1.265000000001291]], [[98.70499999999664, -1.200000000001281], [98.70499999999664, -1.1900000000012794], [98.69999999999665, -1.1900000000012794], [98.69999999999665, -1.200000000001281], [98.70499999999664, -1.200000000001281]], [[98.69999999999665, -1.1700000000012762], [98.69999999999665, -1.1650000000012755], [98.69499999999665, -1.1650000000012755], [98.69499999999665, -1.1700000000012762], [98.69999999999665, -1.1700000000012762]], [[98.71999999999663, -1.1700000000012762], [98.72999999999662, -1.1700000000012762], [98.72999999999662, -1.1600000000012747], [98.71999999999663, -1.1600000000012747], [98.71999999999663, -1.1700000000012762]], [[98.72999999999662, -1.1850000000012786], [98.73999999999661, -1.1850000000012786], [98.73999999999661, -1.1800000000012778], [98.73499999999662, -1.1800000000012778], [98.73499999999662, -1.1700000000012762], [98.72999999999662, -1.1700000000012762], [98.72999999999662, -1.1850000000012786]], [[98.73999999999661, -1.1900000000012794], [98.74499999999661, -1.1900000000012794], [98.74499999999661, -1.1850000000012786], [98.73999999999661, -1.1850000000012786], [98.73999999999661, -1.1900000000012794]], [[98.69999999999665, -1.1100000000012669], [98.69999999999665, -1.1150000000012676], [98.70499999999664, -1.1150000000012676], [98.70499999999664, -1.1100000000012669], [98.69999999999665, -1.1100000000012669]], [[98.72499999999663, -1.085000000001263], [98.72999999999662, -1.085000000001263], [98.72999999999662, -1.0800000000012622], [98.72499999999663, -1.0800000000012622], [98.72499999999663, -1.085000000001263]], [[98.73499999999662, -1.105000000001266], [98.73499999999662, -1.1000000000012653], [98.72999999999662, -1.1000000000012653], [98.72999999999662, -1.1100000000012669], [98.73499999999662, -1.1100000000012669], [98.73499999999662, -1.1150000000012676], [98.73999999999661, -1.1150000000012676], [98.73999999999661, -1.105000000001266], [98.73499999999662, -1.105000000001266]], [[98.7499999999966, -1.105000000001266], [98.7499999999966, -1.1100000000012669], [98.7549999999966, -1.1100000000012669], [98.7549999999966, -1.105000000001266], [98.7499999999966, -1.105000000001266]], [[98.78499999999657, -1.1100000000012669], [98.78499999999657, -1.105000000001266], [98.77999999999658, -1.105000000001266], [98.77999999999658, -1.1100000000012669], [98.78499999999657, -1.1100000000012669]], [[98.78499999999657, -1.1200000000012684], [98.77999999999658, -1.1200000000012684], [98.77999999999658, -1.1250000000012692], [98.76999999999659, -1.1250000000012692], [98.76999999999659, -1.13000000000127], [98.77499999999658, -1.13000000000127], [98.77499999999658, -1.1350000000012708], [98.77999999999658, -1.1350000000012708], [98.77999999999658, -1.1450000000012723], [98.78499999999657, -1.1450000000012723], [98.78499999999657, -1.155000000001274], [98.78999999999657, -1.155000000001274], [98.78999999999657, -1.1650000000012755], [98.77499999999658, -1.1650000000012755], [98.77499999999658, -1.1700000000012762], [98.77999999999658, -1.1700000000012762], [98.77999999999658, -1.175000000001277], [98.78999999999657, -1.175000000001277], [98.78999999999657, -1.1850000000012786], [98.80499999999655, -1.1850000000012786], [98.80499999999655, -1.1800000000012778], [98.79999999999656, -1.1800000000012778], [98.79999999999656, -1.175000000001277], [98.79499999999656, -1.175000000001277], [98.79499999999656, -1.1700000000012762], [98.80499999999655, -1.1700000000012762], [98.80499999999655, -1.1650000000012755], [98.79999999999656, -1.1650000000012755], [98.79999999999656, -1.1600000000012747], [98.79499999999656, -1.1600000000012747], [98.79499999999656, -1.1500000000012731], [98.80499999999655, -1.1500000000012731], [98.80499999999655, -1.155000000001274], [98.80999999999655, -1.155000000001274], [98.80999999999655, -1.1450000000012723], [98.80499999999655, -1.1450000000012723], [98.80499999999655, -1.1350000000012708], [98.79999999999656, -1.1350000000012708], [98.79999999999656, -1.1250000000012692], [98.79499999999656, -1.1250000000012692], [98.79499999999656, -1.1200000000012684], [98.80999999999655, -1.1200000000012684], [98.80999999999655, -1.1350000000012708], [98.82499999999654, -1.1350000000012708], [98.82499999999654, -1.13000000000127], [98.81999999999654, -1.13000000000127], [98.81999999999654, -1.1250000000012692], [98.82499999999654, -1.1250000000012692], [98.82499999999654, -1.1100000000012669], [98.80999999999655, -1.1100000000012669], [98.80999999999655, -1.105000000001266], [98.80499999999655, -1.105000000001266], [98.80499999999655, -1.0950000000012645], [98.79999999999656, -1.0950000000012645], [98.79999999999656, -1.0900000000012637], [98.79499999999656, -1.0900000000012637], [98.79499999999656, -1.1100000000012669], [98.78499999999657, -1.1100000000012669], [98.78499999999657, -1.1200000000012684]], [[98.81499999999654, -1.105000000001266], [98.81499999999654, -1.1000000000012653], [98.80999999999655, -1.1000000000012653], [98.80999999999655, -1.105000000001266], [98.81499999999654, -1.105000000001266]], [[98.80499999999655, -1.0900000000012637], [98.80499999999655, -1.085000000001263], [98.79999999999656, -1.085000000001263], [98.79999999999656, -1.0900000000012637], [98.80499999999655, -1.0900000000012637]], [[98.77499999999658, -1.0950000000012645], [98.77499999999658, -1.1000000000012653], [98.77999999999658, -1.1000000000012653], [98.77999999999658, -1.0900000000012637], [98.77499999999658, -1.0900000000012637], [98.77499999999658, -1.085000000001263], [98.76999999999659, -1.085000000001263], [98.76999999999659, -1.0950000000012645], [98.77499999999658, -1.0950000000012645]], [[98.76999999999659, -1.0650000000012598], [98.77499999999658, -1.0650000000012598], [98.77499999999658, -1.0550000000012583], [98.76999999999659, -1.0550000000012583], [98.76999999999659, -1.0650000000012598]], [[98.78499999999657, -1.0750000000012614], [98.78499999999657, -1.0700000000012606], [98.77999999999658, -1.0700000000012606], [98.77999999999658, -1.0750000000012614], [98.78499999999657, -1.0750000000012614]], [[98.7599999999966, -1.1200000000012684], [98.7599999999966, -1.1150000000012676], [98.7549999999966, -1.1150000000012676], [98.7549999999966, -1.1200000000012684], [98.7599999999966, -1.1200000000012684]], [[98.73499999999662, -1.1250000000012692], [98.73499999999662, -1.1200000000012684], [98.72999999999662, -1.1200000000012684], [98.72999999999662, -1.1250000000012692], [98.73499999999662, -1.1250000000012692]], [[98.73499999999662, -1.13000000000127], [98.73999999999661, -1.13000000000127], [98.73999999999661, -1.1250000000012692], [98.73499999999662, -1.1250000000012692], [98.73499999999662, -1.13000000000127]], [[98.71499999999664, -1.1350000000012708], [98.71499999999664, -1.13000000000127], [98.70999999999664, -1.13000000000127], [98.70999999999664, -1.1350000000012708], [98.71499999999664, -1.1350000000012708]], [[98.73499999999662, -1.1400000000012716], [98.73499999999662, -1.1350000000012708], [98.72999999999662, -1.1350000000012708], [98.72999999999662, -1.1400000000012716], [98.73499999999662, -1.1400000000012716]], [[98.7599999999966, -1.1450000000012723], [98.7599999999966, -1.1400000000012716], [98.7549999999966, -1.1400000000012716], [98.7549999999966, -1.1450000000012723], [98.7599999999966, -1.1450000000012723]], [[98.77499999999658, -1.155000000001274], [98.77499999999658, -1.1450000000012723], [98.76999999999659, -1.1450000000012723], [98.76999999999659, -1.155000000001274], [98.77499999999658, -1.155000000001274]], [[98.77499999999658, -1.1600000000012747], [98.77999999999658, -1.1600000000012747], [98.77999999999658, -1.155000000001274], [98.77499999999658, -1.155000000001274], [98.77499999999658, -1.1600000000012747]], [[98.84499999999652, -1.1500000000012731], [98.84499999999652, -1.1450000000012723], [98.83999999999652, -1.1450000000012723], [98.83999999999652, -1.1500000000012731], [98.84499999999652, -1.1500000000012731]], [[98.81499999999654, -1.1650000000012755], [98.81499999999654, -1.1700000000012762], [98.81999999999654, -1.1700000000012762], [98.81999999999654, -1.175000000001277], [98.82499999999654, -1.175000000001277], [98.82499999999654, -1.1650000000012755], [98.81499999999654, -1.1650000000012755]], [[98.67999999999667, -1.175000000001277], [98.67999999999667, -1.1700000000012762], [98.67499999999667, -1.1700000000012762], [98.67499999999667, -1.175000000001277], [98.67999999999667, -1.175000000001277]], [[98.85499999999651, -1.175000000001277], [98.85499999999651, -1.1700000000012762], [98.84999999999651, -1.1700000000012762], [98.84999999999651, -1.1800000000012778], [98.85499999999651, -1.1800000000012778], [98.85499999999651, -1.1850000000012786], [98.8599999999965, -1.1850000000012786], [98.8599999999965, -1.175000000001277], [98.85499999999651, -1.175000000001277]], [[98.7499999999966, -1.1950000000012801], [98.7499999999966, -1.200000000001281], [98.7549999999966, -1.200000000001281], [98.7549999999966, -1.2050000000012817], [98.7599999999966, -1.2050000000012817], [98.7599999999966, -1.1950000000012801], [98.7499999999966, -1.1950000000012801]], [[98.74499999999661, -1.2050000000012817], [98.74499999999661, -1.2100000000012825], [98.7549999999966, -1.2100000000012825], [98.7549999999966, -1.2050000000012817], [98.74499999999661, -1.2050000000012817]], [[98.84499999999652, -1.200000000001281], [98.84499999999652, -1.1950000000012801], [98.83999999999652, -1.1950000000012801], [98.83999999999652, -1.200000000001281], [98.84499999999652, -1.200000000001281]], [[98.82499999999654, -1.2050000000012817], [98.82499999999654, -1.200000000001281], [98.81999999999654, -1.200000000001281], [98.81999999999654, -1.2050000000012817], [98.82499999999654, -1.2050000000012817]], [[98.83499999999653, -1.2050000000012817], [98.83499999999653, -1.200000000001281], [98.82999999999653, -1.200000000001281], [98.82999999999653, -1.2050000000012817], [98.83499999999653, -1.2050000000012817]], [[98.82999999999653, -1.2150000000012833], [98.82999999999653, -1.2100000000012825], [98.81999999999654, -1.2100000000012825], [98.81999999999654, -1.2150000000012833], [98.82999999999653, -1.2150000000012833]], [[98.7599999999966, -1.2250000000012848], [98.7599999999966, -1.2150000000012833], [98.7549999999966, -1.2150000000012833], [98.7549999999966, -1.2250000000012848], [98.7599999999966, -1.2250000000012848]], [[98.80499999999655, -1.2300000000012856], [98.80499999999655, -1.2250000000012848], [98.79999999999656, -1.2250000000012848], [98.79999999999656, -1.2300000000012856], [98.80499999999655, -1.2300000000012856]], [[98.79999999999656, -1.2400000000012872], [98.79999999999656, -1.2350000000012864], [98.79499999999656, -1.2350000000012864], [98.79499999999656, -1.245000000001288], [98.79999999999656, -1.245000000001288], [98.79999999999656, -1.2500000000012887], [98.80499999999655, -1.2500000000012887], [98.80499999999655, -1.2400000000012872], [98.79999999999656, -1.2400000000012872]], [[98.78499999999657, -1.2500000000012887], [98.78499999999657, -1.245000000001288], [98.77999999999658, -1.245000000001288], [98.77999999999658, -1.2500000000012887], [98.78499999999657, -1.2500000000012887]], [[98.68499999999666, -1.2550000000012895], [98.68499999999666, -1.2500000000012887], [98.67999999999667, -1.2500000000012887], [98.67999999999667, -1.2550000000012895], [98.67499999999667, -1.2550000000012895], [98.67499999999667, -1.265000000001291], [98.68999999999666, -1.265000000001291], [98.68999999999666, -1.2550000000012895], [98.68499999999666, -1.2550000000012895]], [[98.76999999999659, -1.2950000000012958], [98.76999999999659, -1.290000000001295], [98.7599999999966, -1.290000000001295], [98.7599999999966, -1.2850000000012942], [98.7549999999966, -1.2850000000012942], [98.7549999999966, -1.2950000000012958], [98.7599999999966, -1.2950000000012958], [98.7599999999966, -1.3000000000012966], [98.76499999999659, -1.3000000000012966], [98.76499999999659, -1.2950000000012958], [98.76999999999659, -1.2950000000012958]], [[98.74499999999661, -1.2950000000012958], [98.74499999999661, -1.3050000000012973], [98.7549999999966, -1.3050000000012973], [98.7549999999966, -1.3000000000012966], [98.7499999999966, -1.3000000000012966], [98.7499999999966, -1.2950000000012958], [98.74499999999661, -1.2950000000012958]], [[98.79499999999656, -1.315000000001299], [98.79499999999656, -1.3100000000012981], [98.78999999999657, -1.3100000000012981], [98.78999999999657, -1.315000000001299], [98.79499999999656, -1.315000000001299]], [[98.7599999999966, -1.3250000000013005], [98.7599999999966, -1.3200000000012997], [98.7549999999966, -1.3200000000012997], [98.7549999999966, -1.3250000000013005], [98.7599999999966, -1.3250000000013005]], [[98.84499999999652, -1.3650000000013067], [98.84499999999652, -1.360000000001306], [98.83999999999652, -1.360000000001306], [98.83999999999652, -1.3650000000013067], [98.84499999999652, -1.3650000000013067]]], [[[98.78999999999657, -1.1400000000012716], [98.78499999999657, -1.1400000000012716], [98.78499999999657, -1.1350000000012708], [98.77999999999658, -1.1350000000012708], [98.77999999999658, -1.13000000000127], [98.78999999999657, -1.13000000000127], [98.78999999999657, -1.1400000000012716]]], [[[98.79499999999656, -1.13000000000127], [98.78999999999657, -1.13000000000127], [98.78999999999657, -1.1250000000012692], [98.79499999999656, -1.1250000000012692], [98.79499999999656, -1.13000000000127]]], [[[98.81499999999654, -1.1200000000012684], [98.80999999999655, -1.1200000000012684], [98.80999999999655, -1.1150000000012676], [98.81499999999654, -1.1150000000012676], [98.81499999999654, -1.1200000000012684]]], [[[98.74499999999661, -1.0900000000012637], [98.74499999999661, -1.085000000001263], [98.7499999999966, -1.085000000001263], [98.7499999999966, -1.0900000000012637], [98.74499999999661, -1.0900000000012637]]], [[[98.7549999999966, -1.085000000001263], [98.7549999999966, -1.0800000000012622], [98.7599999999966, -1.0800000000012622], [98.7599999999966, -1.085000000001263], [98.7549999999966, -1.085000000001263]]], [[[98.7599999999966, -1.0650000000012598], [98.7549999999966, -1.0650000000012598], [98.7549999999966, -1.060000000001259], [98.7599999999966, -1.060000000001259], [98.7599999999966, -1.0650000000012598]]], [[[98.80999999999655, -1.060000000001259], [98.80999999999655, -1.0550000000012583], [98.81499999999654, -1.0550000000012583], [98.81499999999654, -1.060000000001259], [98.80999999999655, -1.060000000001259]]], [[[98.78499999999657, -1.0500000000012575], [98.78499999999657, -1.040000000001256], [98.78999999999657, -1.040000000001256], [98.78999999999657, -1.0500000000012575], [98.78499999999657, -1.0500000000012575]]], [[[98.77499999999658, -1.040000000001256], [98.76999999999659, -1.040000000001256], [98.76999999999659, -1.0300000000012544], [98.77499999999658, -1.0300000000012544], [98.77499999999658, -1.040000000001256]]], [[[98.7549999999966, -1.040000000001256], [98.7549999999966, -1.0350000000012551], [98.7499999999966, -1.0350000000012551], [98.7499999999966, -1.0250000000012536], [98.7549999999966, -1.0250000000012536], [98.7549999999966, -1.0300000000012544], [98.7599999999966, -1.0300000000012544], [98.7599999999966, -1.0250000000012536], [98.76499999999659, -1.0250000000012536], [98.76499999999659, -1.040000000001256], [98.7549999999966, -1.040000000001256]]], [[[98.77999999999658, -1.0300000000012544], [98.77999999999658, -1.0250000000012536], [98.78499999999657, -1.0250000000012536], [98.78499999999657, -1.0300000000012544], [98.77999999999658, -1.0300000000012544]]], [[[98.77499999999658, -1.0250000000012536], [98.76999999999659, -1.0250000000012536], [98.76999999999659, -1.0200000000012528], [98.77499999999658, -1.0200000000012528], [98.77499999999658, -1.0250000000012536]]], [[[98.78999999999657, -1.0250000000012536], [98.78999999999657, -1.0200000000012528], [98.79499999999656, -1.0200000000012528], [98.79499999999656, -1.0250000000012536], [98.78999999999657, -1.0250000000012536]]], [[[98.79999999999656, -1.0250000000012536], [98.79999999999656, -1.0200000000012528], [98.80499999999655, -1.0200000000012528], [98.80499999999655, -1.0250000000012536], [98.79999999999656, -1.0250000000012536]]], [[[98.7499999999966, -1.0200000000012528], [98.74499999999661, -1.0200000000012528], [98.74499999999661, -1.015000000001252], [98.7499999999966, -1.015000000001252], [98.7499999999966, -1.0200000000012528]]], [[[98.78999999999657, -1.0100000000012512], [98.78999999999657, -1.0200000000012528], [98.78499999999657, -1.0200000000012528], [98.78499999999657, -1.015000000001252], [98.77999999999658, -1.015000000001252], [98.77999999999658, -1.0100000000012512], [98.78999999999657, -1.0100000000012512]]], [[[98.79999999999656, -1.0000000000012497], [98.79999999999656, -0.9950000000012489], [98.80499999999655, -0.9950000000012489], [98.80499999999655, -1.0000000000012497], [98.79999999999656, -1.0000000000012497]]], [[[98.79999999999656, -0.9950000000012489], [98.79499999999656, -0.9950000000012489], [98.79499999999656, -0.9900000000012481], [98.79999999999656, -0.9900000000012481], [98.79999999999656, -0.9950000000012489]]], [[[98.80499999999655, -0.9950000000012489], [98.80499999999655, -0.9900000000012481], [98.80999999999655, -0.9900000000012481], [98.80999999999655, -0.9950000000012489], [98.80499999999655, -0.9950000000012489]]], [[[98.8699999999965, -1.335000000001302], [98.8699999999965, -1.3300000000013013], [98.87499999999649, -1.3300000000013013], [98.87499999999649, -1.3450000000013036], [98.8699999999965, -1.3450000000013036], [98.8699999999965, -1.3400000000013028], [98.8649999999965, -1.3400000000013028], [98.8649999999965, -1.335000000001302], [98.8699999999965, -1.335000000001302]]], [[[98.82999999999653, -1.3250000000013005], [98.82999999999653, -1.3200000000012997], [98.83499999999653, -1.3200000000012997], [98.83499999999653, -1.3250000000013005], [98.82999999999653, -1.3250000000013005]]], [[[98.87499999999649, -1.3050000000012973], [98.87499999999649, -1.3250000000013005], [98.8699999999965, -1.3250000000013005], [98.8699999999965, -1.3300000000013013], [98.85499999999651, -1.3300000000013013], [98.85499999999651, -1.3250000000013005], [98.8599999999965, -1.3250000000013005], [98.8599999999965, -1.315000000001299], [98.8649999999965, -1.315000000001299], [98.8649999999965, -1.3100000000012981], [98.8599999999965, -1.3100000000012981], [98.8599999999965, -1.3050000000012973], [98.85499999999651, -1.3050000000012973], [98.85499999999651, -1.3200000000012997], [98.84499999999652, -1.3200000000012997], [98.84499999999652, -1.3250000000013005], [98.83999999999652, -1.3250000000013005], [98.83999999999652, -1.3200000000012997], [98.83499999999653, -1.3200000000012997], [98.83499999999653, -1.315000000001299], [98.83999999999652, -1.315000000001299], [98.83999999999652, -1.3100000000012981], [98.82999999999653, -1.3100000000012981], [98.82999999999653, -1.3050000000012973], [98.82499999999654, -1.3050000000012973], [98.82499999999654, -1.290000000001295], [98.82999999999653, -1.290000000001295], [98.82999999999653, -1.2850000000012942], [98.83999999999652, -1.2850000000012942], [98.83999999999652, -1.2750000000012927], [98.85499999999651, -1.2750000000012927], [98.85499999999651, -1.2850000000012942], [98.8649999999965, -1.2850000000012942], [98.8649999999965, -1.2950000000012958], [98.8699999999965, -1.2950000000012958], [98.8699999999965, -1.3050000000012973], [98.87499999999649, -1.3050000000012973]], [[98.84999999999651, -1.2850000000012942], [98.84999999999651, -1.290000000001295], [98.85499999999651, -1.290000000001295], [98.85499999999651, -1.2850000000012942], [98.84999999999651, -1.2850000000012942]], [[98.84999999999651, -1.3100000000012981], [98.84499999999652, -1.3100000000012981], [98.84499999999652, -1.315000000001299], [98.84999999999651, -1.315000000001299], [98.84999999999651, -1.3100000000012981]]], [[[98.87499999999649, -1.2950000000012958], [98.8699999999965, -1.2950000000012958], [98.8699999999965, -1.290000000001295], [98.87499999999649, -1.290000000001295], [98.87499999999649, -1.2950000000012958]]], [[[98.82499999999654, -1.290000000001295], [98.81999999999654, -1.290000000001295], [98.81999999999654, -1.2850000000012942], [98.82499999999654, -1.2850000000012942], [98.82499999999654, -1.290000000001295]]], [[[98.8599999999965, -1.1200000000012684], [98.8599999999965, -1.1150000000012676], [98.8649999999965, -1.1150000000012676], [98.8649999999965, -1.1200000000012684], [98.8599999999965, -1.1200000000012684]]], [[[98.84999999999651, -1.105000000001266], [98.84999999999651, -1.1000000000012653], [98.85499999999651, -1.1000000000012653], [98.85499999999651, -1.105000000001266], [98.84999999999651, -1.105000000001266]]], [[[98.8649999999965, -1.105000000001266], [98.8599999999965, -1.105000000001266], [98.8599999999965, -1.1000000000012653], [98.8649999999965, -1.1000000000012653], [98.8649999999965, -1.105000000001266]]], [[[98.8599999999965, -1.0950000000012645], [98.8599999999965, -1.085000000001263], [98.8649999999965, -1.085000000001263], [98.8649999999965, -1.0950000000012645], [98.8599999999965, -1.0950000000012645]]], [[[98.84499999999652, -1.0900000000012637], [98.84499999999652, -1.085000000001263], [98.84999999999651, -1.085000000001263], [98.84999999999651, -1.0900000000012637], [98.84499999999652, -1.0900000000012637]]], [[[98.83499999999653, -1.0900000000012637], [98.82999999999653, -1.0900000000012637], [98.82999999999653, -1.0800000000012622], [98.83499999999653, -1.0800000000012622], [98.83499999999653, -1.0900000000012637]]], [[[98.85499999999651, -1.085000000001263], [98.85499999999651, -1.0800000000012622], [98.8599999999965, -1.0800000000012622], [98.8599999999965, -1.085000000001263], [98.85499999999651, -1.085000000001263]]], [[[98.81999999999654, -1.0800000000012622], [98.81999999999654, -1.0750000000012614], [98.82999999999653, -1.0750000000012614], [98.82999999999653, -1.0800000000012622], [98.81999999999654, -1.0800000000012622]]], [[[98.8649999999965, -1.0700000000012606], [98.8599999999965, -1.0700000000012606], [98.8599999999965, -1.0650000000012598], [98.8649999999965, -1.0650000000012598], [98.8649999999965, -1.0700000000012606]]], [[[98.8699999999965, -1.0700000000012606], [98.8699999999965, -1.0650000000012598], [98.87499999999649, -1.0650000000012598], [98.87499999999649, -1.0700000000012606], [98.8699999999965, -1.0700000000012606]]], [[[98.8699999999965, -1.060000000001259], [98.8699999999965, -1.0550000000012583], [98.87499999999649, -1.0550000000012583], [98.87499999999649, -1.060000000001259], [98.8699999999965, -1.060000000001259]]], [[[98.87499999999649, -1.040000000001256], [98.8699999999965, -1.040000000001256], [98.8699999999965, -1.0350000000012551], [98.87499999999649, -1.0350000000012551], [98.87499999999649, -1.040000000001256]]], [[[98.85499999999651, -1.0350000000012551], [98.85499999999651, -1.0300000000012544], [98.8599999999965, -1.0300000000012544], [98.8599999999965, -1.0350000000012551], [98.85499999999651, -1.0350000000012551]]], [[[98.8649999999965, -1.0250000000012536], [98.8649999999965, -1.015000000001252], [98.87499999999649, -1.015000000001252], [98.87499999999649, -1.0250000000012536], [98.8649999999965, -1.0250000000012536]]], [[[98.83999999999652, -0.9850000000012473], [98.84499999999652, -0.9850000000012473], [98.84499999999652, -0.9900000000012481], [98.85499999999651, -0.9900000000012481], [98.85499999999651, -0.9950000000012489], [98.84499999999652, -0.9950000000012489], [98.84499999999652, -1.0000000000012497], [98.84999999999651, -1.0000000000012497], [98.84999999999651, -1.0050000000012504], [98.8599999999965, -1.0050000000012504], [98.8599999999965, -1.0100000000012512], [98.8649999999965, -1.0100000000012512], [98.8649999999965, -1.015000000001252], [98.85499999999651, -1.015000000001252], [98.85499999999651, -1.0300000000012544], [98.83999999999652, -1.0300000000012544], [98.83999999999652, -1.0350000000012551], [98.82999999999653, -1.0350000000012551], [98.82999999999653, -1.040000000001256], [98.81999999999654, -1.040000000001256], [98.81999999999654, -1.0350000000012551], [98.81499999999654, -1.0350000000012551], [98.81499999999654, -1.0300000000012544], [98.80999999999655, -1.0300000000012544], [98.80999999999655, -1.0250000000012536], [98.81499999999654, -1.0250000000012536], [98.81499999999654, -1.0200000000012528], [98.82499999999654, -1.0200000000012528], [98.82499999999654, -1.015000000001252], [98.81999999999654, -1.015000000001252], [98.81999999999654, -1.0100000000012512], [98.80999999999655, -1.0100000000012512], [98.80999999999655, -1.0050000000012504], [98.80499999999655, -1.0050000000012504], [98.80499999999655, -1.0000000000012497], [98.81999999999654, -1.0000000000012497], [98.81999999999654, -0.9900000000012481], [98.81499999999654, -0.9900000000012481], [98.81499999999654, -0.9850000000012473], [98.82499999999654, -0.9850000000012473], [98.82499999999654, -0.9900000000012481], [98.83499999999653, -0.9900000000012481], [98.83499999999653, -0.9950000000012489], [98.83999999999652, -0.9950000000012489], [98.83999999999652, -0.9850000000012473]], [[98.83499999999653, -1.0050000000012504], [98.83499999999653, -1.0100000000012512], [98.82999999999653, -1.0100000000012512], [98.82999999999653, -1.015000000001252], [98.83499999999653, -1.015000000001252], [98.83499999999653, -1.0250000000012536], [98.84499999999652, -1.0250000000012536], [98.84499999999652, -1.0100000000012512], [98.84999999999651, -1.0100000000012512], [98.84999999999651, -1.0050000000012504], [98.83499999999653, -1.0050000000012504]]], [[[98.8649999999965, -0.9900000000012481], [98.8649999999965, -0.9850000000012473], [98.8699999999965, -0.9850000000012473], [98.8699999999965, -0.9900000000012481], [98.8649999999965, -0.9900000000012481]]], [[[98.83499999999653, -0.9850000000012473], [98.83499999999653, -0.9800000000012465], [98.83999999999652, -0.9800000000012465], [98.83999999999652, -0.9850000000012473], [98.83499999999653, -0.9850000000012473]]]]}}]}