{"type": "FeatureCollection", "features": [{"type": "Feature", "properties": {"date": "2026-08-14", "category_id": 1, "level": "waspada", "kategori": "Waspada Potensi Banjir", "color": "#FFFF00"}, "geometry": {"type": "MultiPolygon", "coordinates": [[[[97.70999999999755, 2.3750000000000773], [97.69999999999756, 2.3750000000000773], [97.69999999999756, 2.380000000000077], [97.70999999999755, 2.380000000000077], [97.70999999999755, 2.3750000000000773]]], [[[97.7599999999975, 2.3750000000000773], [97.74999999999751, 2.3750000000000773], [97.74999999999751, 2.390000000000077], [97.7599999999975, 2.390000000000077], [97.7599999999975, 2.3750000000000773]]], [[[97.77999999999749, 2.380000000000077], [97.7699999999975, 2.380000000000077], [97.7699999999975, 2.390000000000077], [97.77999999999749, 2.390000000000077], [97.77999999999749, 2.380000000000077]]], [[[97.66999999999759, 2.4000000000000767], [97.66999999999759, 2.385000000000077], [97.66499999999759, 2.385000000000077], [97.66499999999759, 2.390000000000077], [97.6599999999976, 2.390000000000077], [97.6599999999976, 2.4000000000000767], [97.66999999999759, 2.4000000000000767]]], [[[97.6549999999976, 2.435000000000076], [97.6549999999976, 2.440000000000076], [97.6599999999976, 2.440000000000076], [97.6599999999976, 2.435000000000076], [97.6549999999976, 2.435000000000076]]], [[[97.69999999999756, 2.440000000000076], [97.67999999999758, 2.440000000000076], [97.67999999999758, 2.4600000000000755], [97.69999999999756, 2.4600000000000755], [97.69999999999756, 2.440000000000076]]], [[[97.77999999999749, 2.4500000000000757], [97.7699999999975, 2.4500000000000757], [97.7699999999975, 2.4600000000000755], [97.77999999999749, 2.4600000000000755], [97.77999999999749, 2.4500000000000757]]], [[[97.7599999999975, 2.480000000000075], [97.77999999999749, 2.480000000000075], [97.77999999999749, 2.4700000000000752], [97.7699999999975, 2.4700000000000752], [97.7699999999975, 2.4600000000000755], [97.7599999999975, 2.4600000000000755], [97.7599999999975, 2.480000000000075]]], [[[97.67999999999758, 2.480000000000075], [97.67999999999758, 2.490000000000075], [97.68999999999757, 2.490000000000075], [97.68999999999757, 2.480000000000075], [97.67999999999758, 2.480000000000075]]], [[[97.69999999999756, 2.490000000000075], [97.69999999999756, 2.5000000000000746], [97.70999999999755, 2.5000000000000746], [97.70999999999755, 2.490000000000075], [97.69999999999756, 2.490000000000075]]], [[[97.72999999999753, 2.5400000000000738], [97.71999999999754, 2.5400000000000738], [97.71999999999754, 2.5500000000000735], [97.72999999999753, 2.5500000000000735], [97.72999999999753, 2.5400000000000738]]], [[[97.7699999999975, 2.530000000000074], [97.7599999999975, 2.530000000000074], [97.7599999999975, 2.5600000000000733], [97.77999999999749, 2.5600000000000733], [97.77999999999749, 2.5500000000000735], [97.78999999999748, 2.5500000000000735], [97.78999999999748, 2.5400000000000738], [97.7699999999975, 2.5400000000000738], [97.7699999999975, 2.530000000000074]]], [[[97.67999999999758, 2.5500000000000735], [97.6599999999976, 2.5500000000000735], [97.6599999999976, 2.5600000000000733], [97.67999999999758, 2.5600000000000733], [97.67999999999758, 2.5500000000000735]]], [[[97.68999999999757, 2.5500000000000735], [97.68999999999757, 2.5600000000000733], [97.69999999999756, 2.5600000000000733], [97.69999999999756, 2.5500000000000735], [97.68999999999757, 2.5500000000000735]]], [[[97.67999999999758, 2.6000000000000725], [97.67999999999758, 2.6100000000000723], [97.68999999999757, 2.6100000000000723], [97.68999999999757, 2.6000000000000725], [97.67999999999758, 2.6000000000000725]]], [[[97.77999999999749, 2.630000000000072], [97.7699999999975, 2.630000000000072], [97.7699999999975, 2.6400000000000716], [97.77999999999749, 2.6400000000000716], [97.77999999999749, 2.630000000000072]]], [[[97.6599999999976, 2.7300000000000697], [97.6499999999976, 2.7300000000000697], [97.6499999999976, 2.7400000000000695], [97.6599999999976, 2.7400000000000695], [97.6599999999976, 2.7300000000000697]]], [[[97.7599999999975, 2.7300000000000697], [97.74999999999751, 2.7300000000000697], [97.74999999999751, 2.7400000000000695], [97.7599999999975, 2.7400000000000695], [97.7599999999975, 2.7300000000000697]]], [[[97.74999999999751, 2.760000000000069], [97.74999999999751, 2.770000000000069], [97.7599999999975, 2.770000000000069], [97.7599999999975, 2.760000000000069], [97.74999999999751, 2.760000000000069]]], [[[97.77999999999749, 2.7900000000000684], [97.77999999999749, 2.800000000000068], [97.78999999999748, 2.800000000000068], [97.78999999999748, 2.7900000000000684], [97.77999999999749, 2.7900000000000684]]], [[[97.77999999999749, 2.800000000000068], [97.7599999999975, 2.800000000000068], [97.7599999999975, 2.810000000000068], [97.77999999999749, 2.810000000000068], [97.77999999999749, 2.800000000000068]]], [[[97.61999999999763, 2.850000000000067], [97.60999999999764, 2.850000000000067], [97.60999999999764, 2.860000000000067], [97.62499999999763, 2.860000000000067], [97.62499999999763, 2.850000000000067], [97.62999999999762, 2.850000000000067], [97.62999999999762, 2.8300000000000676], [97.61999999999763, 2.8300000000000676], [97.61999999999763, 2.850000000000067]]], [[[97.63999999999761, 2.850000000000067], [97.63999999999761, 2.860000000000067], [97.62999999999762, 2.860000000000067], [97.62999999999762, 2.8700000000000667], [97.6499999999976, 2.8700000000000667], [97.6499999999976, 2.860000000000067], [97.6599999999976, 2.860000000000067], [97.6599999999976, 2.8400000000000674], [97.66999999999759, 2.8400000000000674], [97.66999999999759, 2.8300000000000676], [97.6499999999976, 2.8300000000000676], [97.6499999999976, 2.850000000000067], [97.63999999999761, 2.850000000000067]]], [[[97.71999999999754, 2.850000000000067], [97.71999999999754, 2.860000000000067], [97.74999999999751, 2.860000000000067], [97.74999999999751, 2.850000000000067], [97.71999999999754, 2.850000000000067]]], [[[97.6599999999976, 2.860000000000067], [97.6599999999976, 2.8700000000000667], [97.66999999999759, 2.8700000000000667], [97.66999999999759, 2.860000000000067], [97.6599999999976, 2.860000000000067]]], [[[97.69999999999756, 2.860000000000067], [97.68999999999757, 2.860000000000067], [97.68999999999757, 2.8700000000000667], [97.69999999999756, 2.8700000000000667], [97.69999999999756, 2.860000000000067]]], [[[97.59999999999765, 2.865000000000067], [97.59499999999765, 2.865000000000067], [97.59499999999765, 2.8700000000000667], [97.59999999999765, 2.8700000000000667], [97.59999999999765, 2.865000000000067]]], [[[97.62499999999763, 2.8700000000000667], [97.61999999999763, 2.8700000000000667], [97.61999999999763, 2.8750000000000666], [97.62499999999763, 2.8750000000000666], [97.62499999999763, 2.8700000000000667]]], [[[97.79999999999747, 2.390000000000077], [97.79999999999747, 2.380000000000077], [97.80999999999746, 2.380000000000077], [97.80999999999746, 2.3750000000000773], [97.78999999999748, 2.3750000000000773], [97.78999999999748, 2.390000000000077], [97.79999999999747, 2.390000000000077]]], [[[97.83999999999743, 2.4000000000000767], [97.83999999999743, 2.4100000000000765], [97.84999999999742, 2.4100000000000765], [97.84999999999742, 2.390000000000077], [97.83999999999743, 2.390000000000077], [97.83999999999743, 2.380000000000077], [97.82999999999744, 2.380000000000077], [97.82999999999744, 2.4000000000000767], [97.83999999999743, 2.4000000000000767]]], [[[97.78999999999748, 2.4200000000000763], [97.77999999999749, 2.4200000000000763], [97.77999999999749, 2.430000000000076], [97.78999999999748, 2.430000000000076], [97.78999999999748, 2.4200000000000763]]], [[[97.82999999999744, 2.440000000000076], [97.84999999999742, 2.440000000000076], [97.84999999999742, 2.430000000000076], [97.85999999999741, 2.430000000000076], [97.85999999999741, 2.4200000000000763], [97.82999999999744, 2.4200000000000763], [97.82999999999744, 2.440000000000076]]], [[[97.84999999999742, 2.4500000000000757], [97.83999999999743, 2.4500000000000757], [97.83999999999743, 2.4600000000000755], [97.84999999999742, 2.4600000000000755], [97.84999999999742, 2.4500000000000757]]], [[[97.82999999999744, 2.480000000000075], [97.82999999999744, 2.520000000000074], [97.83999999999743, 2.520000000000074], [97.83999999999743, 2.4700000000000752], [97.82999999999744, 2.4700000000000752], [97.82999999999744, 2.4500000000000757], [97.81999999999745, 2.4500000000000757], [97.81999999999745, 2.480000000000075], [97.82999999999744, 2.480000000000075]]], [[[97.84999999999742, 2.480000000000075], [97.84999999999742, 2.490000000000075], [97.85999999999741, 2.490000000000075], [97.85999999999741, 2.480000000000075], [97.84999999999742, 2.480000000000075]]], [[[97.78999999999748, 2.5000000000000746], [97.80999999999746, 2.5000000000000746], [97.80999999999746, 2.480000000000075], [97.79999999999747, 2.480000000000075], [97.79999999999747, 2.490000000000075], [97.78999999999748, 2.490000000000075], [97.78999999999748, 2.5000000000000746]]], [[[97.78999999999748, 2.520000000000074], [97.78999999999748, 2.530000000000074], [97.79999999999747, 2.530000000000074], [97.79999999999747, 2.520000000000074], [97.78999999999748, 2.520000000000074]]], [[[97.85999999999741, 2.530000000000074], [97.85999999999741, 2.525000000000074], [97.86499999999741, 2.525000000000074], [97.86499999999741, 2.520000000000074], [97.83999999999743, 2.520000000000074], [97.83999999999743, 2.530000000000074], [97.85999999999741, 2.530000000000074]]], [[[97.82999999999744, 2.520000000000074], [97.81999999999745, 2.520000000000074], [97.81999999999745, 2.580000000000073], [97.82999999999744, 2.580000000000073], [97.82999999999744, 2.520000000000074]]], [[[97.83999999999743, 2.5600000000000733], [97.83999999999743, 2.570000000000073], [97.84999999999742, 2.570000000000073], [97.84999999999742, 2.5600000000000733], [97.83999999999743, 2.5600000000000733]]], [[[97.79999999999747, 2.580000000000073], [97.79999999999747, 2.6100000000000723], [97.80999999999746, 2.6100000000000723], [97.80999999999746, 2.580000000000073], [97.79999999999747, 2.580000000000073]]], [[[97.83999999999743, 2.6000000000000725], [97.82999999999744, 2.6000000000000725], [97.82999999999744, 2.620000000000072], [97.83999999999743, 2.620000000000072], [97.83999999999743, 2.6000000000000725]]], [[[97.84999999999742, 2.6400000000000716], [97.83999999999743, 2.6400000000000716], [97.83999999999743, 2.6500000000000714], [97.84999999999742, 2.6500000000000714], [97.84999999999742, 2.6400000000000716]]], [[[97.85999999999741, 2.6500000000000714], [97.84999999999742, 2.6500000000000714], [97.84999999999742, 2.660000000000071], [97.85999999999741, 2.660000000000071], [97.85999999999741, 2.6500000000000714]]], [[[97.83999999999743, 2.670000000000071], [97.83999999999743, 2.6800000000000708], [97.80999999999746, 2.6800000000000708], [97.80999999999746, 2.6900000000000706], [97.81999999999745, 2.6900000000000706], [97.81999999999745, 2.7000000000000703], [97.82999999999744, 2.7000000000000703], [97.82999999999744, 2.72000000000007], [97.83999999999743, 2.72000000000007], [97.83999999999743, 2.7000000000000703], [97.84999999999742, 2.7000000000000703], [97.84999999999742, 2.6800000000000708], [97.8749999999974, 2.6800000000000708], [97.8749999999974, 2.670000000000071], [97.83999999999743, 2.670000000000071]]], [[[97.79999999999747, 2.72000000000007], [97.79999999999747, 2.71000000000007], [97.81999999999745, 2.71000000000007], [97.81999999999745, 2.7000000000000703], [97.80999999999746, 2.7000000000000703], [97.80999999999746, 2.6900000000000706], [97.79499999999747, 2.6900000000000706], [97.79499999999747, 2.6850000000000707], [97.78999999999748, 2.6850000000000707], [97.78999999999748, 2.6800000000000708], [97.78499999999748, 2.6800000000000708], [97.78499999999748, 2.675000000000071], [97.77999999999749, 2.675000000000071], [97.77999999999749, 2.670000000000071], [97.7599999999975, 2.670000000000071], [97.7599999999975, 2.6950000000000705], [97.75499999999751, 2.6950000000000705], [97.75499999999751, 2.7050000000000702], [97.7599999999975, 2.7050000000000702], [97.7599999999975, 2.7300000000000697], [97.7699999999975, 2.7300000000000697], [97.7699999999975, 2.72000000000007], [97.77999999999749, 2.72000000000007], [97.77999999999749, 2.7300000000000697], [97.80999999999746, 2.7300000000000697], [97.80999999999746, 2.72000000000007], [97.79999999999747, 2.72000000000007]]], [[[97.78999999999748, 2.7400000000000695], [97.78999999999748, 2.7500000000000693], [97.80999999999746, 2.7500000000000693], [97.80999999999746, 2.7400000000000695], [97.78999999999748, 2.7400000000000695]]], [[[97.81999999999745, 2.760000000000069], [97.81999999999745, 2.7500000000000693], [97.80999999999746, 2.7500000000000693], [97.80999999999746, 2.760000000000069], [97.81999999999745, 2.760000000000069]]], [[[97.82999999999744, 2.760000000000069], [97.81999999999745, 2.760000000000069], [97.81999999999745, 2.770000000000069], [97.82999999999744, 2.770000000000069], [97.82999999999744, 2.760000000000069]]], [[[97.83999999999743, 2.760000000000069], [97.83999999999743, 2.770000000000069], [97.84999999999742, 2.770000000000069], [97.84999999999742, 2.760000000000069], [97.83999999999743, 2.760000000000069]]], [[[97.80999999999746, 2.7800000000000686], [97.80999999999746, 2.760000000000069], [97.79999999999747, 2.760000000000069], [97.79999999999747, 2.770000000000069], [97.78999999999748, 2.770000000000069], [97.78999999999748, 2.7800000000000686], [97.80999999999746, 2.7800000000000686]]], [[[97.85999999999741, 2.770000000000069], [97.84999999999742, 2.770000000000069], [97.84999999999742, 2.7800000000000686], [97.85999999999741, 2.7800000000000686], [97.85999999999741, 2.770000000000069]]], [[[97.83999999999743, 2.7800000000000686], [97.82999999999744, 2.7800000000000686], [97.82999999999744, 2.7900000000000684], [97.83999999999743, 2.7900000000000684], [97.83999999999743, 2.7800000000000686]]], [[[97.81999999999745, 2.7900000000000684], [97.80999999999746, 2.7900000000000684], [97.80999999999746, 2.800000000000068], [97.81999999999745, 2.800000000000068], [97.81999999999745, 2.7900000000000684]]], [[[97.78999999999748, 2.810000000000068], [97.78999999999748, 2.820000000000068], [97.79999999999747, 2.820000000000068], [97.79999999999747, 2.810000000000068], [97.78999999999748, 2.810000000000068]]], [[[97.79999999999747, 2.8300000000000676], [97.79999999999747, 2.8400000000000674], [97.81999999999745, 2.8400000000000674], [97.81999999999745, 2.8300000000000676], [97.79999999999747, 2.8300000000000676]]], [[[97.85999999999741, 2.3750000000000773], [97.84999999999742, 2.3750000000000773], [97.84999999999742, 2.390000000000077], [97.85999999999741, 2.390000000000077], [97.85999999999741, 2.3750000000000773]]], [[[97.89999999999738, 2.390000000000077], [97.88999999999739, 2.390000000000077], [97.88999999999739, 2.4000000000000767], [97.89999999999738, 2.4000000000000767], [97.89999999999738, 2.390000000000077]]], [[[97.95999999999732, 2.390000000000077], [97.94999999999733, 2.390000000000077], [97.94999999999733, 2.4000000000000767], [97.95999999999732, 2.4000000000000767], [97.95999999999732, 2.390000000000077]]], [[[97.85999999999741, 2.4000000000000767], [97.85999999999741, 2.4050000000000766], [97.86499999999741, 2.4050000000000766], [97.86499999999741, 2.4000000000000767], [97.85999999999741, 2.4000000000000767]]], [[[97.8799999999974, 2.4100000000000765], [97.8799999999974, 2.395000000000077], [97.8749999999974, 2.395000000000077], [97.8749999999974, 2.4000000000000767], [97.8699999999974, 2.4000000000000767], [97.8699999999974, 2.4100000000000765], [97.8799999999974, 2.4100000000000765]]], [[[97.94999999999733, 2.4000000000000767], [97.94499999999734, 2.4000000000000767], [97.94499999999734, 2.4050000000000766], [97.94999999999733, 2.4050000000000766], [97.94999999999733, 2.4000000000000767]]], [[[98.00999999999728, 2.4000000000000767], [97.99999999999729, 2.4000000000000767], [97.99999999999729, 2.4100000000000765], [98.00999999999728, 2.4100000000000765], [98.00999999999728, 2.4000000000000767]]], [[[97.94999999999733, 2.4100000000000765], [97.94999999999733, 2.4200000000000763], [97.96999999999731, 2.4200000000000763], [97.96999999999731, 2.4100000000000765], [97.94999999999733, 2.4100000000000765]]], [[[97.96999999999731, 2.4200000000000763], [97.96999999999731, 2.430000000000076], [97.9799999999973, 2.430000000000076], [97.9799999999973, 2.4200000000000763], [97.96999999999731, 2.4200000000000763]]], [[[97.8699999999974, 2.430000000000076], [97.8699999999974, 2.440000000000076], [97.8799999999974, 2.440000000000076], [97.8799999999974, 2.430000000000076], [97.8699999999974, 2.430000000000076]]], [[[98.03999999999725, 2.440000000000076], [98.03499999999725, 2.440000000000076], [98.03499999999725, 2.4500000000000757], [98.03999999999725, 2.4500000000000757], [98.03999999999725, 2.440000000000076]]], [[[97.9899999999973, 2.4500000000000757], [97.9799999999973, 2.4500000000000757], [97.9799999999973, 2.4600000000000755], [97.99999999999729, 2.4600000000000755], [97.99999999999729, 2.4500000000000757], [97.99499999999729, 2.4500000000000757], [97.99499999999729, 2.445000000000076], [97.9899999999973, 2.445000000000076], [97.9899999999973, 2.4500000000000757]]], [[[97.96999999999731, 2.4500000000000757], [97.95999999999732, 2.4500000000000757], [97.95999999999732, 2.4600000000000755], [97.96999999999731, 2.4600000000000755], [97.96999999999731, 2.4500000000000757]]], [[[98.03499999999725, 2.4600000000000755], [98.03499999999725, 2.4500000000000757], [98.02999999999726, 2.4500000000000757], [98.02999999999726, 2.4700000000000752], [98.06999999999722, 2.4700000000000752], [98.06999999999722, 2.4600000000000755], [98.04999999999724, 2.4600000000000755], [98.04999999999724, 2.4500000000000757], [98.03999999999725, 2.4500000000000757], [98.03999999999725, 2.4600000000000755], [98.03499999999725, 2.4600000000000755]]], [[[97.85999999999741, 2.4700000000000752], [97.85999999999741, 2.480000000000075], [97.8699999999974, 2.480000000000075], [97.8699999999974, 2.4700000000000752], [97.85999999999741, 2.4700000000000752]]], [[[98.11999999999718, 2.4700000000000752], [98.10999999999719, 2.4700000000000752], [98.10999999999719, 2.480000000000075], [98.11999999999718, 2.480000000000075], [98.11999999999718, 2.4700000000000752]]], [[[98.02999999999726, 2.5000000000000746], [98.01999999999727, 2.5000000000000746], [98.01999999999727, 2.5100000000000744], [98.02999999999726, 2.5100000000000744], [98.02999999999726, 2.5000000000000746]]], [[[97.92999999999735, 2.530000000000074], [97.91999999999736, 2.530000000000074], [97.91999999999736, 2.5400000000000738], [97.92999999999735, 2.5400000000000738], [97.92999999999735, 2.530000000000074]]], [[[97.85999999999741, 2.620000000000072], [97.85999999999741, 2.6400000000000716], [97.8699999999974, 2.6400000000000716], [97.8699999999974, 2.620000000000072], [97.85999999999741, 2.620000000000072]]], [[[97.91999999999736, 2.630000000000072], [97.91999999999736, 2.6500000000000714], [97.92999999999735, 2.6500000000000714], [97.92999999999735, 2.630000000000072], [97.91999999999736, 2.630000000000072]]], [[[97.9799999999973, 2.6350000000000717], [97.97499999999731, 2.6350000000000717], [97.97499999999731, 2.6400000000000716], [97.96999999999731, 2.6400000000000716], [97.96999999999731, 2.6500000000000714], [97.9799999999973, 2.6500000000000714], [97.9799999999973, 2.6400000000000716], [97.9899999999973, 2.6400000000000716], [97.9899999999973, 2.630000000000072], [97.9799999999973, 2.630000000000072], [97.9799999999973, 2.6350000000000717]]], [[[97.90999999999737, 2.6500000000000714], [97.90999999999737, 2.660000000000071], [97.91999999999736, 2.660000000000071], [97.91999999999736, 2.6500000000000714], [97.90999999999737, 2.6500000000000714]]], [[[97.8799999999974, 2.670000000000071], [97.8799999999974, 2.6800000000000708], [97.88999999999739, 2.6800000000000708], [97.88999999999739, 2.670000000000071], [97.8799999999974, 2.670000000000071]]], [[[97.95999999999732, 2.7300000000000697], [97.94999999999733, 2.7300000000000697], [97.94999999999733, 2.7400000000000695], [97.95999999999732, 2.7400000000000695], [97.95999999999732, 2.7300000000000697]]], [[[97.8699999999974, 2.7800000000000686], [97.8699999999974, 2.7900000000000684], [97.8799999999974, 2.7900000000000684], [97.8799999999974, 2.7800000000000686], [97.8699999999974, 2.7800000000000686]]], [[[97.8699999999974, 2.800000000000068], [97.8699999999974, 2.820000000000068], [97.8749999999974, 2.820000000000068], [97.8749999999974, 2.800000000000068], [97.8699999999974, 2.800000000000068]]]]}}]}